<?xml version="1.0" encoding="UTF-8"?>
<gpx version="1.1" creator="Guia Paris 2026" xmlns="http://www.topografix.com/GPX/1/1">
<metadata><name>2026-09-03 La Cité, la Conciergerie, el Sena, el Panteón, Mouffetard y Orsay</name></metadata>
<wpt lat="48.852937" lon="2.35005"><name>08:00 Notre-Dame de París</name><desc>08:00 · Notre-Dame. Abre a las 7:50 entre semana y la primera hora está prácticamente vacía. Gratis. La franja reservable se libera dos o tres días antes; sin reserva se entra por la cola de la izquierda. Volveréis a pasar por delante en el free tour.</desc><type>visita</type></wpt>
<wpt lat="48.855464" lon="2.34766"><name>09:00 Marché aux Fleurs</name><desc>09:00 · Marché aux Fleurs. Funciona desde 1808 y es el último mercado de flores del centro de París. Gratis. A esta hora la luz entra de lado por los pabellones de cristal.</desc><type>visita</type></wpt>
<wpt lat="48.855949" lon="2.346026"><name>09:30 La Conciergerie</name><desc>09:30 · La Conciergerie, en la apertura. Entre 13 y 15 €, gratis para los dos chicos, con reserva de franja. La sala de los Hombres de Armas es la mayor sala gótica civil de Europa. Cocinas medievales, calabozos, capilla de los Girondinos y celda de María Antonieta. Entre 1792 y 1794 pasaron por aquí unas 2.700 personas camino de la guillotina.</desc><type>visita</type></wpt>
<wpt lat="48.856426" lon="2.352528"><name>10:30 Hôtel de Ville</name><desc>10:30 · Free tour por París. Dos horas y tres cuartos por el centro histórico. Termina junto al Louvre hacia las 13:15.</desc><type>tour</type></wpt>
<wpt lat="48.866378" lon="2.33557"><name>13:20 Rue Sainte-Anne</name><desc>13:20 · Comida rápida junto al Palais-Royal. La rue Sainte-Anne es la calle japonesa de París y sirve rápido y bien. La rue de Rivoli, al lado, es cara y mediocre. Cuarenta y cinco minutos, que a las 14:30 hay barco.</desc><type>comida</type></wpt>
<wpt lat="48.857407" lon="2.340328"><name>14:10 Square du Vert-Galant</name><desc>14:10 · Bajada al Pont Neuf. Diez minutos andando. Si vais sobrados, la Galerie Vivienne y la Colbert quedan cinco minutos al norte; si el tour se ha retrasado, se dejan para el viernes por la mañana.</desc><type>transporte</type></wpt>
<wpt lat="48.846195" lon="2.346051"><name>16:00 El Panteón</name><desc>16:00 · El Panteón. 13 €, gratis para menores de 26 de la UE. Última entrada a las 17:45 y la cripta cierra a las 17:30. La nave es fría y vacía, neoclásico de manual; lo que engancha son la cripta, con Voltaire y Rousseau enfrentados, Victor Hugo, Zola, Jean Moulin y Marie Curie, y el péndulo de Foucault, en el sitio exacto donde en 1851 se demostró que la Tierra gira.</desc><type>visita</type></wpt>
<wpt lat="48.84655" lon="2.348017"><name>17:10 Saint-Étienne-du-Mont</name><desc>17:10 · Saint-Étienne-du-Mont. Gratis, pegada al Panteón. Conserva el único jubé que queda en París y las tumbas de Pascal y Racine.</desc><type>visita</type></wpt>
<wpt lat="48.844078" lon="2.349338"><name>17:25 Rue Mouffetard</name><desc>17:25 · Merienda en la Mouffetard. Calle de mercado desde época romana, sobre el trazado de la vía que salía de Lutecia hacia el sur. Au P&#x27;tit Grec, en el 68, hace crepes del tamaño de un antebrazo; uno entre dos aguanta hasta las diez. Suelen pedir efectivo.</desc><type>comida</type></wpt>
<wpt lat="48.859918" lon="2.326585"><name>18:05 Museo de Orsay</name><desc>18:05 · A Orsay</desc><type>transporte</type></wpt>
<wpt lat="48.853968" lon="2.334518"><name>21:45 Saint-Germain-des-Prés</name><desc>21:45 · Cena. Saint-Germain está a tres minutos cruzando la rue de Lille y las cervecerías sirven pasadas las 22:00; vuelta en RER C desde Musée d&#x27;Orsay. La otra opción es volver a la Mouffetard, veinticinco minutos: Le Vieux Bistrot cierra a las 23:00 y La Crète a las 22:30, así que hay que ir directos.</desc><type>comida</type></wpt>
<trk><name>Notre-Dame de París a Marché aux Fleurs (539 m, 8.8 min)</name><trkseg>
<trkpt lat="48.852739" lon="2.349805"/>
<trkpt lat="48.852739" lon="2.349805"/>
<trkpt lat="48.853021" lon="2.348907"/>
<trkpt lat="48.853060" lon="2.348782"/>
<trkpt lat="48.853204" lon="2.348886"/>
<trkpt lat="48.853457" lon="2.349069"/>
<trkpt lat="48.853485" lon="2.348980"/>
<trkpt lat="48.853842" lon="2.347849"/>
<trkpt lat="48.853849" lon="2.347823"/>
<trkpt lat="48.853830" lon="2.347780"/>
<trkpt lat="48.853835" lon="2.347764"/>
<trkpt lat="48.853851" lon="2.347713"/>
<trkpt lat="48.853866" lon="2.347667"/>
<trkpt lat="48.853892" lon="2.347591"/>
<trkpt lat="48.853907" lon="2.347558"/>
<trkpt lat="48.853978" lon="2.347471"/>
<trkpt lat="48.854009" lon="2.347481"/>
<trkpt lat="48.854038" lon="2.347489"/>
<trkpt lat="48.854062" lon="2.347497"/>
<trkpt lat="48.854109" lon="2.347515"/>
<trkpt lat="48.854174" lon="2.347548"/>
<trkpt lat="48.854205" lon="2.347564"/>
<trkpt lat="48.854260" lon="2.347597"/>
<trkpt lat="48.854342" lon="2.347647"/>
<trkpt lat="48.854440" lon="2.347731"/>
<trkpt lat="48.854481" lon="2.347755"/>
<trkpt lat="48.855134" lon="2.348132"/>
<trkpt lat="48.855574" lon="2.348387"/>
<trkpt lat="48.855580" lon="2.348362"/>
<trkpt lat="48.855596" lon="2.348296"/>
<trkpt lat="48.855620" lon="2.348207"/>
<trkpt lat="48.855629" lon="2.348175"/>
<trkpt lat="48.855644" lon="2.348176"/>
<trkpt lat="48.855664" lon="2.348106"/>
<trkpt lat="48.855695" lon="2.347983"/>
<trkpt lat="48.855700" lon="2.347964"/>
<trkpt lat="48.855705" lon="2.347944"/>
<trkpt lat="48.855735" lon="2.347833"/>
<trkpt lat="48.855722" lon="2.347825"/>
<trkpt lat="48.855427" lon="2.347649"/>
</trkseg></trk>
<trk><name>Marché aux Fleurs a La Conciergerie (189 m, 3.6 min)</name><trkseg>
<trkpt lat="48.855427" lon="2.347649"/>
<trkpt lat="48.855722" lon="2.347825"/>
<trkpt lat="48.855735" lon="2.347833"/>
<trkpt lat="48.855758" lon="2.347761"/>
<trkpt lat="48.855772" lon="2.347729"/>
<trkpt lat="48.855777" lon="2.347713"/>
<trkpt lat="48.855782" lon="2.347692"/>
<trkpt lat="48.855795" lon="2.347663"/>
<trkpt lat="48.855822" lon="2.347563"/>
<trkpt lat="48.855850" lon="2.347478"/>
<trkpt lat="48.855862" lon="2.347432"/>
<trkpt lat="48.855875" lon="2.347386"/>
<trkpt lat="48.855979" lon="2.347027"/>
<trkpt lat="48.856075" lon="2.346628"/>
<trkpt lat="48.856082" lon="2.346597"/>
<trkpt lat="48.856094" lon="2.346530"/>
<trkpt lat="48.856111" lon="2.346462"/>
<trkpt lat="48.856133" lon="2.346379"/>
<trkpt lat="48.856141" lon="2.346344"/>
<trkpt lat="48.856158" lon="2.346284"/>
<trkpt lat="48.855919" lon="2.346141"/>
</trkseg></trk>
<trk><name>La Conciergerie a Hôtel de Ville (732 m, 11.5 min)</name><trkseg>
<trkpt lat="48.855919" lon="2.346141"/>
<trkpt lat="48.856158" lon="2.346284"/>
<trkpt lat="48.856141" lon="2.346344"/>
<trkpt lat="48.856133" lon="2.346379"/>
<trkpt lat="48.856111" lon="2.346462"/>
<trkpt lat="48.856094" lon="2.346530"/>
<trkpt lat="48.856082" lon="2.346597"/>
<trkpt lat="48.856075" lon="2.346628"/>
<trkpt lat="48.855979" lon="2.347027"/>
<trkpt lat="48.855875" lon="2.347386"/>
<trkpt lat="48.855862" lon="2.347432"/>
<trkpt lat="48.855850" lon="2.347478"/>
<trkpt lat="48.855822" lon="2.347563"/>
<trkpt lat="48.855795" lon="2.347663"/>
<trkpt lat="48.855782" lon="2.347692"/>
<trkpt lat="48.855777" lon="2.347713"/>
<trkpt lat="48.855772" lon="2.347729"/>
<trkpt lat="48.855758" lon="2.347761"/>
<trkpt lat="48.855735" lon="2.347833"/>
<trkpt lat="48.855705" lon="2.347944"/>
<trkpt lat="48.855700" lon="2.347964"/>
<trkpt lat="48.855695" lon="2.347983"/>
<trkpt lat="48.855664" lon="2.348106"/>
<trkpt lat="48.855644" lon="2.348176"/>
<trkpt lat="48.855629" lon="2.348175"/>
<trkpt lat="48.855620" lon="2.348207"/>
<trkpt lat="48.855596" lon="2.348296"/>
<trkpt lat="48.855580" lon="2.348362"/>
<trkpt lat="48.855574" lon="2.348387"/>
<trkpt lat="48.855573" lon="2.348415"/>
<trkpt lat="48.855442" lon="2.348908"/>
<trkpt lat="48.855227" lon="2.349639"/>
<trkpt lat="48.855059" lon="2.350135"/>
<trkpt lat="48.855068" lon="2.350142"/>
<trkpt lat="48.855103" lon="2.350169"/>
<trkpt lat="48.855141" lon="2.350200"/>
<trkpt lat="48.855155" lon="2.350212"/>
<trkpt lat="48.855160" lon="2.350223"/>
<trkpt lat="48.855145" lon="2.350261"/>
<trkpt lat="48.855128" lon="2.350309"/>
<trkpt lat="48.855112" lon="2.350352"/>
<trkpt lat="48.855097" lon="2.350396"/>
<trkpt lat="48.855113" lon="2.350409"/>
<trkpt lat="48.855779" lon="2.350892"/>
<trkpt lat="48.855818" lon="2.350995"/>
<trkpt lat="48.855809" lon="2.351063"/>
<trkpt lat="48.855363" lon="2.352212"/>
<trkpt lat="48.855328" lon="2.352345"/>
<trkpt lat="48.855341" lon="2.352350"/>
<trkpt lat="48.855374" lon="2.352379"/>
<trkpt lat="48.855427" lon="2.352431"/>
<trkpt lat="48.855438" lon="2.352441"/>
<trkpt lat="48.855459" lon="2.352461"/>
<trkpt lat="48.855484" lon="2.352484"/>
<trkpt lat="48.855499" lon="2.352498"/>
<trkpt lat="48.855508" lon="2.352832"/>
<trkpt lat="48.855616" lon="2.352910"/>
<trkpt lat="48.855632" lon="2.352919"/>
<trkpt lat="48.855903" lon="2.353061"/>
<trkpt lat="48.855955" lon="2.353089"/>
<trkpt lat="48.855971" lon="2.353098"/>
<trkpt lat="48.855993" lon="2.353006"/>
<trkpt lat="48.856009" lon="2.352940"/>
<trkpt lat="48.856121" lon="2.352480"/>
<trkpt lat="48.856147" lon="2.352372"/>
</trkseg></trk>
<trk><name>Explanada del Louvre a Rue Sainte-Anne (970 m, 13.8 min)</name><trkseg>
<trkpt lat="48.860785" lon="2.335989"/>
<trkpt lat="48.860892" lon="2.336343"/>
<trkpt lat="48.860932" lon="2.336477"/>
<trkpt lat="48.860912" lon="2.336511"/>
<trkpt lat="48.860869" lon="2.336586"/>
<trkpt lat="48.860818" lon="2.336637"/>
<trkpt lat="48.860696" lon="2.337126"/>
<trkpt lat="48.860670" lon="2.337254"/>
<trkpt lat="48.860662" lon="2.337288"/>
<trkpt lat="48.860641" lon="2.337378"/>
<trkpt lat="48.860769" lon="2.337512"/>
<trkpt lat="48.860879" lon="2.337581"/>
<trkpt lat="48.861073" lon="2.337608"/>
<trkpt lat="48.861421" lon="2.336231"/>
<trkpt lat="48.861432" lon="2.336188"/>
<trkpt lat="48.861452" lon="2.336110"/>
<trkpt lat="48.861514" lon="2.336145"/>
<trkpt lat="48.861528" lon="2.336154"/>
<trkpt lat="48.861612" lon="2.336202"/>
<trkpt lat="48.861630" lon="2.336212"/>
<trkpt lat="48.861672" lon="2.336236"/>
<trkpt lat="48.861711" lon="2.336258"/>
<trkpt lat="48.861761" lon="2.336287"/>
<trkpt lat="48.861883" lon="2.336357"/>
<trkpt lat="48.862190" lon="2.336539"/>
<trkpt lat="48.862208" lon="2.336552"/>
<trkpt lat="48.862419" lon="2.335892"/>
<trkpt lat="48.862524" lon="2.335567"/>
<trkpt lat="48.862596" lon="2.335341"/>
<trkpt lat="48.862602" lon="2.335321"/>
<trkpt lat="48.862617" lon="2.335272"/>
<trkpt lat="48.862628" lon="2.335238"/>
<trkpt lat="48.862637" lon="2.335209"/>
<trkpt lat="48.862645" lon="2.335180"/>
<trkpt lat="48.862654" lon="2.335151"/>
<trkpt lat="48.862661" lon="2.335129"/>
<trkpt lat="48.862671" lon="2.335096"/>
<trkpt lat="48.862681" lon="2.335064"/>
<trkpt lat="48.862691" lon="2.335029"/>
<trkpt lat="48.862704" lon="2.334986"/>
<trkpt lat="48.862725" lon="2.334920"/>
<trkpt lat="48.862747" lon="2.334936"/>
<trkpt lat="48.862764" lon="2.334948"/>
<trkpt lat="48.862816" lon="2.334986"/>
<trkpt lat="48.862864" lon="2.335020"/>
<trkpt lat="48.862883" lon="2.335034"/>
<trkpt lat="48.862886" lon="2.335036"/>
<trkpt lat="48.862838" lon="2.335185"/>
<trkpt lat="48.862855" lon="2.335204"/>
<trkpt lat="48.862865" lon="2.335212"/>
<trkpt lat="48.863114" lon="2.335356"/>
<trkpt lat="48.863227" lon="2.335307"/>
<trkpt lat="48.863253" lon="2.335257"/>
<trkpt lat="48.863264" lon="2.335269"/>
<trkpt lat="48.863349" lon="2.335251"/>
<trkpt lat="48.863451" lon="2.335229"/>
<trkpt lat="48.863480" lon="2.335226"/>
<trkpt lat="48.863487" lon="2.335271"/>
<trkpt lat="48.863509" lon="2.335378"/>
<trkpt lat="48.863530" lon="2.335478"/>
<trkpt lat="48.863570" lon="2.335520"/>
<trkpt lat="48.863669" lon="2.335472"/>
<trkpt lat="48.863705" lon="2.335482"/>
<trkpt lat="48.863725" lon="2.335455"/>
<trkpt lat="48.863750" lon="2.335438"/>
<trkpt lat="48.863786" lon="2.335435"/>
<trkpt lat="48.863819" lon="2.335454"/>
<trkpt lat="48.863845" lon="2.335417"/>
<trkpt lat="48.863980" lon="2.335346"/>
<trkpt lat="48.864036" lon="2.335318"/>
<trkpt lat="48.864049" lon="2.335313"/>
<trkpt lat="48.864070" lon="2.335305"/>
<trkpt lat="48.864264" lon="2.335235"/>
<trkpt lat="48.864374" lon="2.335184"/>
<trkpt lat="48.864421" lon="2.335152"/>
<trkpt lat="48.864436" lon="2.335146"/>
<trkpt lat="48.864483" lon="2.335124"/>
<trkpt lat="48.864520" lon="2.335108"/>
<trkpt lat="48.864534" lon="2.335104"/>
<trkpt lat="48.864551" lon="2.335096"/>
<trkpt lat="48.864761" lon="2.335005"/>
<trkpt lat="48.864914" lon="2.334947"/>
<trkpt lat="48.865252" lon="2.335090"/>
<trkpt lat="48.865264" lon="2.335100"/>
<trkpt lat="48.865559" lon="2.335225"/>
<trkpt lat="48.865826" lon="2.335345"/>
<trkpt lat="48.866140" lon="2.335501"/>
<trkpt lat="48.866164" lon="2.335528"/>
<trkpt lat="48.866171" lon="2.335522"/>
<trkpt lat="48.866188" lon="2.335465"/>
<trkpt lat="48.866247" lon="2.335500"/>
<trkpt lat="48.866291" lon="2.335528"/>
<trkpt lat="48.866378" lon="2.335571"/>
</trkseg></trk>
<trk><name>Rue Sainte-Anne a Galerie Vivienne (423 m, 5.8 min)</name><trkseg>
<trkpt lat="48.866378" lon="2.335571"/>
<trkpt lat="48.866585" lon="2.335672"/>
<trkpt lat="48.866931" lon="2.335852"/>
<trkpt lat="48.866923" lon="2.335888"/>
<trkpt lat="48.866922" lon="2.335896"/>
<trkpt lat="48.866938" lon="2.335912"/>
<trkpt lat="48.866931" lon="2.335949"/>
<trkpt lat="48.866942" lon="2.335949"/>
<trkpt lat="48.866971" lon="2.335952"/>
<trkpt lat="48.866994" lon="2.335953"/>
<trkpt lat="48.867001" lon="2.335955"/>
<trkpt lat="48.866872" lon="2.336504"/>
<trkpt lat="48.866864" lon="2.336531"/>
<trkpt lat="48.866862" lon="2.336546"/>
<trkpt lat="48.866856" lon="2.336576"/>
<trkpt lat="48.866848" lon="2.336616"/>
<trkpt lat="48.866847" lon="2.336631"/>
<trkpt lat="48.866790" lon="2.336857"/>
<trkpt lat="48.866683" lon="2.337305"/>
<trkpt lat="48.866684" lon="2.337327"/>
<trkpt lat="48.866704" lon="2.337338"/>
<trkpt lat="48.866704" lon="2.337355"/>
<trkpt lat="48.866699" lon="2.337392"/>
<trkpt lat="48.866693" lon="2.337452"/>
<trkpt lat="48.866695" lon="2.337469"/>
<trkpt lat="48.866662" lon="2.337499"/>
<trkpt lat="48.866393" lon="2.338622"/>
<trkpt lat="48.866393" lon="2.338643"/>
<trkpt lat="48.866391" lon="2.338653"/>
<trkpt lat="48.866381" lon="2.338692"/>
<trkpt lat="48.866370" lon="2.338735"/>
<trkpt lat="48.866367" lon="2.338748"/>
<trkpt lat="48.866350" lon="2.338740"/>
<trkpt lat="48.866345" lon="2.338758"/>
<trkpt lat="48.866268" lon="2.339084"/>
<trkpt lat="48.866180" lon="2.339462"/>
<trkpt lat="48.866207" lon="2.339475"/>
<trkpt lat="48.866634" lon="2.339695"/>
<trkpt lat="48.866731" lon="2.339745"/>
</trkseg></trk>
<trk><name>Galerie Vivienne a Galerie Colbert (129 m, 1.6 min)</name><trkseg>
<trkpt lat="48.866731" lon="2.339745"/>
<trkpt lat="48.867033" lon="2.339901"/>
<trkpt lat="48.867188" lon="2.339206"/>
<trkpt lat="48.867190" lon="2.339197"/>
<trkpt lat="48.866858" lon="2.339016"/>
</trkseg></trk>
<trk><name>Galerie Colbert a Square du Vert-Galant (1544 m, 21.6 min)</name><trkseg>
<trkpt lat="48.866858" lon="2.339016"/>
<trkpt lat="48.866367" lon="2.338748"/>
<trkpt lat="48.866350" lon="2.338740"/>
<trkpt lat="48.866345" lon="2.338758"/>
<trkpt lat="48.866330" lon="2.338750"/>
<trkpt lat="48.866319" lon="2.338744"/>
<trkpt lat="48.866285" lon="2.338727"/>
<trkpt lat="48.866279" lon="2.338724"/>
<trkpt lat="48.866169" lon="2.339194"/>
<trkpt lat="48.866085" lon="2.339556"/>
<trkpt lat="48.866073" lon="2.339591"/>
<trkpt lat="48.866071" lon="2.339600"/>
<trkpt lat="48.866063" lon="2.339630"/>
<trkpt lat="48.866056" lon="2.339658"/>
<trkpt lat="48.866052" lon="2.339669"/>
<trkpt lat="48.866012" lon="2.339815"/>
<trkpt lat="48.865963" lon="2.339789"/>
<trkpt lat="48.865444" lon="2.340241"/>
<trkpt lat="48.865366" lon="2.340306"/>
<trkpt lat="48.865091" lon="2.340541"/>
<trkpt lat="48.864838" lon="2.340377"/>
<trkpt lat="48.864827" lon="2.340401"/>
<trkpt lat="48.864789" lon="2.340475"/>
<trkpt lat="48.864754" lon="2.340543"/>
<trkpt lat="48.864744" lon="2.340561"/>
<trkpt lat="48.864723" lon="2.340566"/>
<trkpt lat="48.864710" lon="2.340558"/>
<trkpt lat="48.864697" lon="2.340550"/>
<trkpt lat="48.864680" lon="2.340539"/>
<trkpt lat="48.864657" lon="2.340526"/>
<trkpt lat="48.864653" lon="2.340536"/>
<trkpt lat="48.864498" lon="2.340890"/>
<trkpt lat="48.864190" lon="2.341577"/>
<trkpt lat="48.864168" lon="2.341583"/>
<trkpt lat="48.864133" lon="2.341663"/>
<trkpt lat="48.864097" lon="2.341708"/>
<trkpt lat="48.864085" lon="2.341724"/>
<trkpt lat="48.864078" lon="2.341748"/>
<trkpt lat="48.864065" lon="2.341790"/>
<trkpt lat="48.864059" lon="2.341790"/>
<trkpt lat="48.864043" lon="2.341858"/>
<trkpt lat="48.863957" lon="2.342061"/>
<trkpt lat="48.863943" lon="2.342094"/>
<trkpt lat="48.863898" lon="2.342201"/>
<trkpt lat="48.863862" lon="2.342221"/>
<trkpt lat="48.863793" lon="2.342185"/>
<trkpt lat="48.863497" lon="2.342026"/>
<trkpt lat="48.863270" lon="2.341903"/>
<trkpt lat="48.863183" lon="2.341842"/>
<trkpt lat="48.863168" lon="2.341769"/>
<trkpt lat="48.863108" lon="2.341771"/>
<trkpt lat="48.863085" lon="2.341758"/>
<trkpt lat="48.863034" lon="2.341730"/>
<trkpt lat="48.862980" lon="2.341684"/>
<trkpt lat="48.862926" lon="2.341747"/>
<trkpt lat="48.862657" lon="2.341603"/>
<trkpt lat="48.862420" lon="2.341481"/>
<trkpt lat="48.862337" lon="2.341438"/>
<trkpt lat="48.861784" lon="2.341158"/>
<trkpt lat="48.861758" lon="2.341122"/>
<trkpt lat="48.861737" lon="2.341111"/>
<trkpt lat="48.861711" lon="2.341097"/>
<trkpt lat="48.861685" lon="2.341083"/>
<trkpt lat="48.861675" lon="2.341078"/>
<trkpt lat="48.861657" lon="2.341091"/>
<trkpt lat="48.861053" lon="2.340772"/>
<trkpt lat="48.861038" lon="2.340755"/>
<trkpt lat="48.861041" lon="2.340744"/>
<trkpt lat="48.861082" lon="2.340612"/>
<trkpt lat="48.861078" lon="2.340607"/>
<trkpt lat="48.861054" lon="2.340591"/>
<trkpt lat="48.861024" lon="2.340571"/>
<trkpt lat="48.860997" lon="2.340556"/>
<trkpt lat="48.860962" lon="2.340529"/>
<trkpt lat="48.860947" lon="2.340519"/>
<trkpt lat="48.860930" lon="2.340509"/>
<trkpt lat="48.860913" lon="2.340548"/>
<trkpt lat="48.860900" lon="2.340565"/>
<trkpt lat="48.860885" lon="2.340584"/>
<trkpt lat="48.860858" lon="2.340601"/>
<trkpt lat="48.860852" lon="2.340606"/>
<trkpt lat="48.860840" lon="2.340612"/>
<trkpt lat="48.860809" lon="2.340618"/>
<trkpt lat="48.860791" lon="2.340619"/>
<trkpt lat="48.860768" lon="2.340615"/>
<trkpt lat="48.860016" lon="2.340215"/>
<trkpt lat="48.859994" lon="2.340205"/>
<trkpt lat="48.859952" lon="2.340225"/>
<trkpt lat="48.859927" lon="2.340336"/>
<trkpt lat="48.859903" lon="2.340443"/>
<trkpt lat="48.859896" lon="2.340466"/>
<trkpt lat="48.859887" lon="2.340494"/>
<trkpt lat="48.859884" lon="2.340507"/>
<trkpt lat="48.859594" lon="2.340345"/>
<trkpt lat="48.859516" lon="2.340304"/>
<trkpt lat="48.859497" lon="2.340294"/>
<trkpt lat="48.859468" lon="2.340280"/>
<trkpt lat="48.859444" lon="2.340268"/>
<trkpt lat="48.859436" lon="2.340263"/>
<trkpt lat="48.859362" lon="2.340224"/>
<trkpt lat="48.859148" lon="2.340111"/>
<trkpt lat="48.859086" lon="2.340081"/>
<trkpt lat="48.859043" lon="2.340122"/>
<trkpt lat="48.858771" lon="2.341585"/>
<trkpt lat="48.858770" lon="2.341598"/>
<trkpt lat="48.858767" lon="2.341617"/>
<trkpt lat="48.858763" lon="2.341646"/>
<trkpt lat="48.858760" lon="2.341695"/>
<trkpt lat="48.858772" lon="2.341919"/>
<trkpt lat="48.858718" lon="2.342173"/>
<trkpt lat="48.858614" lon="2.342269"/>
<trkpt lat="48.858537" lon="2.342242"/>
<trkpt lat="48.858479" lon="2.342221"/>
<trkpt lat="48.858452" lon="2.342193"/>
<trkpt lat="48.858410" lon="2.342249"/>
<trkpt lat="48.858374" lon="2.342235"/>
<trkpt lat="48.857353" lon="2.341417"/>
<trkpt lat="48.857216" lon="2.341306"/>
<trkpt lat="48.857187" lon="2.341280"/>
<trkpt lat="48.857197" lon="2.341251"/>
<trkpt lat="48.857310" lon="2.340945"/>
<trkpt lat="48.857293" lon="2.340930"/>
<trkpt lat="48.857201" lon="2.340853"/>
<trkpt lat="48.857182" lon="2.340838"/>
<trkpt lat="48.857203" lon="2.340780"/>
<trkpt lat="48.857216" lon="2.340745"/>
<trkpt lat="48.857222" lon="2.340726"/>
<trkpt lat="48.857241" lon="2.340675"/>
<trkpt lat="48.857229" lon="2.340665"/>
<trkpt lat="48.857231" lon="2.340659"/>
<trkpt lat="48.857232" lon="2.340649"/>
<trkpt lat="48.857232" lon="2.340638"/>
<trkpt lat="48.857232" lon="2.340631"/>
<trkpt lat="48.857231" lon="2.340620"/>
<trkpt lat="48.857231" lon="2.340613"/>
<trkpt lat="48.857235" lon="2.340612"/>
<trkpt lat="48.857243" lon="2.340613"/>
<trkpt lat="48.857249" lon="2.340614"/>
<trkpt lat="48.857254" lon="2.340617"/>
<trkpt lat="48.857260" lon="2.340621"/>
<trkpt lat="48.857269" lon="2.340628"/>
<trkpt lat="48.857281" lon="2.340634"/>
<trkpt lat="48.857290" lon="2.340637"/>
<trkpt lat="48.857307" lon="2.340636"/>
<trkpt lat="48.857322" lon="2.340632"/>
<trkpt lat="48.857334" lon="2.340627"/>
<trkpt lat="48.857344" lon="2.340620"/>
<trkpt lat="48.857356" lon="2.340610"/>
<trkpt lat="48.857365" lon="2.340598"/>
<trkpt lat="48.857377" lon="2.340578"/>
<trkpt lat="48.857386" lon="2.340557"/>
<trkpt lat="48.857425" lon="2.340422"/>
<trkpt lat="48.857415" lon="2.340379"/>
<trkpt lat="48.857410" lon="2.340349"/>
</trkseg></trk>
<trk><name>Explanada del Louvre a Square du Vert-Galant (944 m, 14.0 min)</name><trkseg>
<trkpt lat="48.860785" lon="2.335989"/>
<trkpt lat="48.860892" lon="2.336343"/>
<trkpt lat="48.860932" lon="2.336477"/>
<trkpt lat="48.860912" lon="2.336511"/>
<trkpt lat="48.860869" lon="2.336586"/>
<trkpt lat="48.860818" lon="2.336637"/>
<trkpt lat="48.860696" lon="2.337126"/>
<trkpt lat="48.860670" lon="2.337254"/>
<trkpt lat="48.860662" lon="2.337288"/>
<trkpt lat="48.860641" lon="2.337378"/>
<trkpt lat="48.860619" lon="2.337475"/>
<trkpt lat="48.860568" lon="2.337684"/>
<trkpt lat="48.860544" lon="2.337790"/>
<trkpt lat="48.860542" lon="2.337798"/>
<trkpt lat="48.860421" lon="2.338329"/>
<trkpt lat="48.860228" lon="2.338470"/>
<trkpt lat="48.859868" lon="2.338294"/>
<trkpt lat="48.859861" lon="2.338291"/>
<trkpt lat="48.859609" lon="2.338160"/>
<trkpt lat="48.859325" lon="2.338016"/>
<trkpt lat="48.859309" lon="2.338007"/>
<trkpt lat="48.859300" lon="2.338095"/>
<trkpt lat="48.859152" lon="2.339467"/>
<trkpt lat="48.859169" lon="2.339475"/>
<trkpt lat="48.859151" lon="2.339638"/>
<trkpt lat="48.859150" lon="2.339652"/>
<trkpt lat="48.859150" lon="2.339662"/>
<trkpt lat="48.859151" lon="2.339675"/>
<trkpt lat="48.859152" lon="2.339687"/>
<trkpt lat="48.859154" lon="2.339699"/>
<trkpt lat="48.859156" lon="2.339707"/>
<trkpt lat="48.859159" lon="2.339716"/>
<trkpt lat="48.859162" lon="2.339724"/>
<trkpt lat="48.859165" lon="2.339732"/>
<trkpt lat="48.859168" lon="2.339739"/>
<trkpt lat="48.859172" lon="2.339746"/>
<trkpt lat="48.859158" lon="2.339764"/>
<trkpt lat="48.859172" lon="2.339785"/>
<trkpt lat="48.859183" lon="2.339795"/>
<trkpt lat="48.859213" lon="2.339815"/>
<trkpt lat="48.859208" lon="2.339840"/>
<trkpt lat="48.859184" lon="2.339950"/>
<trkpt lat="48.859161" lon="2.340056"/>
<trkpt lat="48.859148" lon="2.340111"/>
<trkpt lat="48.859086" lon="2.340081"/>
<trkpt lat="48.859043" lon="2.340122"/>
<trkpt lat="48.858771" lon="2.341585"/>
<trkpt lat="48.858770" lon="2.341598"/>
<trkpt lat="48.858767" lon="2.341617"/>
<trkpt lat="48.858763" lon="2.341646"/>
<trkpt lat="48.858760" lon="2.341695"/>
<trkpt lat="48.858772" lon="2.341919"/>
<trkpt lat="48.858718" lon="2.342173"/>
<trkpt lat="48.858614" lon="2.342269"/>
<trkpt lat="48.858537" lon="2.342242"/>
<trkpt lat="48.858479" lon="2.342221"/>
<trkpt lat="48.858452" lon="2.342193"/>
<trkpt lat="48.858410" lon="2.342249"/>
<trkpt lat="48.858374" lon="2.342235"/>
<trkpt lat="48.857353" lon="2.341417"/>
<trkpt lat="48.857216" lon="2.341306"/>
<trkpt lat="48.857187" lon="2.341280"/>
<trkpt lat="48.857197" lon="2.341251"/>
<trkpt lat="48.857310" lon="2.340945"/>
<trkpt lat="48.857293" lon="2.340930"/>
<trkpt lat="48.857201" lon="2.340853"/>
<trkpt lat="48.857182" lon="2.340838"/>
<trkpt lat="48.857203" lon="2.340780"/>
<trkpt lat="48.857216" lon="2.340745"/>
<trkpt lat="48.857222" lon="2.340726"/>
<trkpt lat="48.857241" lon="2.340675"/>
<trkpt lat="48.857229" lon="2.340665"/>
<trkpt lat="48.857231" lon="2.340659"/>
<trkpt lat="48.857232" lon="2.340649"/>
<trkpt lat="48.857232" lon="2.340638"/>
<trkpt lat="48.857232" lon="2.340631"/>
<trkpt lat="48.857231" lon="2.340620"/>
<trkpt lat="48.857231" lon="2.340613"/>
<trkpt lat="48.857235" lon="2.340612"/>
<trkpt lat="48.857243" lon="2.340613"/>
<trkpt lat="48.857249" lon="2.340614"/>
<trkpt lat="48.857254" lon="2.340617"/>
<trkpt lat="48.857260" lon="2.340621"/>
<trkpt lat="48.857269" lon="2.340628"/>
<trkpt lat="48.857281" lon="2.340634"/>
<trkpt lat="48.857290" lon="2.340637"/>
<trkpt lat="48.857307" lon="2.340636"/>
<trkpt lat="48.857322" lon="2.340632"/>
<trkpt lat="48.857334" lon="2.340627"/>
<trkpt lat="48.857344" lon="2.340620"/>
<trkpt lat="48.857356" lon="2.340610"/>
<trkpt lat="48.857365" lon="2.340598"/>
<trkpt lat="48.857377" lon="2.340578"/>
<trkpt lat="48.857386" lon="2.340557"/>
<trkpt lat="48.857425" lon="2.340422"/>
<trkpt lat="48.857415" lon="2.340379"/>
<trkpt lat="48.857410" lon="2.340349"/>
</trkseg></trk>
<trk><name>Square du Vert-Galant a El Panteón (1898 m, 28.5 min)</name><trkseg>
<trkpt lat="48.857410" lon="2.340349"/>
<trkpt lat="48.857415" lon="2.340379"/>
<trkpt lat="48.857425" lon="2.340422"/>
<trkpt lat="48.857386" lon="2.340557"/>
<trkpt lat="48.857377" lon="2.340578"/>
<trkpt lat="48.857365" lon="2.340598"/>
<trkpt lat="48.857356" lon="2.340610"/>
<trkpt lat="48.857344" lon="2.340620"/>
<trkpt lat="48.857334" lon="2.340627"/>
<trkpt lat="48.857322" lon="2.340632"/>
<trkpt lat="48.857307" lon="2.340636"/>
<trkpt lat="48.857290" lon="2.340637"/>
<trkpt lat="48.857281" lon="2.340634"/>
<trkpt lat="48.857269" lon="2.340628"/>
<trkpt lat="48.857260" lon="2.340621"/>
<trkpt lat="48.857254" lon="2.340617"/>
<trkpt lat="48.857249" lon="2.340614"/>
<trkpt lat="48.857243" lon="2.340613"/>
<trkpt lat="48.857235" lon="2.340612"/>
<trkpt lat="48.857231" lon="2.340613"/>
<trkpt lat="48.857231" lon="2.340620"/>
<trkpt lat="48.857232" lon="2.340631"/>
<trkpt lat="48.857232" lon="2.340638"/>
<trkpt lat="48.857232" lon="2.340649"/>
<trkpt lat="48.857231" lon="2.340659"/>
<trkpt lat="48.857229" lon="2.340665"/>
<trkpt lat="48.857241" lon="2.340675"/>
<trkpt lat="48.857222" lon="2.340726"/>
<trkpt lat="48.857216" lon="2.340745"/>
<trkpt lat="48.857203" lon="2.340780"/>
<trkpt lat="48.857182" lon="2.340838"/>
<trkpt lat="48.857164" lon="2.340822"/>
<trkpt lat="48.857070" lon="2.340744"/>
<trkpt lat="48.857062" lon="2.340737"/>
<trkpt lat="48.856956" lon="2.341028"/>
<trkpt lat="48.856944" lon="2.341060"/>
<trkpt lat="48.856831" lon="2.340955"/>
<trkpt lat="48.856773" lon="2.340901"/>
<trkpt lat="48.856759" lon="2.340939"/>
<trkpt lat="48.856739" lon="2.340996"/>
<trkpt lat="48.856729" lon="2.341026"/>
<trkpt lat="48.856713" lon="2.341073"/>
<trkpt lat="48.856702" lon="2.341106"/>
<trkpt lat="48.856195" lon="2.340683"/>
<trkpt lat="48.856171" lon="2.340670"/>
<trkpt lat="48.856144" lon="2.340660"/>
<trkpt lat="48.856121" lon="2.340657"/>
<trkpt lat="48.856101" lon="2.340661"/>
<trkpt lat="48.856070" lon="2.340617"/>
<trkpt lat="48.856057" lon="2.340599"/>
<trkpt lat="48.856038" lon="2.340579"/>
<trkpt lat="48.856012" lon="2.340552"/>
<trkpt lat="48.855953" lon="2.340491"/>
<trkpt lat="48.855937" lon="2.340474"/>
<trkpt lat="48.855935" lon="2.340404"/>
<trkpt lat="48.855904" lon="2.340378"/>
<trkpt lat="48.855769" lon="2.340271"/>
<trkpt lat="48.855544" lon="2.340082"/>
<trkpt lat="48.855397" lon="2.339950"/>
<trkpt lat="48.855365" lon="2.339958"/>
<trkpt lat="48.855357" lon="2.339944"/>
<trkpt lat="48.855334" lon="2.339916"/>
<trkpt lat="48.855315" lon="2.339893"/>
<trkpt lat="48.855309" lon="2.339885"/>
<trkpt lat="48.855251" lon="2.339816"/>
<trkpt lat="48.855211" lon="2.339807"/>
<trkpt lat="48.855052" lon="2.339676"/>
<trkpt lat="48.854971" lon="2.339602"/>
<trkpt lat="48.854704" lon="2.339383"/>
<trkpt lat="48.854693" lon="2.339390"/>
<trkpt lat="48.854689" lon="2.339387"/>
<trkpt lat="48.854679" lon="2.339374"/>
<trkpt lat="48.854663" lon="2.339360"/>
<trkpt lat="48.854659" lon="2.339356"/>
<trkpt lat="48.854651" lon="2.339328"/>
<trkpt lat="48.854599" lon="2.339295"/>
<trkpt lat="48.854505" lon="2.339216"/>
<trkpt lat="48.854217" lon="2.338977"/>
<trkpt lat="48.854198" lon="2.338980"/>
<trkpt lat="48.854191" lon="2.338972"/>
<trkpt lat="48.854165" lon="2.338944"/>
<trkpt lat="48.854147" lon="2.338928"/>
<trkpt lat="48.854138" lon="2.338921"/>
<trkpt lat="48.854118" lon="2.338889"/>
<trkpt lat="48.853731" lon="2.338569"/>
<trkpt lat="48.853695" lon="2.338531"/>
<trkpt lat="48.853669" lon="2.338518"/>
<trkpt lat="48.853660" lon="2.338547"/>
<trkpt lat="48.853650" lon="2.338543"/>
<trkpt lat="48.853631" lon="2.338534"/>
<trkpt lat="48.853606" lon="2.338522"/>
<trkpt lat="48.853599" lon="2.338517"/>
<trkpt lat="48.853595" lon="2.338499"/>
<trkpt lat="48.853584" lon="2.338496"/>
<trkpt lat="48.853475" lon="2.338518"/>
<trkpt lat="48.853209" lon="2.338628"/>
<trkpt lat="48.852687" lon="2.338858"/>
<trkpt lat="48.852565" lon="2.338905"/>
<trkpt lat="48.852531" lon="2.339000"/>
<trkpt lat="48.852494" lon="2.338982"/>
<trkpt lat="48.852427" lon="2.338951"/>
<trkpt lat="48.852374" lon="2.338928"/>
<trkpt lat="48.852351" lon="2.338917"/>
<trkpt lat="48.852335" lon="2.338907"/>
<trkpt lat="48.852304" lon="2.338888"/>
<trkpt lat="48.852292" lon="2.338880"/>
<trkpt lat="48.852265" lon="2.338860"/>
<trkpt lat="48.852243" lon="2.338844"/>
<trkpt lat="48.852229" lon="2.338834"/>
<trkpt lat="48.852233" lon="2.338812"/>
<trkpt lat="48.852227" lon="2.338788"/>
<trkpt lat="48.852222" lon="2.338779"/>
<trkpt lat="48.852210" lon="2.338771"/>
<trkpt lat="48.852113" lon="2.338750"/>
<trkpt lat="48.852003" lon="2.338739"/>
<trkpt lat="48.851967" lon="2.338765"/>
<trkpt lat="48.851869" lon="2.338775"/>
<trkpt lat="48.851841" lon="2.338757"/>
<trkpt lat="48.851812" lon="2.338764"/>
<trkpt lat="48.851785" lon="2.338771"/>
<trkpt lat="48.851765" lon="2.338770"/>
<trkpt lat="48.851753" lon="2.338831"/>
<trkpt lat="48.851698" lon="2.338904"/>
<trkpt lat="48.851462" lon="2.339094"/>
<trkpt lat="48.851246" lon="2.339274"/>
<trkpt lat="48.850977" lon="2.339459"/>
<trkpt lat="48.850946" lon="2.339450"/>
<trkpt lat="48.850942" lon="2.339461"/>
<trkpt lat="48.850889" lon="2.339482"/>
<trkpt lat="48.850783" lon="2.339524"/>
<trkpt lat="48.850773" lon="2.339524"/>
<trkpt lat="48.850763" lon="2.339539"/>
<trkpt lat="48.850396" lon="2.339707"/>
<trkpt lat="48.850351" lon="2.339748"/>
<trkpt lat="48.850211" lon="2.339813"/>
<trkpt lat="48.849994" lon="2.339916"/>
<trkpt lat="48.849982" lon="2.339920"/>
<trkpt lat="48.849968" lon="2.339908"/>
<trkpt lat="48.849963" lon="2.339914"/>
<trkpt lat="48.849935" lon="2.339926"/>
<trkpt lat="48.849904" lon="2.339936"/>
<trkpt lat="48.849897" lon="2.339939"/>
<trkpt lat="48.849882" lon="2.339957"/>
<trkpt lat="48.849700" lon="2.340052"/>
<trkpt lat="48.849277" lon="2.340246"/>
<trkpt lat="48.848939" lon="2.340396"/>
<trkpt lat="48.848921" lon="2.340383"/>
<trkpt lat="48.848914" lon="2.340388"/>
<trkpt lat="48.848882" lon="2.340392"/>
<trkpt lat="48.848856" lon="2.340398"/>
<trkpt lat="48.848841" lon="2.340395"/>
<trkpt lat="48.848839" lon="2.340401"/>
<trkpt lat="48.848817" lon="2.340428"/>
<trkpt lat="48.848616" lon="2.340520"/>
<trkpt lat="48.848118" lon="2.340748"/>
<trkpt lat="48.847889" lon="2.340893"/>
<trkpt lat="48.847787" lon="2.340933"/>
<trkpt lat="48.847753" lon="2.340913"/>
<trkpt lat="48.847609" lon="2.340828"/>
<trkpt lat="48.847601" lon="2.340857"/>
<trkpt lat="48.847590" lon="2.340893"/>
<trkpt lat="48.847583" lon="2.340918"/>
<trkpt lat="48.847576" lon="2.340944"/>
<trkpt lat="48.847566" lon="2.340982"/>
<trkpt lat="48.847548" lon="2.341046"/>
<trkpt lat="48.847540" lon="2.341072"/>
<trkpt lat="48.847535" lon="2.341091"/>
<trkpt lat="48.847468" lon="2.341074"/>
<trkpt lat="48.847422" lon="2.341087"/>
<trkpt lat="48.847386" lon="2.341116"/>
<trkpt lat="48.847363" lon="2.341201"/>
<trkpt lat="48.847312" lon="2.341455"/>
<trkpt lat="48.847232" lon="2.341839"/>
<trkpt lat="48.847212" lon="2.341933"/>
<trkpt lat="48.847203" lon="2.341972"/>
<trkpt lat="48.847197" lon="2.341992"/>
<trkpt lat="48.847190" lon="2.342018"/>
<trkpt lat="48.847180" lon="2.342058"/>
<trkpt lat="48.847177" lon="2.342071"/>
<trkpt lat="48.847168" lon="2.342081"/>
<trkpt lat="48.847149" lon="2.342071"/>
<trkpt lat="48.847081" lon="2.342030"/>
<trkpt lat="48.846979" lon="2.342504"/>
<trkpt lat="48.846941" lon="2.342669"/>
<trkpt lat="48.846906" lon="2.342828"/>
<trkpt lat="48.846821" lon="2.343229"/>
<trkpt lat="48.846797" lon="2.343348"/>
<trkpt lat="48.846771" lon="2.343467"/>
<trkpt lat="48.846756" lon="2.343537"/>
<trkpt lat="48.846711" lon="2.343739"/>
<trkpt lat="48.846613" lon="2.344178"/>
<trkpt lat="48.846567" lon="2.344386"/>
<trkpt lat="48.846546" lon="2.344494"/>
<trkpt lat="48.846064" lon="2.344873"/>
<trkpt lat="48.846079" lon="2.344933"/>
<trkpt lat="48.846074" lon="2.344959"/>
<trkpt lat="48.846295" lon="2.345073"/>
<trkpt lat="48.846289" lon="2.345102"/>
<trkpt lat="48.846275" lon="2.345164"/>
<trkpt lat="48.846262" lon="2.345222"/>
<trkpt lat="48.846246" lon="2.345298"/>
<trkpt lat="48.846225" lon="2.345396"/>
<trkpt lat="48.846209" lon="2.345467"/>
<trkpt lat="48.846188" lon="2.345562"/>
<trkpt lat="48.846225" lon="2.345581"/>
<trkpt lat="48.846303" lon="2.345620"/>
<trkpt lat="48.846281" lon="2.345726"/>
<trkpt lat="48.846257" lon="2.345839"/>
<trkpt lat="48.846231" lon="2.345959"/>
<trkpt lat="48.846214" lon="2.346039"/>
<trkpt lat="48.846236" lon="2.346054"/>
<trkpt lat="48.846253" lon="2.346078"/>
<trkpt lat="48.846264" lon="2.346109"/>
<trkpt lat="48.846268" lon="2.346143"/>
<trkpt lat="48.846266" lon="2.346177"/>
<trkpt lat="48.846312" lon="2.346196"/>
<trkpt lat="48.846295" lon="2.346276"/>
<trkpt lat="48.846292" lon="2.346291"/>
<trkpt lat="48.846285" lon="2.346319"/>
<trkpt lat="48.846273" lon="2.346375"/>
<trkpt lat="48.846261" lon="2.346434"/>
<trkpt lat="48.846248" lon="2.346494"/>
<trkpt lat="48.846235" lon="2.346553"/>
<trkpt lat="48.846223" lon="2.346611"/>
<trkpt lat="48.846203" lon="2.346704"/>
<trkpt lat="48.846190" lon="2.346764"/>
<trkpt lat="48.846180" lon="2.346815"/>
<trkpt lat="48.846174" lon="2.346838"/>
<trkpt lat="48.846159" lon="2.346831"/>
<trkpt lat="48.846094" lon="2.346798"/>
<trkpt lat="48.846057" lon="2.346779"/>
<trkpt lat="48.846063" lon="2.346747"/>
<trkpt lat="48.846080" lon="2.346668"/>
<trkpt lat="48.846103" lon="2.346562"/>
<trkpt lat="48.846116" lon="2.346501"/>
<trkpt lat="48.846128" lon="2.346444"/>
<trkpt lat="48.846154" lon="2.346324"/>
<trkpt lat="48.846177" lon="2.346216"/>
<trkpt lat="48.846180" lon="2.346200"/>
<trkpt lat="48.846195" lon="2.346199"/>
<trkpt lat="48.846207" lon="2.346194"/>
<trkpt lat="48.846213" lon="2.346184"/>
<trkpt lat="48.846218" lon="2.346166"/>
<trkpt lat="48.846256" lon="2.346186"/>
<trkpt lat="48.846259" lon="2.346158"/>
<trkpt lat="48.846257" lon="2.346124"/>
<trkpt lat="48.846245" lon="2.346087"/>
<trkpt lat="48.846214" lon="2.346053"/>
</trkseg></trk>
<trk><name>El Panteón a Saint-Étienne-du-Mont (498 m, 7.8 min)</name><trkseg>
<trkpt lat="48.846214" lon="2.346053"/>
<trkpt lat="48.846189" lon="2.346045"/>
<trkpt lat="48.846166" lon="2.346051"/>
<trkpt lat="48.846141" lon="2.346081"/>
<trkpt lat="48.846127" lon="2.346119"/>
<trkpt lat="48.846160" lon="2.346136"/>
<trkpt lat="48.846158" lon="2.346156"/>
<trkpt lat="48.846161" lon="2.346174"/>
<trkpt lat="48.846168" lon="2.346188"/>
<trkpt lat="48.846180" lon="2.346200"/>
<trkpt lat="48.846177" lon="2.346216"/>
<trkpt lat="48.846154" lon="2.346324"/>
<trkpt lat="48.846128" lon="2.346444"/>
<trkpt lat="48.846116" lon="2.346501"/>
<trkpt lat="48.846103" lon="2.346562"/>
<trkpt lat="48.846080" lon="2.346668"/>
<trkpt lat="48.846063" lon="2.346747"/>
<trkpt lat="48.846057" lon="2.346779"/>
<trkpt lat="48.846018" lon="2.346760"/>
<trkpt lat="48.845953" lon="2.346727"/>
<trkpt lat="48.845936" lon="2.346718"/>
<trkpt lat="48.845940" lon="2.346700"/>
<trkpt lat="48.845951" lon="2.346647"/>
<trkpt lat="48.845965" lon="2.346584"/>
<trkpt lat="48.845984" lon="2.346497"/>
<trkpt lat="48.845997" lon="2.346439"/>
<trkpt lat="48.846011" lon="2.346375"/>
<trkpt lat="48.846023" lon="2.346318"/>
<trkpt lat="48.846037" lon="2.346257"/>
<trkpt lat="48.846048" lon="2.346207"/>
<trkpt lat="48.846054" lon="2.346176"/>
<trkpt lat="48.846058" lon="2.346160"/>
<trkpt lat="48.846076" lon="2.346078"/>
<trkpt lat="48.846123" lon="2.346109"/>
<trkpt lat="48.846134" lon="2.346079"/>
<trkpt lat="48.846150" lon="2.346055"/>
<trkpt lat="48.846171" lon="2.346039"/>
<trkpt lat="48.846193" lon="2.346034"/>
<trkpt lat="48.846214" lon="2.346039"/>
<trkpt lat="48.846231" lon="2.345959"/>
<trkpt lat="48.846257" lon="2.345839"/>
<trkpt lat="48.846281" lon="2.345726"/>
<trkpt lat="48.846303" lon="2.345620"/>
<trkpt lat="48.846383" lon="2.345661"/>
<trkpt lat="48.846421" lon="2.345680"/>
<trkpt lat="48.846442" lon="2.345584"/>
<trkpt lat="48.846448" lon="2.345555"/>
<trkpt lat="48.846457" lon="2.345512"/>
<trkpt lat="48.846479" lon="2.345415"/>
<trkpt lat="48.846496" lon="2.345338"/>
<trkpt lat="48.846508" lon="2.345280"/>
<trkpt lat="48.846522" lon="2.345218"/>
<trkpt lat="48.846528" lon="2.345189"/>
<trkpt lat="48.846740" lon="2.345295"/>
<trkpt lat="48.846757" lon="2.345277"/>
<trkpt lat="48.846767" lon="2.345267"/>
<trkpt lat="48.846801" lon="2.345237"/>
<trkpt lat="48.846946" lon="2.345326"/>
<trkpt lat="48.846724" lon="2.346302"/>
<trkpt lat="48.846701" lon="2.346402"/>
<trkpt lat="48.846679" lon="2.346502"/>
<trkpt lat="48.846581" lon="2.346935"/>
<trkpt lat="48.846795" lon="2.347737"/>
<trkpt lat="48.846827" lon="2.347846"/>
<trkpt lat="48.846812" lon="2.347855"/>
<trkpt lat="48.846798" lon="2.347863"/>
<trkpt lat="48.846770" lon="2.347889"/>
<trkpt lat="48.846745" lon="2.347926"/>
<trkpt lat="48.846726" lon="2.347991"/>
<trkpt lat="48.846718" lon="2.348063"/>
</trkseg></trk>
<trk><name>Saint-Étienne-du-Mont a Place de la Contrescarpe (344 m, 4.9 min)</name><trkseg>
<trkpt lat="48.846718" lon="2.348063"/>
<trkpt lat="48.846618" lon="2.348908"/>
<trkpt lat="48.846602" lon="2.348902"/>
<trkpt lat="48.846598" lon="2.348901"/>
<trkpt lat="48.846459" lon="2.348948"/>
<trkpt lat="48.846399" lon="2.348986"/>
<trkpt lat="48.846295" lon="2.349001"/>
<trkpt lat="48.846252" lon="2.349007"/>
<trkpt lat="48.846225" lon="2.348961"/>
<trkpt lat="48.846215" lon="2.348977"/>
<trkpt lat="48.846181" lon="2.348972"/>
<trkpt lat="48.846143" lon="2.348965"/>
<trkpt lat="48.846131" lon="2.348963"/>
<trkpt lat="48.846123" lon="2.349010"/>
<trkpt lat="48.846099" lon="2.349035"/>
<trkpt lat="48.845961" lon="2.349044"/>
<trkpt lat="48.845933" lon="2.349046"/>
<trkpt lat="48.845728" lon="2.349060"/>
<trkpt lat="48.845711" lon="2.349112"/>
<trkpt lat="48.845488" lon="2.349093"/>
<trkpt lat="48.845274" lon="2.349075"/>
<trkpt lat="48.845036" lon="2.349107"/>
<trkpt lat="48.845020" lon="2.349087"/>
<trkpt lat="48.845011" lon="2.349091"/>
<trkpt lat="48.844980" lon="2.349095"/>
<trkpt lat="48.844946" lon="2.349099"/>
<trkpt lat="48.844933" lon="2.349096"/>
<trkpt lat="48.844923" lon="2.349122"/>
<trkpt lat="48.844935" lon="2.349147"/>
<trkpt lat="48.844945" lon="2.349184"/>
<trkpt lat="48.844613" lon="2.349235"/>
<trkpt lat="48.844507" lon="2.349254"/>
<trkpt lat="48.844405" lon="2.349271"/>
<trkpt lat="48.844381" lon="2.349321"/>
<trkpt lat="48.844368" lon="2.349357"/>
<trkpt lat="48.844361" lon="2.349395"/>
<trkpt lat="48.844360" lon="2.349435"/>
<trkpt lat="48.844365" lon="2.349474"/>
<trkpt lat="48.844372" lon="2.349495"/>
</trkseg></trk>
<trk><name>Place de la Contrescarpe a Au P&#x27;tit Grec (223 m, 3.3 min)</name><trkseg>
<trkpt lat="48.844372" lon="2.349495"/>
<trkpt lat="48.844376" lon="2.349510"/>
<trkpt lat="48.844392" lon="2.349541"/>
<trkpt lat="48.844411" lon="2.349566"/>
<trkpt lat="48.844386" lon="2.349685"/>
<trkpt lat="48.844360" lon="2.349671"/>
<trkpt lat="48.844339" lon="2.349659"/>
<trkpt lat="48.844321" lon="2.349334"/>
<trkpt lat="48.844310" lon="2.349321"/>
<trkpt lat="48.844308" lon="2.349306"/>
<trkpt lat="48.844305" lon="2.349288"/>
<trkpt lat="48.844302" lon="2.349267"/>
<trkpt lat="48.844301" lon="2.349257"/>
<trkpt lat="48.844041" lon="2.349322"/>
<trkpt lat="48.843880" lon="2.349348"/>
<trkpt lat="48.843805" lon="2.349366"/>
<trkpt lat="48.843645" lon="2.349406"/>
<trkpt lat="48.843451" lon="2.349458"/>
<trkpt lat="48.843211" lon="2.349524"/>
<trkpt lat="48.843133" lon="2.349548"/>
<trkpt lat="48.843115" lon="2.349559"/>
<trkpt lat="48.842778" lon="2.349635"/>
</trkseg></trk>
<trk><name>Museo de Orsay a Saint-Germain-des-Prés (1126 m, 15.5 min)</name><trkseg>
<trkpt lat="48.859595" lon="2.326366"/>
<trkpt lat="48.859556" lon="2.326498"/>
<trkpt lat="48.859536" lon="2.326568"/>
<trkpt lat="48.859509" lon="2.326592"/>
<trkpt lat="48.859496" lon="2.326639"/>
<trkpt lat="48.859492" lon="2.326654"/>
<trkpt lat="48.859429" lon="2.326617"/>
<trkpt lat="48.859260" lon="2.327190"/>
<trkpt lat="48.859206" lon="2.327378"/>
<trkpt lat="48.858826" lon="2.328661"/>
<trkpt lat="48.858801" lon="2.328749"/>
<trkpt lat="48.858758" lon="2.328719"/>
<trkpt lat="48.858275" lon="2.328371"/>
<trkpt lat="48.858221" lon="2.328335"/>
<trkpt lat="48.858194" lon="2.328316"/>
<trkpt lat="48.857765" lon="2.328013"/>
<trkpt lat="48.857709" lon="2.327973"/>
<trkpt lat="48.857672" lon="2.328071"/>
<trkpt lat="48.857381" lon="2.328833"/>
<trkpt lat="48.857355" lon="2.328900"/>
<trkpt lat="48.857327" lon="2.328976"/>
<trkpt lat="48.856815" lon="2.330347"/>
<trkpt lat="48.856763" lon="2.330483"/>
<trkpt lat="48.856346" lon="2.331592"/>
<trkpt lat="48.856315" lon="2.331672"/>
<trkpt lat="48.856285" lon="2.331757"/>
<trkpt lat="48.856268" lon="2.331803"/>
<trkpt lat="48.856168" lon="2.332084"/>
<trkpt lat="48.856163" lon="2.332098"/>
<trkpt lat="48.856028" lon="2.332475"/>
<trkpt lat="48.855684" lon="2.333437"/>
<trkpt lat="48.855659" lon="2.333508"/>
<trkpt lat="48.855629" lon="2.333591"/>
<trkpt lat="48.855523" lon="2.333890"/>
<trkpt lat="48.855497" lon="2.333869"/>
<trkpt lat="48.855488" lon="2.333857"/>
<trkpt lat="48.855467" lon="2.333868"/>
<trkpt lat="48.855458" lon="2.333874"/>
<trkpt lat="48.854554" lon="2.333592"/>
<trkpt lat="48.854548" lon="2.333574"/>
<trkpt lat="48.854535" lon="2.333574"/>
<trkpt lat="48.854514" lon="2.333562"/>
<trkpt lat="48.854488" lon="2.333549"/>
<trkpt lat="48.854482" lon="2.333538"/>
<trkpt lat="48.854463" lon="2.333548"/>
<trkpt lat="48.854461" lon="2.333560"/>
<trkpt lat="48.854446" lon="2.333621"/>
<trkpt lat="48.854428" lon="2.333697"/>
<trkpt lat="48.854415" lon="2.333741"/>
<trkpt lat="48.854211" lon="2.333663"/>
<trkpt lat="48.853888" lon="2.333515"/>
<trkpt lat="48.853846" lon="2.333579"/>
<trkpt lat="48.853841" lon="2.333614"/>
<trkpt lat="48.853838" lon="2.333633"/>
<trkpt lat="48.853806" lon="2.333767"/>
<trkpt lat="48.853680" lon="2.334295"/>
<trkpt lat="48.853702" lon="2.334307"/>
<trkpt lat="48.853740" lon="2.334329"/>
<trkpt lat="48.853697" lon="2.334539"/>
<trkpt lat="48.853724" lon="2.334562"/>
<trkpt lat="48.853733" lon="2.334614"/>
</trkseg></trk>
</gpx>