<?xml version="1.0" encoding="UTF-8"?>
<gpx version="1.1" creator="Guia Paris 2026" xmlns="http://www.topografix.com/GPX/1/1">
<metadata><name>2026-09-01 La orilla izquierda y la Torre Eiffel al atardecer</name></metadata>
<wpt lat="48.840062" lon="2.319109"><name>14:30 Gare Montparnasse</name><desc>14:30 · Llegada a Montparnasse. Taquilla para los Navigo. Si compráis Découverte, llevad las fotos de carnet hechas de casa.</desc><type>transporte</type></wpt>
<wpt lat="48.82935" lon="2.374812"><name>15:00 Hôtel Sanso</name><desc>15:00 · Al hotel, dejar maletas</desc><type>transporte</type></wpt>
<wpt lat="48.853968" lon="2.334518"><name>16:30 Saint-Germain-des-Prés</name><desc>16:30 · Saint-Germain-des-Prés. Abre de 10:00 a 20:00, gratis. La iglesia más antigua de París, con campanario románico del siglo XI. Dentro, la tumba de Descartes, incompleta: el cráneo está en el Musée de l&#x27;Homme.</desc><type>visita</type></wpt>
<wpt lat="48.854069" lon="2.333063"><name>17:15 Les Deux Magots</name><desc>17:15 · Les Deux Magots y el Café de Flore. Se ven desde fuera. No hace falta pagar seis euros por un café.</desc><type>fachada</type></wpt>
<wpt lat="48.851183" lon="2.324394"><name>17:30 Le Bon Marché</name><desc>17:30 · Le Bon Marché. Abre hasta las 19:45. Primer gran almacén moderno del mundo, 1852, el de Au Bonheur des Dames de Zola. Las escaleras mecánicas cruzadas del atrio. Al lado, en el 38, la Grande Épicerie.</desc><type>visita</type></wpt>
<wpt lat="48.849972" lon="2.323297"><name>18:45 La Grande Épicerie de Paris</name><desc>18:45 · Merienda ligera. Por la rue du Bac o la rue de Sèvres. De pie y ligero: hoy se cena a las diez y cuarto.</desc><type>comida</type></wpt>
<wpt lat="48.85826" lon="2.294501"><name>19:20 Torre Eiffel</name><desc>19:20 · Torre Eiffel, control de seguridad. Contad 15 o 20 minutos de control. Entrada de escaleras, 14,80 € adultos y tarifa joven de 12 a 24 años.</desc><type>visita</type></wpt>
<wpt lat="48.856145" lon="2.29782"><name>22:00 Champ de Mars</name><desc>22:00 · El centelleo de las 22:00. Cinco minutos al principio de cada hora desde que anochece. Hay que estar fuera: el Champ de Mars a los pies, o el Trocadéro cruzando el Pont d&#x27;Iéna, que es la postal con gente.</desc><type>foto</type></wpt>
<wpt lat="48.85831" lon="2.301954"><name>22:15 Rue Saint-Dominique</name><desc>22:15 · Cena en el séptimo. Rue Saint-Dominique o rue Cler, quince minutos andando. Elegid una que anuncie service continu: a esa hora muchas cocinas de barrio han cerrado.</desc><type>comida</type></wpt>
<trk><name>Saint-Germain-des-Prés a Les Deux Magots (133 m, 2.3 min)</name><trkseg>
<trkpt lat="48.853733" lon="2.334614"/>
<trkpt lat="48.853724" lon="2.334562"/>
<trkpt lat="48.853697" lon="2.334539"/>
<trkpt lat="48.853740" lon="2.334329"/>
<trkpt lat="48.853702" lon="2.334307"/>
<trkpt lat="48.853680" lon="2.334295"/>
<trkpt lat="48.853806" lon="2.333767"/>
<trkpt lat="48.853838" lon="2.333633"/>
<trkpt lat="48.853841" lon="2.333614"/>
<trkpt lat="48.853846" lon="2.333579"/>
<trkpt lat="48.853888" lon="2.333515"/>
<trkpt lat="48.853897" lon="2.333464"/>
<trkpt lat="48.853913" lon="2.333392"/>
<trkpt lat="48.853926" lon="2.333326"/>
<trkpt lat="48.853939" lon="2.333163"/>
<trkpt lat="48.854048" lon="2.333201"/>
</trkseg></trk>
<trk><name>Les Deux Magots a Le Bon Marché (892 m, 12.7 min)</name><trkseg>
<trkpt lat="48.854048" lon="2.333201"/>
<trkpt lat="48.853939" lon="2.333163"/>
<trkpt lat="48.853914" lon="2.333150"/>
<trkpt lat="48.853849" lon="2.333126"/>
<trkpt lat="48.853751" lon="2.333070"/>
<trkpt lat="48.853739" lon="2.333044"/>
<trkpt lat="48.853737" lon="2.333038"/>
<trkpt lat="48.853724" lon="2.333010"/>
<trkpt lat="48.853699" lon="2.332930"/>
<trkpt lat="48.853685" lon="2.332871"/>
<trkpt lat="48.853681" lon="2.332856"/>
<trkpt lat="48.853638" lon="2.332853"/>
<trkpt lat="48.853552" lon="2.332776"/>
<trkpt lat="48.853222" lon="2.332474"/>
<trkpt lat="48.853210" lon="2.332463"/>
<trkpt lat="48.853185" lon="2.332442"/>
<trkpt lat="48.853140" lon="2.332408"/>
<trkpt lat="48.853130" lon="2.332388"/>
<trkpt lat="48.853105" lon="2.332369"/>
<trkpt lat="48.852582" lon="2.331887"/>
<trkpt lat="48.852512" lon="2.331823"/>
<trkpt lat="48.852482" lon="2.331775"/>
<trkpt lat="48.852493" lon="2.331717"/>
<trkpt lat="48.852489" lon="2.331695"/>
<trkpt lat="48.852476" lon="2.331657"/>
<trkpt lat="48.852464" lon="2.331601"/>
<trkpt lat="48.852461" lon="2.331577"/>
<trkpt lat="48.852443" lon="2.331565"/>
<trkpt lat="48.852237" lon="2.330329"/>
<trkpt lat="48.852231" lon="2.330182"/>
<trkpt lat="48.852241" lon="2.330103"/>
<trkpt lat="48.852234" lon="2.330068"/>
<trkpt lat="48.852227" lon="2.329996"/>
<trkpt lat="48.852219" lon="2.329914"/>
<trkpt lat="48.852226" lon="2.329897"/>
<trkpt lat="48.852205" lon="2.329793"/>
<trkpt lat="48.852119" lon="2.329643"/>
<trkpt lat="48.851968" lon="2.328793"/>
<trkpt lat="48.851973" lon="2.328735"/>
<trkpt lat="48.851965" lon="2.328684"/>
<trkpt lat="48.851957" lon="2.328618"/>
<trkpt lat="48.851953" lon="2.328585"/>
<trkpt lat="48.851952" lon="2.328563"/>
<trkpt lat="48.851911" lon="2.328458"/>
<trkpt lat="48.851818" lon="2.327895"/>
<trkpt lat="48.851788" lon="2.327570"/>
<trkpt lat="48.851790" lon="2.327247"/>
<trkpt lat="48.851789" lon="2.327135"/>
<trkpt lat="48.851776" lon="2.327135"/>
<trkpt lat="48.851770" lon="2.326993"/>
<trkpt lat="48.851806" lon="2.326932"/>
<trkpt lat="48.851807" lon="2.326908"/>
<trkpt lat="48.851806" lon="2.326835"/>
<trkpt lat="48.851806" lon="2.326760"/>
<trkpt lat="48.851805" lon="2.326741"/>
<trkpt lat="48.851805" lon="2.326681"/>
<trkpt lat="48.851806" lon="2.326598"/>
<trkpt lat="48.851806" lon="2.326580"/>
<trkpt lat="48.851788" lon="2.326547"/>
<trkpt lat="48.851760" lon="2.325287"/>
<trkpt lat="48.851754" lon="2.325023"/>
<trkpt lat="48.851753" lon="2.324974"/>
<trkpt lat="48.851752" lon="2.324932"/>
<trkpt lat="48.851749" lon="2.324730"/>
<trkpt lat="48.851729" lon="2.324733"/>
<trkpt lat="48.851712" lon="2.324732"/>
<trkpt lat="48.851679" lon="2.324732"/>
<trkpt lat="48.851668" lon="2.324732"/>
<trkpt lat="48.851648" lon="2.323692"/>
<trkpt lat="48.851628" lon="2.323658"/>
<trkpt lat="48.851582" lon="2.323656"/>
<trkpt lat="48.851086" lon="2.323865"/>
</trkseg></trk>
<trk><name>Le Bon Marché a La Grande Épicerie de Paris (162 m, 2.2 min)</name><trkseg>
<trkpt lat="48.851086" lon="2.323865"/>
<trkpt lat="48.850672" lon="2.324040"/>
<trkpt lat="48.850352" lon="2.324177"/>
<trkpt lat="48.850350" lon="2.324170"/>
<trkpt lat="48.850328" lon="2.324103"/>
<trkpt lat="48.850314" lon="2.324059"/>
<trkpt lat="48.850304" lon="2.324030"/>
<trkpt lat="48.850261" lon="2.323977"/>
<trkpt lat="48.850195" lon="2.323832"/>
<trkpt lat="48.850116" lon="2.323667"/>
<trkpt lat="48.849947" lon="2.323326"/>
</trkseg></trk>
<trk><name>La Motte-Picquet-Grenelle a Torre Eiffel (1335 m, 20.0 min)</name><trkseg>
<trkpt lat="48.849286" lon="2.298263"/>
<trkpt lat="48.849438" lon="2.298404"/>
<trkpt lat="48.849511" lon="2.298510"/>
<trkpt lat="48.849530" lon="2.298537"/>
<trkpt lat="48.849595" lon="2.298441"/>
<trkpt lat="48.849606" lon="2.298458"/>
<trkpt lat="48.849620" lon="2.298479"/>
<trkpt lat="48.850201" lon="2.297587"/>
<trkpt lat="48.850258" lon="2.297551"/>
<trkpt lat="48.850281" lon="2.297542"/>
<trkpt lat="48.850317" lon="2.297489"/>
<trkpt lat="48.850342" lon="2.297451"/>
<trkpt lat="48.850353" lon="2.297444"/>
<trkpt lat="48.850352" lon="2.297417"/>
<trkpt lat="48.850669" lon="2.297101"/>
<trkpt lat="48.850673" lon="2.297096"/>
<trkpt lat="48.850732" lon="2.297087"/>
<trkpt lat="48.850833" lon="2.297130"/>
<trkpt lat="48.850927" lon="2.297075"/>
<trkpt lat="48.851049" lon="2.296899"/>
<trkpt lat="48.851234" lon="2.296586"/>
<trkpt lat="48.851277" lon="2.296548"/>
<trkpt lat="48.851291" lon="2.296519"/>
<trkpt lat="48.851303" lon="2.296500"/>
<trkpt lat="48.851311" lon="2.296488"/>
<trkpt lat="48.851318" lon="2.296475"/>
<trkpt lat="48.851358" lon="2.296464"/>
<trkpt lat="48.851505" lon="2.296239"/>
<trkpt lat="48.851633" lon="2.296046"/>
<trkpt lat="48.851653" lon="2.295982"/>
<trkpt lat="48.851667" lon="2.295957"/>
<trkpt lat="48.851693" lon="2.295924"/>
<trkpt lat="48.851717" lon="2.295894"/>
<trkpt lat="48.851729" lon="2.295875"/>
<trkpt lat="48.851745" lon="2.295914"/>
<trkpt lat="48.851964" lon="2.296242"/>
<trkpt lat="48.852003" lon="2.296289"/>
<trkpt lat="48.852123" lon="2.296374"/>
<trkpt lat="48.852203" lon="2.296426"/>
<trkpt lat="48.852320" lon="2.296517"/>
<trkpt lat="48.852905" lon="2.296936"/>
<trkpt lat="48.852954" lon="2.296972"/>
<trkpt lat="48.852992" lon="2.296951"/>
<trkpt lat="48.853003" lon="2.296959"/>
<trkpt lat="48.853030" lon="2.296974"/>
<trkpt lat="48.853050" lon="2.296985"/>
<trkpt lat="48.853078" lon="2.297002"/>
<trkpt lat="48.853097" lon="2.297063"/>
<trkpt lat="48.853099" lon="2.297071"/>
<trkpt lat="48.853310" lon="2.297225"/>
<trkpt lat="48.853376" lon="2.297239"/>
<trkpt lat="48.853416" lon="2.297185"/>
<trkpt lat="48.853441" lon="2.297221"/>
<trkpt lat="48.853484" lon="2.297293"/>
<trkpt lat="48.853514" lon="2.297339"/>
<trkpt lat="48.853533" lon="2.297380"/>
<trkpt lat="48.853724" lon="2.297102"/>
<trkpt lat="48.853736" lon="2.297084"/>
<trkpt lat="48.853760" lon="2.297047"/>
<trkpt lat="48.853788" lon="2.297014"/>
<trkpt lat="48.853800" lon="2.297003"/>
<trkpt lat="48.853797" lon="2.296951"/>
<trkpt lat="48.854416" lon="2.296026"/>
<trkpt lat="48.854450" lon="2.296041"/>
<trkpt lat="48.854472" lon="2.295992"/>
<trkpt lat="48.854541" lon="2.295891"/>
<trkpt lat="48.854590" lon="2.295819"/>
<trkpt lat="48.854638" lon="2.295804"/>
<trkpt lat="48.854678" lon="2.295719"/>
<trkpt lat="48.854723" lon="2.295650"/>
<trkpt lat="48.854905" lon="2.295684"/>
<trkpt lat="48.855177" lon="2.295738"/>
<trkpt lat="48.855271" lon="2.295760"/>
<trkpt lat="48.855371" lon="2.295791"/>
<trkpt lat="48.855826" lon="2.295941"/>
<trkpt lat="48.856332" lon="2.295161"/>
<trkpt lat="48.856778" lon="2.294470"/>
<trkpt lat="48.856976" lon="2.294159"/>
<trkpt lat="48.857000" lon="2.294117"/>
<trkpt lat="48.857032" lon="2.294060"/>
<trkpt lat="48.857069" lon="2.293996"/>
<trkpt lat="48.857089" lon="2.293961"/>
<trkpt lat="48.857112" lon="2.293923"/>
<trkpt lat="48.857177" lon="2.293785"/>
<trkpt lat="48.857220" lon="2.293571"/>
<trkpt lat="48.857259" lon="2.293390"/>
<trkpt lat="48.857298" lon="2.293281"/>
<trkpt lat="48.857333" lon="2.293355"/>
<trkpt lat="48.857351" lon="2.293494"/>
<trkpt lat="48.857367" lon="2.293576"/>
<trkpt lat="48.857391" lon="2.293658"/>
<trkpt lat="48.857433" lon="2.293865"/>
<trkpt lat="48.857470" lon="2.294016"/>
<trkpt lat="48.857538" lon="2.294134"/>
<trkpt lat="48.857591" lon="2.294187"/>
<trkpt lat="48.857673" lon="2.294239"/>
<trkpt lat="48.857772" lon="2.294262"/>
<trkpt lat="48.857994" lon="2.294225"/>
<trkpt lat="48.858130" lon="2.294232"/>
<trkpt lat="48.858285" lon="2.294462"/>
</trkseg></trk>
<trk><name>Torre Eiffel a Champ de Mars (669 m, 9.7 min)</name><trkseg>
<trkpt lat="48.858285" lon="2.294462"/>
<trkpt lat="48.858130" lon="2.294232"/>
<trkpt lat="48.858045" lon="2.294146"/>
<trkpt lat="48.857993" lon="2.294008"/>
<trkpt lat="48.858031" lon="2.293757"/>
<trkpt lat="48.858042" lon="2.293598"/>
<trkpt lat="48.858054" lon="2.293238"/>
<trkpt lat="48.858052" lon="2.293115"/>
<trkpt lat="48.858030" lon="2.292931"/>
<trkpt lat="48.857987" lon="2.292781"/>
<trkpt lat="48.857969" lon="2.292744"/>
<trkpt lat="48.857941" lon="2.292690"/>
<trkpt lat="48.857924" lon="2.292654"/>
<trkpt lat="48.857829" lon="2.292734"/>
<trkpt lat="48.857741" lon="2.292781"/>
<trkpt lat="48.857672" lon="2.292818"/>
<trkpt lat="48.857565" lon="2.292897"/>
<trkpt lat="48.857544" lon="2.292919"/>
<trkpt lat="48.857486" lon="2.292980"/>
<trkpt lat="48.857411" lon="2.293081"/>
<trkpt lat="48.857334" lon="2.293211"/>
<trkpt lat="48.857298" lon="2.293281"/>
<trkpt lat="48.857259" lon="2.293390"/>
<trkpt lat="48.857220" lon="2.293571"/>
<trkpt lat="48.857177" lon="2.293785"/>
<trkpt lat="48.857112" lon="2.293923"/>
<trkpt lat="48.857089" lon="2.293961"/>
<trkpt lat="48.857069" lon="2.293996"/>
<trkpt lat="48.857032" lon="2.294060"/>
<trkpt lat="48.857000" lon="2.294117"/>
<trkpt lat="48.856976" lon="2.294159"/>
<trkpt lat="48.857026" lon="2.294232"/>
<trkpt lat="48.857128" lon="2.294379"/>
<trkpt lat="48.857181" lon="2.294594"/>
<trkpt lat="48.857207" lon="2.294706"/>
<trkpt lat="48.857209" lon="2.294733"/>
<trkpt lat="48.857216" lon="2.294842"/>
<trkpt lat="48.857211" lon="2.294927"/>
<trkpt lat="48.857187" lon="2.295033"/>
<trkpt lat="48.857143" lon="2.295186"/>
<trkpt lat="48.857115" lon="2.295323"/>
<trkpt lat="48.857118" lon="2.295408"/>
<trkpt lat="48.857121" lon="2.295450"/>
<trkpt lat="48.857136" lon="2.295505"/>
<trkpt lat="48.857235" lon="2.295655"/>
<trkpt lat="48.857118" lon="2.295838"/>
<trkpt lat="48.856801" lon="2.296336"/>
<trkpt lat="48.856687" lon="2.296527"/>
<trkpt lat="48.856575" lon="2.296706"/>
<trkpt lat="48.856457" lon="2.296888"/>
<trkpt lat="48.856223" lon="2.297266"/>
<trkpt lat="48.856151" lon="2.297360"/>
<trkpt lat="48.856095" lon="2.297327"/>
<trkpt lat="48.856022" lon="2.297296"/>
<trkpt lat="48.855977" lon="2.297393"/>
<trkpt lat="48.856031" lon="2.297419"/>
<trkpt lat="48.856095" lon="2.297461"/>
<trkpt lat="48.856162" lon="2.297522"/>
<trkpt lat="48.856235" lon="2.297622"/>
<trkpt lat="48.856258" lon="2.297660"/>
</trkseg></trk>
<trk><name>Champ de Mars a Trocadéro (1583 m, 22.8 min)</name><trkseg>
<trkpt lat="48.856258" lon="2.297660"/>
<trkpt lat="48.856235" lon="2.297622"/>
<trkpt lat="48.856162" lon="2.297522"/>
<trkpt lat="48.856095" lon="2.297461"/>
<trkpt lat="48.856031" lon="2.297419"/>
<trkpt lat="48.855977" lon="2.297393"/>
<trkpt lat="48.856022" lon="2.297296"/>
<trkpt lat="48.856095" lon="2.297327"/>
<trkpt lat="48.856151" lon="2.297360"/>
<trkpt lat="48.856223" lon="2.297266"/>
<trkpt lat="48.856457" lon="2.296888"/>
<trkpt lat="48.856575" lon="2.296706"/>
<trkpt lat="48.856687" lon="2.296527"/>
<trkpt lat="48.856801" lon="2.296336"/>
<trkpt lat="48.857118" lon="2.295838"/>
<trkpt lat="48.857235" lon="2.295655"/>
<trkpt lat="48.857136" lon="2.295505"/>
<trkpt lat="48.857121" lon="2.295450"/>
<trkpt lat="48.857118" lon="2.295408"/>
<trkpt lat="48.857115" lon="2.295323"/>
<trkpt lat="48.857143" lon="2.295186"/>
<trkpt lat="48.857187" lon="2.295033"/>
<trkpt lat="48.857211" lon="2.294927"/>
<trkpt lat="48.857216" lon="2.294842"/>
<trkpt lat="48.857209" lon="2.294733"/>
<trkpt lat="48.857207" lon="2.294706"/>
<trkpt lat="48.857181" lon="2.294594"/>
<trkpt lat="48.857128" lon="2.294379"/>
<trkpt lat="48.857026" lon="2.294232"/>
<trkpt lat="48.856976" lon="2.294159"/>
<trkpt lat="48.857000" lon="2.294117"/>
<trkpt lat="48.857032" lon="2.294060"/>
<trkpt lat="48.857069" lon="2.293996"/>
<trkpt lat="48.857089" lon="2.293961"/>
<trkpt lat="48.857112" lon="2.293923"/>
<trkpt lat="48.857177" lon="2.293785"/>
<trkpt lat="48.857220" lon="2.293571"/>
<trkpt lat="48.857259" lon="2.293390"/>
<trkpt lat="48.857298" lon="2.293281"/>
<trkpt lat="48.857334" lon="2.293211"/>
<trkpt lat="48.857411" lon="2.293081"/>
<trkpt lat="48.857486" lon="2.292980"/>
<trkpt lat="48.857544" lon="2.292919"/>
<trkpt lat="48.857565" lon="2.292897"/>
<trkpt lat="48.857672" lon="2.292818"/>
<trkpt lat="48.857741" lon="2.292781"/>
<trkpt lat="48.857829" lon="2.292734"/>
<trkpt lat="48.857924" lon="2.292654"/>
<trkpt lat="48.858081" lon="2.292409"/>
<trkpt lat="48.858109" lon="2.292372"/>
<trkpt lat="48.858185" lon="2.292238"/>
<trkpt lat="48.858793" lon="2.293124"/>
<trkpt lat="48.858812" lon="2.293150"/>
<trkpt lat="48.858827" lon="2.293173"/>
<trkpt lat="48.858860" lon="2.293121"/>
<trkpt lat="48.858879" lon="2.293072"/>
<trkpt lat="48.858886" lon="2.293022"/>
<trkpt lat="48.858895" lon="2.292948"/>
<trkpt lat="48.858901" lon="2.292922"/>
<trkpt lat="48.858973" lon="2.292904"/>
<trkpt lat="48.859060" lon="2.292765"/>
<trkpt lat="48.859116" lon="2.292787"/>
<trkpt lat="48.859179" lon="2.292760"/>
<trkpt lat="48.859225" lon="2.292693"/>
<trkpt lat="48.859367" lon="2.292486"/>
<trkpt lat="48.860195" lon="2.291212"/>
<trkpt lat="48.860213" lon="2.291186"/>
<trkpt lat="48.860227" lon="2.291166"/>
<trkpt lat="48.860245" lon="2.291188"/>
<trkpt lat="48.860265" lon="2.291216"/>
<trkpt lat="48.860322" lon="2.291296"/>
<trkpt lat="48.860372" lon="2.291364"/>
<trkpt lat="48.860392" lon="2.291391"/>
<trkpt lat="48.860409" lon="2.291425"/>
<trkpt lat="48.860656" lon="2.291738"/>
<trkpt lat="48.860684" lon="2.291697"/>
<trkpt lat="48.860706" lon="2.291659"/>
<trkpt lat="48.860724" lon="2.291630"/>
<trkpt lat="48.860772" lon="2.291618"/>
<trkpt lat="48.860799" lon="2.291648"/>
<trkpt lat="48.860818" lon="2.291671"/>
<trkpt lat="48.860839" lon="2.291695"/>
<trkpt lat="48.860884" lon="2.291619"/>
<trkpt lat="48.860909" lon="2.291614"/>
<trkpt lat="48.860937" lon="2.291627"/>
<trkpt lat="48.860951" lon="2.291605"/>
<trkpt lat="48.860975" lon="2.291564"/>
<trkpt lat="48.860983" lon="2.291559"/>
<trkpt lat="48.860995" lon="2.291559"/>
<trkpt lat="48.861029" lon="2.291577"/>
<trkpt lat="48.861063" lon="2.291602"/>
<trkpt lat="48.861089" lon="2.291498"/>
<trkpt lat="48.861112" lon="2.291413"/>
<trkpt lat="48.861133" lon="2.291336"/>
<trkpt lat="48.861137" lon="2.291316"/>
<trkpt lat="48.861204" lon="2.291324"/>
<trkpt lat="48.861224" lon="2.291292"/>
<trkpt lat="48.861248" lon="2.291255"/>
<trkpt lat="48.861258" lon="2.291239"/>
<trkpt lat="48.861276" lon="2.291212"/>
<trkpt lat="48.861288" lon="2.291192"/>
<trkpt lat="48.861317" lon="2.291147"/>
<trkpt lat="48.861443" lon="2.290953"/>
<trkpt lat="48.861598" lon="2.290711"/>
<trkpt lat="48.861633" lon="2.290657"/>
<trkpt lat="48.861817" lon="2.290369"/>
<trkpt lat="48.861857" lon="2.290307"/>
<trkpt lat="48.862007" lon="2.290075"/>
<trkpt lat="48.862074" lon="2.289970"/>
<trkpt lat="48.862193" lon="2.289786"/>
<trkpt lat="48.862358" lon="2.289529"/>
<trkpt lat="48.862296" lon="2.289439"/>
<trkpt lat="48.862284" lon="2.289421"/>
<trkpt lat="48.862248" lon="2.289368"/>
<trkpt lat="48.862205" lon="2.289305"/>
<trkpt lat="48.862242" lon="2.289247"/>
<trkpt lat="48.862332" lon="2.289103"/>
<trkpt lat="48.862411" lon="2.289080"/>
<trkpt lat="48.862412" lon="2.289039"/>
<trkpt lat="48.862364" lon="2.288962"/>
<trkpt lat="48.862293" lon="2.288893"/>
<trkpt lat="48.862200" lon="2.288862"/>
<trkpt lat="48.862142" lon="2.288714"/>
<trkpt lat="48.862113" lon="2.288540"/>
<trkpt lat="48.862104" lon="2.288507"/>
<trkpt lat="48.862392" lon="2.288057"/>
<trkpt lat="48.862517" lon="2.287873"/>
<trkpt lat="48.862630" lon="2.287707"/>
<trkpt lat="48.862991" lon="2.288235"/>
<trkpt lat="48.863009" lon="2.288222"/>
<trkpt lat="48.863112" lon="2.288159"/>
<trkpt lat="48.863154" lon="2.288134"/>
<trkpt lat="48.863191" lon="2.288101"/>
<trkpt lat="48.863179" lon="2.288047"/>
<trkpt lat="48.863170" lon="2.288007"/>
<trkpt lat="48.863138" lon="2.287863"/>
<trkpt lat="48.863108" lon="2.287727"/>
<trkpt lat="48.863103" lon="2.287688"/>
<trkpt lat="48.863078" lon="2.287694"/>
<trkpt lat="48.863042" lon="2.287682"/>
<trkpt lat="48.862873" lon="2.287432"/>
<trkpt lat="48.862794" lon="2.287316"/>
<trkpt lat="48.862845" lon="2.287239"/>
<trkpt lat="48.862855" lon="2.287223"/>
<trkpt lat="48.862871" lon="2.287206"/>
</trkseg></trk>
<trk><name>Champ de Mars a Rue Saint-Dominique (409 m, 5.8 min)</name><trkseg>
<trkpt lat="48.856258" lon="2.297660"/>
<trkpt lat="48.856325" lon="2.297769"/>
<trkpt lat="48.856365" lon="2.297864"/>
<trkpt lat="48.856396" lon="2.297961"/>
<trkpt lat="48.856418" lon="2.298056"/>
<trkpt lat="48.856468" lon="2.298006"/>
<trkpt lat="48.856486" lon="2.297984"/>
<trkpt lat="48.856505" lon="2.298064"/>
<trkpt lat="48.856527" lon="2.298130"/>
<trkpt lat="48.856553" lon="2.298186"/>
<trkpt lat="48.856582" lon="2.298231"/>
<trkpt lat="48.856827" lon="2.298592"/>
<trkpt lat="48.856861" lon="2.298642"/>
<trkpt lat="48.856990" lon="2.298834"/>
<trkpt lat="48.857287" lon="2.299265"/>
<trkpt lat="48.857357" lon="2.299368"/>
<trkpt lat="48.857537" lon="2.299613"/>
<trkpt lat="48.857562" lon="2.299602"/>
<trkpt lat="48.857593" lon="2.299588"/>
<trkpt lat="48.857643" lon="2.299937"/>
<trkpt lat="48.857658" lon="2.300131"/>
<trkpt lat="48.857739" lon="2.300393"/>
<trkpt lat="48.857754" lon="2.300430"/>
<trkpt lat="48.858092" lon="2.301348"/>
<trkpt lat="48.858098" lon="2.301363"/>
<trkpt lat="48.858129" lon="2.301447"/>
<trkpt lat="48.858304" lon="2.301938"/>
</trkseg></trk>
<trk><name>Rue Saint-Dominique a RER Champ de Mars-Tour Eiffel (1233 m, 17.6 min)</name><trkseg>
<trkpt lat="48.858304" lon="2.301938"/>
<trkpt lat="48.858129" lon="2.301447"/>
<trkpt lat="48.858098" lon="2.301363"/>
<trkpt lat="48.858092" lon="2.301348"/>
<trkpt lat="48.858117" lon="2.301323"/>
<trkpt lat="48.858127" lon="2.301314"/>
<trkpt lat="48.857880" lon="2.300631"/>
<trkpt lat="48.857794" lon="2.300394"/>
<trkpt lat="48.857816" lon="2.300343"/>
<trkpt lat="48.857812" lon="2.300310"/>
<trkpt lat="48.857831" lon="2.300196"/>
<trkpt lat="48.857842" lon="2.300130"/>
<trkpt lat="48.857846" lon="2.300106"/>
<trkpt lat="48.857829" lon="2.299989"/>
<trkpt lat="48.857813" lon="2.299963"/>
<trkpt lat="48.857789" lon="2.299926"/>
<trkpt lat="48.857786" lon="2.299920"/>
<trkpt lat="48.857780" lon="2.299910"/>
<trkpt lat="48.857749" lon="2.299861"/>
<trkpt lat="48.857725" lon="2.299821"/>
<trkpt lat="48.858525" lon="2.298564"/>
<trkpt lat="48.858542" lon="2.298552"/>
<trkpt lat="48.858555" lon="2.298542"/>
<trkpt lat="48.858589" lon="2.298487"/>
<trkpt lat="48.858616" lon="2.298444"/>
<trkpt lat="48.858628" lon="2.298426"/>
<trkpt lat="48.858640" lon="2.298407"/>
<trkpt lat="48.859041" lon="2.297767"/>
<trkpt lat="48.859224" lon="2.297485"/>
<trkpt lat="48.859235" lon="2.297467"/>
<trkpt lat="48.859294" lon="2.297376"/>
<trkpt lat="48.859334" lon="2.297314"/>
<trkpt lat="48.859351" lon="2.297288"/>
<trkpt lat="48.858995" lon="2.296768"/>
<trkpt lat="48.859020" lon="2.296730"/>
<trkpt lat="48.859509" lon="2.295976"/>
<trkpt lat="48.859490" lon="2.295947"/>
<trkpt lat="48.859527" lon="2.295862"/>
<trkpt lat="48.859574" lon="2.295745"/>
<trkpt lat="48.859614" lon="2.295634"/>
<trkpt lat="48.859658" lon="2.295435"/>
<trkpt lat="48.859705" lon="2.295179"/>
<trkpt lat="48.859757" lon="2.294762"/>
<trkpt lat="48.859698" lon="2.294681"/>
<trkpt lat="48.859047" lon="2.293727"/>
<trkpt lat="48.859078" lon="2.293686"/>
<trkpt lat="48.859127" lon="2.293607"/>
<trkpt lat="48.859159" lon="2.293554"/>
<trkpt lat="48.859186" lon="2.293518"/>
<trkpt lat="48.859207" lon="2.293483"/>
<trkpt lat="48.859261" lon="2.293392"/>
<trkpt lat="48.859287" lon="2.293356"/>
<trkpt lat="48.859264" lon="2.293325"/>
<trkpt lat="48.859229" lon="2.293274"/>
<trkpt lat="48.859154" lon="2.293169"/>
<trkpt lat="48.859137" lon="2.293144"/>
<trkpt lat="48.859116" lon="2.293115"/>
<trkpt lat="48.859040" lon="2.293002"/>
<trkpt lat="48.859004" lon="2.292956"/>
<trkpt lat="48.858973" lon="2.292904"/>
<trkpt lat="48.859060" lon="2.292765"/>
<trkpt lat="48.859106" lon="2.292691"/>
<trkpt lat="48.858916" lon="2.292433"/>
<trkpt lat="48.858873" lon="2.292373"/>
<trkpt lat="48.858748" lon="2.292132"/>
<trkpt lat="48.858148" lon="2.291280"/>
<trkpt lat="48.857801" lon="2.290787"/>
<trkpt lat="48.857632" lon="2.290543"/>
<trkpt lat="48.857474" lon="2.290314"/>
<trkpt lat="48.857210" lon="2.290034"/>
<trkpt lat="48.856918" lon="2.289824"/>
<trkpt lat="48.856720" lon="2.289708"/>
</trkseg></trk>
</gpx>