<?xml version="1.0" encoding="UTF-8"?>
<gpx version="1.1" creator="Guia Paris 2026" xmlns="http://www.topografix.com/GPX/1/1">
<metadata><name>2026-09-02 Versalles por la mañana, Montmartre por la tarde</name></metadata>
<wpt lat="48.800297" lon="2.128916"><name>08:00 Versailles Château Rive Gauche</name><desc>08:00 · RER C a Versalles. Cincuenta minutos sin transbordo. Comprobad en el panel que el tren lleva destino Versailles Château: esa rama lleva códigos que empiezan por VICK.</desc><type>transporte</type></wpt>
<wpt lat="48.804425" lon="2.120285"><name>09:00 Palacio de Versalles</name><desc>09:00 · Palacio, en la apertura. Abre a las 9:00 y cierra los lunes. Ir a la apertura es la única manera de ver los Grandes Apartamentos sin ir en fila india. Capilla real, salones de los planetas, Galería de los Espejos, aposentos del rey y de la reina.</desc><type>visita</type></wpt>
<wpt lat="48.805094" lon="2.119216"><name>11:45 Jardines de Versalles</name><desc>11:45 · Jardines y bosquetes. Miércoles de Jardines Musicales, de 9:00 a 19:00, con los bosquetes abiertos. La Sala de Baile, los Baños de Apolo y la Columnata solo se pueden ver estos días. Hasta el Gran Canal y vuelta son cinco kilómetros y no hay sombra en el eje central.</desc><type>visita</type></wpt>
<wpt lat="48.883723" lon="2.332696"><name>14:30 Place Blanche</name><desc>14:30 · Vuelta a París. El Trianon queda pagado con vuestra entrada pero no entra en el plan: añade tres horas y llegaríais al tour con trece kilómetros en las piernas.</desc><type>transporte</type></wpt>
<wpt lat="48.882619" lon="2.337414"><name>15:45 Bouillon Pigalle</name><desc>15:45 · Comida en Pigalle. A esa hora casi todas las cocinas de París han cerrado. Bouillon Pigalle sirve de 12:00 a 00:00 sin parar: cocina francesa clásica a precio de bouillon. No reservan, pero a media tarde no hay cola.</desc><type>comida</type></wpt>
<wpt lat="48.886806" lon="2.343015"><name>19:45 Sacré-Cœur</name><desc>19:45 · Sacré-Cœur y puesta de sol. Abierto hasta las 22:30 y gratis. A esta hora no hay cola, cuando entre las 10:30 y las 17:00 hay diez o quince minutos. El sol se pone hacia las 20:30 por la derecha del encuadre. Prohibido fotografiar dentro. La cúpula ya está cerrada.</desc><type>visita</type></wpt>
<wpt lat="48.884004" lon="2.339171"><name>21:00 Le Relais Gascon</name><desc>21:00 · Cena por Abbesses o Lepic. Le Relais Gascon, ensaladas enormes con patatas al ajo, de 11:00 a 00:00 sin cortes. Chez Marie cierra a las 23:00, así que si vais allí sentaos antes de las 21:30. Cuidado: Au Virage Lepic y La Belle Maison libran los miércoles.</desc><type>comida</type></wpt>
<wpt lat="48.82935" lon="2.374812"><name>22:30 Hôtel Sanso</name><desc>22:30 · Vuelta al hotel. Si queréis ver el Moulin Rouge encendido, está diez minutos cuesta abajo por la rue Lepic.</desc><type>transporte</type></wpt>
<trk><name>Versailles Château Rive Gauche a Palacio de Versalles (1066 m, 15.7 min)</name><trkseg>
<trkpt lat="48.800308" lon="2.128946"/>
<trkpt lat="48.800339" lon="2.128836"/>
<trkpt lat="48.800415" lon="2.128885"/>
<trkpt lat="48.800455" lon="2.128911"/>
<trkpt lat="48.800462" lon="2.128916"/>
<trkpt lat="48.800500" lon="2.128940"/>
<trkpt lat="48.800507" lon="2.128944"/>
<trkpt lat="48.800514" lon="2.128918"/>
<trkpt lat="48.800523" lon="2.128816"/>
<trkpt lat="48.800538" lon="2.128764"/>
<trkpt lat="48.800583" lon="2.128591"/>
<trkpt lat="48.800755" lon="2.128722"/>
<trkpt lat="48.800824" lon="2.128775"/>
<trkpt lat="48.800857" lon="2.128800"/>
<trkpt lat="48.801156" lon="2.128972"/>
<trkpt lat="48.801858" lon="2.129415"/>
<trkpt lat="48.801955" lon="2.129455"/>
<trkpt lat="48.802058" lon="2.129046"/>
<trkpt lat="48.802153" lon="2.128694"/>
<trkpt lat="48.802168" lon="2.128637"/>
<trkpt lat="48.802285" lon="2.128206"/>
<trkpt lat="48.802359" lon="2.127936"/>
<trkpt lat="48.802422" lon="2.127680"/>
<trkpt lat="48.802428" lon="2.127646"/>
<trkpt lat="48.802802" lon="2.126335"/>
<trkpt lat="48.802813" lon="2.126294"/>
<trkpt lat="48.802843" lon="2.126193"/>
<trkpt lat="48.802908" lon="2.126237"/>
<trkpt lat="48.802946" lon="2.126262"/>
<trkpt lat="48.802999" lon="2.126299"/>
<trkpt lat="48.803023" lon="2.126213"/>
<trkpt lat="48.803665" lon="2.124540"/>
<trkpt lat="48.803745" lon="2.124334"/>
<trkpt lat="48.803773" lon="2.124223"/>
<trkpt lat="48.804037" lon="2.123195"/>
<trkpt lat="48.803985" lon="2.122770"/>
<trkpt lat="48.803884" lon="2.122095"/>
<trkpt lat="48.803838" lon="2.121938"/>
<trkpt lat="48.803871" lon="2.121809"/>
<trkpt lat="48.803878" lon="2.121780"/>
<trkpt lat="48.804028" lon="2.121198"/>
<trkpt lat="48.804072" lon="2.121020"/>
<trkpt lat="48.803967" lon="2.120743"/>
<trkpt lat="48.804252" lon="2.119698"/>
<trkpt lat="48.804454" lon="2.119827"/>
<trkpt lat="48.804478" lon="2.119840"/>
<trkpt lat="48.804534" lon="2.119875"/>
</trkseg></trk>
<trk><name>Palacio de Versalles a Jardines de Versalles (109 m, 1.4 min)</name><trkseg>
<trkpt lat="48.804534" lon="2.119875"/>
<trkpt lat="48.804657" lon="2.119950"/>
<trkpt lat="48.804691" lon="2.119823"/>
<trkpt lat="48.804701" lon="2.119787"/>
<trkpt lat="48.804717" lon="2.119721"/>
<trkpt lat="48.804941" lon="2.119858"/>
<trkpt lat="48.805099" lon="2.119219"/>
</trkseg></trk>
<trk><name>Jardines de Versalles a Gran Canal de Versalles (1549 m, 19.8 min)</name><trkseg>
<trkpt lat="48.805099" lon="2.119219"/>
<trkpt lat="48.805271" lon="2.118520"/>
<trkpt lat="48.805148" lon="2.118442"/>
<trkpt lat="48.805079" lon="2.118398"/>
<trkpt lat="48.805054" lon="2.118270"/>
<trkpt lat="48.805037" lon="2.118170"/>
<trkpt lat="48.804776" lon="2.116989"/>
<trkpt lat="48.805042" lon="2.116008"/>
<trkpt lat="48.805041" lon="2.115814"/>
<trkpt lat="48.805046" lon="2.115794"/>
<trkpt lat="48.805091" lon="2.115623"/>
<trkpt lat="48.805216" lon="2.115126"/>
<trkpt lat="48.805224" lon="2.115098"/>
<trkpt lat="48.805106" lon="2.114647"/>
<trkpt lat="48.804970" lon="2.114194"/>
<trkpt lat="48.805153" lon="2.113505"/>
<trkpt lat="48.804994" lon="2.112920"/>
<trkpt lat="48.804986" lon="2.112861"/>
<trkpt lat="48.805013" lon="2.112838"/>
<trkpt lat="48.805035" lon="2.112805"/>
<trkpt lat="48.805051" lon="2.112765"/>
<trkpt lat="48.805060" lon="2.112709"/>
<trkpt lat="48.805059" lon="2.112651"/>
<trkpt lat="48.805045" lon="2.112597"/>
<trkpt lat="48.805087" lon="2.112555"/>
<trkpt lat="48.805244" lon="2.112408"/>
<trkpt lat="48.805712" lon="2.112023"/>
<trkpt lat="48.806222" lon="2.111608"/>
<trkpt lat="48.806730" lon="2.111225"/>
<trkpt lat="48.806714" lon="2.111190"/>
<trkpt lat="48.806688" lon="2.111135"/>
<trkpt lat="48.806655" lon="2.111045"/>
<trkpt lat="48.806633" lon="2.110975"/>
<trkpt lat="48.806618" lon="2.110912"/>
<trkpt lat="48.806611" lon="2.110859"/>
<trkpt lat="48.806603" lon="2.110804"/>
<trkpt lat="48.806600" lon="2.110779"/>
<trkpt lat="48.806596" lon="2.110754"/>
<trkpt lat="48.806591" lon="2.110717"/>
<trkpt lat="48.806585" lon="2.110636"/>
<trkpt lat="48.806582" lon="2.110583"/>
<trkpt lat="48.806587" lon="2.110504"/>
<trkpt lat="48.806598" lon="2.110426"/>
<trkpt lat="48.806602" lon="2.110407"/>
<trkpt lat="48.806615" lon="2.110352"/>
<trkpt lat="48.806736" lon="2.110018"/>
<trkpt lat="48.806765" lon="2.110035"/>
<trkpt lat="48.807110" lon="2.108586"/>
<trkpt lat="48.807132" lon="2.108493"/>
<trkpt lat="48.807187" lon="2.108416"/>
<trkpt lat="48.807215" lon="2.108322"/>
<trkpt lat="48.807212" lon="2.108119"/>
<trkpt lat="48.807192" lon="2.107884"/>
<trkpt lat="48.807235" lon="2.107657"/>
<trkpt lat="48.807296" lon="2.107529"/>
<trkpt lat="48.807419" lon="2.107297"/>
<trkpt lat="48.807571" lon="2.107078"/>
<trkpt lat="48.807734" lon="2.106888"/>
<trkpt lat="48.807804" lon="2.106743"/>
<trkpt lat="48.808068" lon="2.105740"/>
<trkpt lat="48.809223" lon="2.101378"/>
</trkseg></trk>
<trk><name>Jardines de Versalles a Versailles Château Rive Gauche (1169 m, 16.7 min)</name><trkseg>
<trkpt lat="48.805099" lon="2.119219"/>
<trkpt lat="48.804941" lon="2.119858"/>
<trkpt lat="48.804717" lon="2.119721"/>
<trkpt lat="48.804519" lon="2.119600"/>
<trkpt lat="48.804420" lon="2.119540"/>
<trkpt lat="48.804314" lon="2.119476"/>
<trkpt lat="48.804252" lon="2.119698"/>
<trkpt lat="48.803967" lon="2.120743"/>
<trkpt lat="48.804072" lon="2.121020"/>
<trkpt lat="48.804028" lon="2.121198"/>
<trkpt lat="48.803878" lon="2.121780"/>
<trkpt lat="48.803871" lon="2.121809"/>
<trkpt lat="48.803838" lon="2.121938"/>
<trkpt lat="48.803884" lon="2.122095"/>
<trkpt lat="48.803985" lon="2.122770"/>
<trkpt lat="48.804037" lon="2.123195"/>
<trkpt lat="48.803773" lon="2.124223"/>
<trkpt lat="48.803745" lon="2.124334"/>
<trkpt lat="48.803665" lon="2.124540"/>
<trkpt lat="48.803023" lon="2.126213"/>
<trkpt lat="48.802999" lon="2.126299"/>
<trkpt lat="48.802971" lon="2.126399"/>
<trkpt lat="48.802951" lon="2.126403"/>
<trkpt lat="48.802703" lon="2.127297"/>
<trkpt lat="48.802627" lon="2.127249"/>
<trkpt lat="48.802492" lon="2.127730"/>
<trkpt lat="48.802124" lon="2.129091"/>
<trkpt lat="48.802045" lon="2.129424"/>
<trkpt lat="48.802035" lon="2.129506"/>
<trkpt lat="48.802009" lon="2.129600"/>
<trkpt lat="48.801968" lon="2.129573"/>
<trkpt lat="48.801938" lon="2.129553"/>
<trkpt lat="48.801705" lon="2.129411"/>
<trkpt lat="48.800855" lon="2.128889"/>
<trkpt lat="48.800755" lon="2.128876"/>
<trkpt lat="48.800705" lon="2.128848"/>
<trkpt lat="48.800645" lon="2.128817"/>
<trkpt lat="48.800538" lon="2.128764"/>
<trkpt lat="48.800523" lon="2.128816"/>
<trkpt lat="48.800514" lon="2.128918"/>
<trkpt lat="48.800507" lon="2.128944"/>
<trkpt lat="48.800500" lon="2.128940"/>
<trkpt lat="48.800462" lon="2.128916"/>
<trkpt lat="48.800455" lon="2.128911"/>
<trkpt lat="48.800415" lon="2.128885"/>
<trkpt lat="48.800339" lon="2.128836"/>
<trkpt lat="48.800308" lon="2.128946"/>
</trkseg></trk>
<trk><name>Place de Clichy a Bouillon Pigalle (857 m, 11.8 min)</name><trkseg>
<trkpt lat="48.883456" lon="2.327339"/>
<trkpt lat="48.883468" lon="2.327378"/>
<trkpt lat="48.883460" lon="2.327405"/>
<trkpt lat="48.883457" lon="2.327434"/>
<trkpt lat="48.883461" lon="2.327462"/>
<trkpt lat="48.883470" lon="2.327488"/>
<trkpt lat="48.883484" lon="2.327508"/>
<trkpt lat="48.883501" lon="2.327521"/>
<trkpt lat="48.883520" lon="2.327525"/>
<trkpt lat="48.883539" lon="2.327520"/>
<trkpt lat="48.883543" lon="2.327559"/>
<trkpt lat="48.883558" lon="2.327637"/>
<trkpt lat="48.883576" lon="2.327726"/>
<trkpt lat="48.883581" lon="2.327748"/>
<trkpt lat="48.883590" lon="2.327800"/>
<trkpt lat="48.883629" lon="2.327790"/>
<trkpt lat="48.883693" lon="2.328072"/>
<trkpt lat="48.883893" lon="2.328382"/>
<trkpt lat="48.883858" lon="2.328436"/>
<trkpt lat="48.883853" lon="2.328442"/>
<trkpt lat="48.883821" lon="2.328497"/>
<trkpt lat="48.883868" lon="2.328577"/>
<trkpt lat="48.884355" lon="2.329360"/>
<trkpt lat="48.884409" lon="2.329450"/>
<trkpt lat="48.884473" lon="2.329555"/>
<trkpt lat="48.884566" lon="2.329607"/>
<trkpt lat="48.884642" lon="2.329653"/>
<trkpt lat="48.884598" lon="2.329827"/>
<trkpt lat="48.884438" lon="2.330467"/>
<trkpt lat="48.884420" lon="2.330544"/>
<trkpt lat="48.884337" lon="2.330897"/>
<trkpt lat="48.884221" lon="2.331396"/>
<trkpt lat="48.884121" lon="2.331826"/>
<trkpt lat="48.884026" lon="2.332234"/>
<trkpt lat="48.883996" lon="2.332344"/>
<trkpt lat="48.883876" lon="2.332790"/>
<trkpt lat="48.883838" lon="2.332959"/>
<trkpt lat="48.883738" lon="2.333293"/>
<trkpt lat="48.883676" lon="2.333445"/>
<trkpt lat="48.883456" lon="2.334187"/>
<trkpt lat="48.883472" lon="2.334198"/>
<trkpt lat="48.883493" lon="2.334213"/>
<trkpt lat="48.883498" lon="2.334246"/>
<trkpt lat="48.883487" lon="2.334263"/>
<trkpt lat="48.883472" lon="2.334313"/>
<trkpt lat="48.883456" lon="2.334365"/>
<trkpt lat="48.883448" lon="2.334405"/>
<trkpt lat="48.883359" lon="2.334654"/>
<trkpt lat="48.883318" lon="2.334795"/>
<trkpt lat="48.883233" lon="2.335086"/>
<trkpt lat="48.883128" lon="2.335447"/>
<trkpt lat="48.883016" lon="2.335829"/>
<trkpt lat="48.882996" lon="2.335865"/>
<trkpt lat="48.882913" lon="2.336135"/>
<trkpt lat="48.882920" lon="2.336168"/>
<trkpt lat="48.882913" lon="2.336173"/>
<trkpt lat="48.882906" lon="2.336204"/>
<trkpt lat="48.882895" lon="2.336249"/>
<trkpt lat="48.882896" lon="2.336258"/>
<trkpt lat="48.882709" lon="2.336886"/>
<trkpt lat="48.882700" lon="2.336900"/>
<trkpt lat="48.882693" lon="2.336926"/>
<trkpt lat="48.882686" lon="2.336957"/>
<trkpt lat="48.882687" lon="2.336966"/>
<trkpt lat="48.882660" lon="2.337039"/>
<trkpt lat="48.882637" lon="2.337085"/>
<trkpt lat="48.882610" lon="2.337182"/>
<trkpt lat="48.882615" lon="2.337224"/>
<trkpt lat="48.882603" lon="2.337227"/>
<trkpt lat="48.882597" lon="2.337256"/>
<trkpt lat="48.882590" lon="2.337291"/>
<trkpt lat="48.882594" lon="2.337307"/>
<trkpt lat="48.882581" lon="2.337322"/>
<trkpt lat="48.882569" lon="2.337395"/>
</trkseg></trk>
<trk><name>Bouillon Pigalle a Place Blanche (394 m, 5.4 min)</name><trkseg>
<trkpt lat="48.882569" lon="2.337395"/>
<trkpt lat="48.882581" lon="2.337322"/>
<trkpt lat="48.882573" lon="2.337307"/>
<trkpt lat="48.882551" lon="2.337288"/>
<trkpt lat="48.882561" lon="2.337226"/>
<trkpt lat="48.882621" lon="2.337012"/>
<trkpt lat="48.882651" lon="2.336905"/>
<trkpt lat="48.882859" lon="2.336177"/>
<trkpt lat="48.883092" lon="2.335423"/>
<trkpt lat="48.883196" lon="2.335061"/>
<trkpt lat="48.883426" lon="2.334286"/>
<trkpt lat="48.883456" lon="2.334187"/>
<trkpt lat="48.883676" lon="2.333445"/>
<trkpt lat="48.883738" lon="2.333293"/>
<trkpt lat="48.883838" lon="2.332959"/>
<trkpt lat="48.883876" lon="2.332790"/>
<trkpt lat="48.883837" lon="2.332766"/>
<trkpt lat="48.883808" lon="2.332748"/>
<trkpt lat="48.883786" lon="2.332735"/>
<trkpt lat="48.883753" lon="2.332715"/>
<trkpt lat="48.883689" lon="2.332676"/>
</trkseg></trk>
<trk><name>Place Blanche a Sacré-Cœur (1211 m, 18.8 min)</name><trkseg>
<trkpt lat="48.883689" lon="2.332676"/>
<trkpt lat="48.883753" lon="2.332715"/>
<trkpt lat="48.883786" lon="2.332735"/>
<trkpt lat="48.883808" lon="2.332748"/>
<trkpt lat="48.883837" lon="2.332766"/>
<trkpt lat="48.883876" lon="2.332790"/>
<trkpt lat="48.883922" lon="2.332835"/>
<trkpt lat="48.883911" lon="2.332864"/>
<trkpt lat="48.883953" lon="2.332944"/>
<trkpt lat="48.884570" lon="2.333566"/>
<trkpt lat="48.884568" lon="2.333587"/>
<trkpt lat="48.884585" lon="2.333590"/>
<trkpt lat="48.884625" lon="2.333635"/>
<trkpt lat="48.884643" lon="2.333655"/>
<trkpt lat="48.884649" lon="2.333664"/>
<trkpt lat="48.884656" lon="2.333660"/>
<trkpt lat="48.884675" lon="2.333665"/>
<trkpt lat="48.884751" lon="2.333743"/>
<trkpt lat="48.884784" lon="2.333776"/>
<trkpt lat="48.885075" lon="2.334075"/>
<trkpt lat="48.885073" lon="2.334105"/>
<trkpt lat="48.885079" lon="2.334113"/>
<trkpt lat="48.885094" lon="2.334128"/>
<trkpt lat="48.885116" lon="2.334149"/>
<trkpt lat="48.885122" lon="2.334154"/>
<trkpt lat="48.885139" lon="2.334143"/>
<trkpt lat="48.885337" lon="2.334347"/>
<trkpt lat="48.885339" lon="2.334375"/>
<trkpt lat="48.885343" lon="2.334378"/>
<trkpt lat="48.885365" lon="2.334399"/>
<trkpt lat="48.885394" lon="2.334423"/>
<trkpt lat="48.885398" lon="2.334426"/>
<trkpt lat="48.885438" lon="2.334453"/>
<trkpt lat="48.885761" lon="2.334790"/>
<trkpt lat="48.885762" lon="2.334837"/>
<trkpt lat="48.885784" lon="2.334846"/>
<trkpt lat="48.885806" lon="2.334861"/>
<trkpt lat="48.885843" lon="2.334888"/>
<trkpt lat="48.885854" lon="2.334896"/>
<trkpt lat="48.885830" lon="2.334949"/>
<trkpt lat="48.885832" lon="2.334985"/>
<trkpt lat="48.885826" lon="2.334998"/>
<trkpt lat="48.885816" lon="2.335024"/>
<trkpt lat="48.885803" lon="2.335057"/>
<trkpt lat="48.885800" lon="2.335068"/>
<trkpt lat="48.885779" lon="2.335105"/>
<trkpt lat="48.885708" lon="2.335368"/>
<trkpt lat="48.885591" lon="2.335774"/>
<trkpt lat="48.885594" lon="2.335811"/>
<trkpt lat="48.885588" lon="2.335825"/>
<trkpt lat="48.885575" lon="2.335872"/>
<trkpt lat="48.885563" lon="2.335916"/>
<trkpt lat="48.885563" lon="2.335932"/>
<trkpt lat="48.885582" lon="2.335936"/>
<trkpt lat="48.886152" lon="2.336340"/>
<trkpt lat="48.886172" lon="2.336355"/>
<trkpt lat="48.886175" lon="2.336377"/>
<trkpt lat="48.886031" lon="2.336699"/>
<trkpt lat="48.885933" lon="2.336785"/>
<trkpt lat="48.885941" lon="2.336821"/>
<trkpt lat="48.885943" lon="2.336841"/>
<trkpt lat="48.885945" lon="2.336878"/>
<trkpt lat="48.885943" lon="2.336897"/>
<trkpt lat="48.885948" lon="2.336912"/>
<trkpt lat="48.885701" lon="2.337823"/>
<trkpt lat="48.885709" lon="2.337828"/>
<trkpt lat="48.885726" lon="2.337838"/>
<trkpt lat="48.885739" lon="2.337846"/>
<trkpt lat="48.885748" lon="2.337851"/>
<trkpt lat="48.885725" lon="2.337949"/>
<trkpt lat="48.885694" lon="2.338080"/>
<trkpt lat="48.885710" lon="2.338078"/>
<trkpt lat="48.885730" lon="2.338076"/>
<trkpt lat="48.885838" lon="2.338056"/>
<trkpt lat="48.885947" lon="2.338035"/>
<trkpt lat="48.886027" lon="2.338012"/>
<trkpt lat="48.886048" lon="2.338020"/>
<trkpt lat="48.886065" lon="2.338068"/>
<trkpt lat="48.886065" lon="2.338084"/>
<trkpt lat="48.886087" lon="2.338098"/>
<trkpt lat="48.886113" lon="2.338112"/>
<trkpt lat="48.886122" lon="2.338088"/>
<trkpt lat="48.886145" lon="2.338046"/>
<trkpt lat="48.886177" lon="2.338038"/>
<trkpt lat="48.886198" lon="2.338061"/>
<trkpt lat="48.886243" lon="2.338133"/>
<trkpt lat="48.886282" lon="2.338198"/>
<trkpt lat="48.886295" lon="2.338236"/>
<trkpt lat="48.886301" lon="2.338287"/>
<trkpt lat="48.886254" lon="2.338709"/>
<trkpt lat="48.886236" lon="2.338865"/>
<trkpt lat="48.886229" lon="2.338901"/>
<trkpt lat="48.886237" lon="2.338905"/>
<trkpt lat="48.886262" lon="2.338922"/>
<trkpt lat="48.886292" lon="2.338944"/>
<trkpt lat="48.886300" lon="2.338950"/>
<trkpt lat="48.886060" lon="2.339766"/>
<trkpt lat="48.886003" lon="2.339956"/>
<trkpt lat="48.885994" lon="2.339972"/>
<trkpt lat="48.885888" lon="2.340336"/>
<trkpt lat="48.885880" lon="2.340366"/>
<trkpt lat="48.885806" lon="2.340621"/>
<trkpt lat="48.885802" lon="2.340635"/>
<trkpt lat="48.885795" lon="2.340680"/>
<trkpt lat="48.885762" lon="2.340794"/>
<trkpt lat="48.885459" lon="2.341825"/>
<trkpt lat="48.885416" lon="2.341977"/>
<trkpt lat="48.885707" lon="2.342073"/>
<trkpt lat="48.885696" lon="2.342155"/>
<trkpt lat="48.885700" lon="2.342209"/>
<trkpt lat="48.885697" lon="2.342266"/>
<trkpt lat="48.885697" lon="2.342361"/>
<trkpt lat="48.885745" lon="2.342358"/>
<trkpt lat="48.885782" lon="2.342356"/>
<trkpt lat="48.885792" lon="2.342356"/>
<trkpt lat="48.885869" lon="2.342345"/>
<trkpt lat="48.885946" lon="2.342335"/>
<trkpt lat="48.885960" lon="2.342333"/>
<trkpt lat="48.886004" lon="2.342326"/>
<trkpt lat="48.886055" lon="2.342534"/>
<trkpt lat="48.886107" lon="2.342633"/>
<trkpt lat="48.886168" lon="2.342698"/>
<trkpt lat="48.886170" lon="2.342735"/>
<trkpt lat="48.886233" lon="2.342774"/>
<trkpt lat="48.886264" lon="2.342794"/>
<trkpt lat="48.886297" lon="2.342822"/>
<trkpt lat="48.886298" lon="2.342846"/>
<trkpt lat="48.886311" lon="2.343079"/>
<trkpt lat="48.886322" lon="2.343292"/>
<trkpt lat="48.886373" lon="2.343298"/>
<trkpt lat="48.886375" lon="2.343362"/>
<trkpt lat="48.886417" lon="2.343358"/>
<trkpt lat="48.886435" lon="2.343355"/>
<trkpt lat="48.886441" lon="2.343353"/>
<trkpt lat="48.886442" lon="2.343378"/>
<trkpt lat="48.886446" lon="2.343402"/>
<trkpt lat="48.886461" lon="2.343420"/>
<trkpt lat="48.886473" lon="2.343428"/>
<trkpt lat="48.886493" lon="2.343425"/>
<trkpt lat="48.886527" lon="2.343419"/>
<trkpt lat="48.886558" lon="2.343412"/>
<trkpt lat="48.886700" lon="2.343391"/>
</trkseg></trk>
<trk><name>Sacré-Cœur a Rue Saint-Vincent (647 m, 8.9 min)</name><trkseg>
<trkpt lat="48.886700" lon="2.343391"/>
<trkpt lat="48.886558" lon="2.343412"/>
<trkpt lat="48.886527" lon="2.343419"/>
<trkpt lat="48.886493" lon="2.343425"/>
<trkpt lat="48.886473" lon="2.343428"/>
<trkpt lat="48.886461" lon="2.343420"/>
<trkpt lat="48.886446" lon="2.343402"/>
<trkpt lat="48.886442" lon="2.343378"/>
<trkpt lat="48.886441" lon="2.343353"/>
<trkpt lat="48.886435" lon="2.343355"/>
<trkpt lat="48.886417" lon="2.343358"/>
<trkpt lat="48.886375" lon="2.343362"/>
<trkpt lat="48.886373" lon="2.343298"/>
<trkpt lat="48.886322" lon="2.343292"/>
<trkpt lat="48.886311" lon="2.343079"/>
<trkpt lat="48.886298" lon="2.342846"/>
<trkpt lat="48.886297" lon="2.342822"/>
<trkpt lat="48.886264" lon="2.342794"/>
<trkpt lat="48.886233" lon="2.342774"/>
<trkpt lat="48.886170" lon="2.342735"/>
<trkpt lat="48.886168" lon="2.342698"/>
<trkpt lat="48.886107" lon="2.342633"/>
<trkpt lat="48.886055" lon="2.342534"/>
<trkpt lat="48.886092" lon="2.342513"/>
<trkpt lat="48.886105" lon="2.342505"/>
<trkpt lat="48.886131" lon="2.342569"/>
<trkpt lat="48.886157" lon="2.342568"/>
<trkpt lat="48.886302" lon="2.342551"/>
<trkpt lat="48.886429" lon="2.342537"/>
<trkpt lat="48.886650" lon="2.342511"/>
<trkpt lat="48.886778" lon="2.342491"/>
<trkpt lat="48.886900" lon="2.342478"/>
<trkpt lat="48.886970" lon="2.342467"/>
<trkpt lat="48.886983" lon="2.342414"/>
<trkpt lat="48.886984" lon="2.342388"/>
<trkpt lat="48.886990" lon="2.342261"/>
<trkpt lat="48.887013" lon="2.342128"/>
<trkpt lat="48.887045" lon="2.342005"/>
<trkpt lat="48.887072" lon="2.341822"/>
<trkpt lat="48.887087" lon="2.341698"/>
<trkpt lat="48.887112" lon="2.341490"/>
<trkpt lat="48.887117" lon="2.341435"/>
<trkpt lat="48.887141" lon="2.341459"/>
<trkpt lat="48.887173" lon="2.341488"/>
<trkpt lat="48.887199" lon="2.341475"/>
<trkpt lat="48.887518" lon="2.341614"/>
<trkpt lat="48.887522" lon="2.341556"/>
<trkpt lat="48.887526" lon="2.341497"/>
<trkpt lat="48.887542" lon="2.341505"/>
<trkpt lat="48.887562" lon="2.341491"/>
<trkpt lat="48.887578" lon="2.341464"/>
<trkpt lat="48.887585" lon="2.341285"/>
<trkpt lat="48.887593" lon="2.341004"/>
<trkpt lat="48.887599" lon="2.340864"/>
<trkpt lat="48.887610" lon="2.340747"/>
<trkpt lat="48.887631" lon="2.340608"/>
<trkpt lat="48.887653" lon="2.340567"/>
<trkpt lat="48.887693" lon="2.340294"/>
<trkpt lat="48.887750" lon="2.339818"/>
<trkpt lat="48.887756" lon="2.339816"/>
<trkpt lat="48.887769" lon="2.339816"/>
<trkpt lat="48.887790" lon="2.339817"/>
<trkpt lat="48.887804" lon="2.339820"/>
<trkpt lat="48.887820" lon="2.339795"/>
<trkpt lat="48.887919" lon="2.339802"/>
<trkpt lat="48.887922" lon="2.339780"/>
<trkpt lat="48.887924" lon="2.339753"/>
<trkpt lat="48.887928" lon="2.339709"/>
<trkpt lat="48.887933" lon="2.339698"/>
<trkpt lat="48.888248" lon="2.339698"/>
<trkpt lat="48.888490" lon="2.339703"/>
<trkpt lat="48.888516" lon="2.339686"/>
<trkpt lat="48.888541" lon="2.339705"/>
<trkpt lat="48.888564" lon="2.339719"/>
<trkpt lat="48.888633" lon="2.339272"/>
<trkpt lat="48.888665" lon="2.339099"/>
<trkpt lat="48.888719" lon="2.338924"/>
</trkseg></trk>
<trk><name>Rue Saint-Vincent a Viña de Montmartre (221 m, 3.7 min)</name><trkseg>
<trkpt lat="48.888719" lon="2.338924"/>
<trkpt lat="48.888824" lon="2.338580"/>
<trkpt lat="48.888874" lon="2.338309"/>
<trkpt lat="48.888901" lon="2.338232"/>
<trkpt lat="48.888886" lon="2.338210"/>
<trkpt lat="48.888878" lon="2.338199"/>
<trkpt lat="48.888805" lon="2.338410"/>
<trkpt lat="48.888786" lon="2.338521"/>
<trkpt lat="48.888806" lon="2.338558"/>
<trkpt lat="48.888667" lon="2.338996"/>
<trkpt lat="48.888633" lon="2.339136"/>
<trkpt lat="48.888612" lon="2.339256"/>
<trkpt lat="48.888552" lon="2.339590"/>
<trkpt lat="48.888516" lon="2.339686"/>
<trkpt lat="48.888490" lon="2.339703"/>
<trkpt lat="48.888487" lon="2.339731"/>
<trkpt lat="48.888481" lon="2.339767"/>
<trkpt lat="48.888474" lon="2.339812"/>
<trkpt lat="48.888468" lon="2.339841"/>
<trkpt lat="48.888428" lon="2.339836"/>
<trkpt lat="48.888327" lon="2.339826"/>
<trkpt lat="48.888194" lon="2.339810"/>
<trkpt lat="48.888199" lon="2.339835"/>
</trkseg></trk>
<trk><name>Viña de Montmartre a Le Relais Gascon (672 m, 9.3 min)</name><trkseg>
<trkpt lat="48.888199" lon="2.339835"/>
<trkpt lat="48.888194" lon="2.339810"/>
<trkpt lat="48.888186" lon="2.339764"/>
<trkpt lat="48.887924" lon="2.339753"/>
<trkpt lat="48.887852" lon="2.339750"/>
<trkpt lat="48.887779" lon="2.339748"/>
<trkpt lat="48.887117" lon="2.339699"/>
<trkpt lat="48.887025" lon="2.339689"/>
<trkpt lat="48.887031" lon="2.339599"/>
<trkpt lat="48.887030" lon="2.339493"/>
<trkpt lat="48.887027" lon="2.339406"/>
<trkpt lat="48.886999" lon="2.339377"/>
<trkpt lat="48.886842" lon="2.339189"/>
<trkpt lat="48.886819" lon="2.339131"/>
<trkpt lat="48.886766" lon="2.338955"/>
<trkpt lat="48.886751" lon="2.338780"/>
<trkpt lat="48.886754" lon="2.338568"/>
<trkpt lat="48.886708" lon="2.338596"/>
<trkpt lat="48.886445" lon="2.338755"/>
<trkpt lat="48.886339" lon="2.338820"/>
<trkpt lat="48.886348" lon="2.338752"/>
<trkpt lat="48.886353" lon="2.338733"/>
<trkpt lat="48.886340" lon="2.338710"/>
<trkpt lat="48.886330" lon="2.338709"/>
<trkpt lat="48.886293" lon="2.338710"/>
<trkpt lat="48.886265" lon="2.338711"/>
<trkpt lat="48.886254" lon="2.338709"/>
<trkpt lat="48.886301" lon="2.338287"/>
<trkpt lat="48.886295" lon="2.338236"/>
<trkpt lat="48.886282" lon="2.338198"/>
<trkpt lat="48.886243" lon="2.338133"/>
<trkpt lat="48.886198" lon="2.338061"/>
<trkpt lat="48.886177" lon="2.338038"/>
<trkpt lat="48.886145" lon="2.338046"/>
<trkpt lat="48.886122" lon="2.338088"/>
<trkpt lat="48.886113" lon="2.338112"/>
<trkpt lat="48.886087" lon="2.338098"/>
<trkpt lat="48.886065" lon="2.338084"/>
<trkpt lat="48.886065" lon="2.338068"/>
<trkpt lat="48.886048" lon="2.338020"/>
<trkpt lat="48.886027" lon="2.338012"/>
<trkpt lat="48.885947" lon="2.338035"/>
<trkpt lat="48.885838" lon="2.338056"/>
<trkpt lat="48.885730" lon="2.338076"/>
<trkpt lat="48.885710" lon="2.338078"/>
<trkpt lat="48.885694" lon="2.338080"/>
<trkpt lat="48.885681" lon="2.338071"/>
<trkpt lat="48.885669" lon="2.338065"/>
<trkpt lat="48.885652" lon="2.338056"/>
<trkpt lat="48.885646" lon="2.338053"/>
<trkpt lat="48.885636" lon="2.338031"/>
<trkpt lat="48.885029" lon="2.337632"/>
<trkpt lat="48.885007" lon="2.337624"/>
<trkpt lat="48.884945" lon="2.337684"/>
<trkpt lat="48.884833" lon="2.337794"/>
<trkpt lat="48.884751" lon="2.337883"/>
<trkpt lat="48.884736" lon="2.337854"/>
<trkpt lat="48.884715" lon="2.337814"/>
<trkpt lat="48.884677" lon="2.337864"/>
<trkpt lat="48.884524" lon="2.338081"/>
<trkpt lat="48.884423" lon="2.338218"/>
<trkpt lat="48.884312" lon="2.338370"/>
<trkpt lat="48.884132" lon="2.338656"/>
<trkpt lat="48.884094" lon="2.338754"/>
<trkpt lat="48.883991" lon="2.339000"/>
<trkpt lat="48.884016" lon="2.339021"/>
<trkpt lat="48.884028" lon="2.339034"/>
<trkpt lat="48.883982" lon="2.339151"/>
</trkseg></trk>
<trk><name>Le Relais Gascon a Abbesses (116 m, 2.1 min)</name><trkseg>
<trkpt lat="48.883982" lon="2.339151"/>
<trkpt lat="48.884028" lon="2.339034"/>
<trkpt lat="48.884106" lon="2.338839"/>
<trkpt lat="48.884129" lon="2.338790"/>
<trkpt lat="48.884140" lon="2.338780"/>
<trkpt lat="48.884168" lon="2.338774"/>
<trkpt lat="48.884202" lon="2.338777"/>
<trkpt lat="48.884254" lon="2.338791"/>
<trkpt lat="48.884268" lon="2.338780"/>
<trkpt lat="48.884302" lon="2.338796"/>
<trkpt lat="48.884321" lon="2.338806"/>
<trkpt lat="48.884334" lon="2.338812"/>
<trkpt lat="48.884363" lon="2.338798"/>
<trkpt lat="48.884364" lon="2.338788"/>
<trkpt lat="48.884371" lon="2.338753"/>
<trkpt lat="48.884378" lon="2.338714"/>
<trkpt lat="48.884383" lon="2.338687"/>
<trkpt lat="48.884386" lon="2.338670"/>
<trkpt lat="48.884491" lon="2.338711"/>
<trkpt lat="48.884514" lon="2.338684"/>
<trkpt lat="48.884543" lon="2.338653"/>
<trkpt lat="48.884559" lon="2.338644"/>
<trkpt lat="48.884565" lon="2.338642"/>
<trkpt lat="48.884595" lon="2.338634"/>
<trkpt lat="48.884623" lon="2.338625"/>
<trkpt lat="48.884658" lon="2.338612"/>
<trkpt lat="48.884668" lon="2.338587"/>
<trkpt lat="48.884675" lon="2.338580"/>
<trkpt lat="48.884781" lon="2.338646"/>
</trkseg></trk>
</gpx>