<?xml version="1.0" encoding="UTF-8"?>
<kml xmlns="http://www.opengis.net/kml/2.2"><Document>
<name>Paris 1-5 septiembre 2026</name>
<Folder><name>2026-09-01 · La orilla izquierda y la Torre Eiffel al atardecer</name>
<Placemark><name>14:30 Gare Montparnasse</name><description>Taquilla para los Navigo. Si compráis Découverte, llevad las fotos de carnet hechas de casa.</description><Point><coordinates>2.319109,48.840062,0</coordinates></Point></Placemark>
<Placemark><name>15:00 Hôtel Sanso</name><description>Al hotel, dejar maletas</description><Point><coordinates>2.374812,48.82935,0</coordinates></Point></Placemark>
<Placemark><name>16:30 Saint-Germain-des-Prés</name><description>Abre de 10:00 a 20:00, gratis. La iglesia más antigua de París, con campanario románico del siglo XI. Dentro, la tumba de Descartes, incompleta: el cráneo está en el Musée de l&#x27;Homme.</description><Point><coordinates>2.334518,48.853968,0</coordinates></Point></Placemark>
<Placemark><name>17:15 Les Deux Magots</name><description>Se ven desde fuera. No hace falta pagar seis euros por un café.</description><Point><coordinates>2.333063,48.854069,0</coordinates></Point></Placemark>
<Placemark><name>17:30 Le Bon Marché</name><description>Abre hasta las 19:45. Primer gran almacén moderno del mundo, 1852, el de Au Bonheur des Dames de Zola. Las escaleras mecánicas cruzadas del atrio. Al lado, en el 38, la Grande Épicerie.</description><Point><coordinates>2.324394,48.851183,0</coordinates></Point></Placemark>
<Placemark><name>18:45 La Grande Épicerie de Paris</name><description>Por la rue du Bac o la rue de Sèvres. De pie y ligero: hoy se cena a las diez y cuarto.</description><Point><coordinates>2.323297,48.849972,0</coordinates></Point></Placemark>
<Placemark><name>19:20 Torre Eiffel</name><description>Contad 15 o 20 minutos de control. Entrada de escaleras, 14,80 € adultos y tarifa joven de 12 a 24 años.</description><Point><coordinates>2.294501,48.85826,0</coordinates></Point></Placemark>
<Placemark><name>22:00 Champ de Mars</name><description>Cinco minutos al principio de cada hora desde que anochece. Hay que estar fuera: el Champ de Mars a los pies, o el Trocadéro cruzando el Pont d&#x27;Iéna, que es la postal con gente.</description><Point><coordinates>2.29782,48.856145,0</coordinates></Point></Placemark>
<Placemark><name>22:15 Rue Saint-Dominique</name><description>Rue Saint-Dominique o rue Cler, quince minutos andando. Elegid una que anuncie service continu: a esa hora muchas cocinas de barrio han cerrado.</description><Point><coordinates>2.301954,48.85831,0</coordinates></Point></Placemark>
<Placemark><name>A pie: Saint-Germain-des-Prés a Les Deux Magots</name><LineString><tessellate>1</tessellate><coordinates>2.334614,48.853733,0 2.334562,48.853724,0 2.334539,48.853697,0 2.334329,48.853740,0 2.334307,48.853702,0 2.334295,48.853680,0 2.333767,48.853806,0 2.333633,48.853838,0 2.333614,48.853841,0 2.333579,48.853846,0 2.333515,48.853888,0 2.333464,48.853897,0 2.333392,48.853913,0 2.333326,48.853926,0 2.333163,48.853939,0 2.333201,48.854048,0</coordinates></LineString></Placemark>
<Placemark><name>A pie: Les Deux Magots a Le Bon Marché</name><LineString><tessellate>1</tessellate><coordinates>2.333201,48.854048,0 2.333163,48.853939,0 2.333150,48.853914,0 2.333126,48.853849,0 2.333070,48.853751,0 2.333044,48.853739,0 2.333038,48.853737,0 2.333010,48.853724,0 2.332930,48.853699,0 2.332871,48.853685,0 2.332856,48.853681,0 2.332853,48.853638,0 2.332776,48.853552,0 2.332474,48.853222,0 2.332463,48.853210,0 2.332442,48.853185,0 2.332408,48.853140,0 2.332388,48.853130,0 2.332369,48.853105,0 2.331887,48.852582,0 2.331823,48.852512,0 2.331775,48.852482,0 2.331717,48.852493,0 2.331695,48.852489,0 2.331657,48.852476,0 2.331601,48.852464,0 2.331577,48.852461,0 2.331565,48.852443,0 2.330329,48.852237,0 2.330182,48.852231,0 2.330103,48.852241,0 2.330068,48.852234,0 2.329996,48.852227,0 2.329914,48.852219,0 2.329897,48.852226,0 2.329793,48.852205,0 2.329643,48.852119,0 2.328793,48.851968,0 2.328735,48.851973,0 2.328684,48.851965,0 2.328618,48.851957,0 2.328585,48.851953,0 2.328563,48.851952,0 2.328458,48.851911,0 2.327895,48.851818,0 2.327570,48.851788,0 2.327247,48.851790,0 2.327135,48.851789,0 2.327135,48.851776,0 2.326993,48.851770,0 2.326932,48.851806,0 2.326908,48.851807,0 2.326835,48.851806,0 2.326760,48.851806,0 2.326741,48.851805,0 2.326681,48.851805,0 2.326598,48.851806,0 2.326580,48.851806,0 2.326547,48.851788,0 2.325287,48.851760,0 2.325023,48.851754,0 2.324974,48.851753,0 2.324932,48.851752,0 2.324730,48.851749,0 2.324733,48.851729,0 2.324732,48.851712,0 2.324732,48.851679,0 2.324732,48.851668,0 2.323692,48.851648,0 2.323658,48.851628,0 2.323656,48.851582,0 2.323865,48.851086,0</coordinates></LineString></Placemark>
<Placemark><name>A pie: Le Bon Marché a La Grande Épicerie de Paris</name><LineString><tessellate>1</tessellate><coordinates>2.323865,48.851086,0 2.324040,48.850672,0 2.324177,48.850352,0 2.324170,48.850350,0 2.324103,48.850328,0 2.324059,48.850314,0 2.324030,48.850304,0 2.323977,48.850261,0 2.323832,48.850195,0 2.323667,48.850116,0 2.323326,48.849947,0</coordinates></LineString></Placemark>
<Placemark><name>A pie: La Motte-Picquet-Grenelle a Torre Eiffel</name><LineString><tessellate>1</tessellate><coordinates>2.298263,48.849286,0 2.298404,48.849438,0 2.298510,48.849511,0 2.298537,48.849530,0 2.298441,48.849595,0 2.298458,48.849606,0 2.298479,48.849620,0 2.297587,48.850201,0 2.297551,48.850258,0 2.297542,48.850281,0 2.297489,48.850317,0 2.297451,48.850342,0 2.297444,48.850353,0 2.297417,48.850352,0 2.297101,48.850669,0 2.297096,48.850673,0 2.297087,48.850732,0 2.297130,48.850833,0 2.297075,48.850927,0 2.296899,48.851049,0 2.296586,48.851234,0 2.296548,48.851277,0 2.296519,48.851291,0 2.296500,48.851303,0 2.296488,48.851311,0 2.296475,48.851318,0 2.296464,48.851358,0 2.296239,48.851505,0 2.296046,48.851633,0 2.295982,48.851653,0 2.295957,48.851667,0 2.295924,48.851693,0 2.295894,48.851717,0 2.295875,48.851729,0 2.295914,48.851745,0 2.296242,48.851964,0 2.296289,48.852003,0 2.296374,48.852123,0 2.296426,48.852203,0 2.296517,48.852320,0 2.296936,48.852905,0 2.296972,48.852954,0 2.296951,48.852992,0 2.296959,48.853003,0 2.296974,48.853030,0 2.296985,48.853050,0 2.297002,48.853078,0 2.297063,48.853097,0 2.297071,48.853099,0 2.297225,48.853310,0 2.297239,48.853376,0 2.297185,48.853416,0 2.297221,48.853441,0 2.297293,48.853484,0 2.297339,48.853514,0 2.297380,48.853533,0 2.297102,48.853724,0 2.297084,48.853736,0 2.297047,48.853760,0 2.297014,48.853788,0 2.297003,48.853800,0 2.296951,48.853797,0 2.296026,48.854416,0 2.296041,48.854450,0 2.295992,48.854472,0 2.295891,48.854541,0 2.295819,48.854590,0 2.295804,48.854638,0 2.295719,48.854678,0 2.295650,48.854723,0 2.295684,48.854905,0 2.295738,48.855177,0 2.295760,48.855271,0 2.295791,48.855371,0 2.295941,48.855826,0 2.295161,48.856332,0 2.294470,48.856778,0 2.294159,48.856976,0 2.294117,48.857000,0 2.294060,48.857032,0 2.293996,48.857069,0 2.293961,48.857089,0 2.293923,48.857112,0 2.293785,48.857177,0 2.293571,48.857220,0 2.293390,48.857259,0 2.293281,48.857298,0 2.293355,48.857333,0 2.293494,48.857351,0 2.293576,48.857367,0 2.293658,48.857391,0 2.293865,48.857433,0 2.294016,48.857470,0 2.294134,48.857538,0 2.294187,48.857591,0 2.294239,48.857673,0 2.294262,48.857772,0 2.294225,48.857994,0 2.294232,48.858130,0 2.294462,48.858285,0</coordinates></LineString></Placemark>
<Placemark><name>A pie: Torre Eiffel a Champ de Mars</name><LineString><tessellate>1</tessellate><coordinates>2.294462,48.858285,0 2.294232,48.858130,0 2.294146,48.858045,0 2.294008,48.857993,0 2.293757,48.858031,0 2.293598,48.858042,0 2.293238,48.858054,0 2.293115,48.858052,0 2.292931,48.858030,0 2.292781,48.857987,0 2.292744,48.857969,0 2.292690,48.857941,0 2.292654,48.857924,0 2.292734,48.857829,0 2.292781,48.857741,0 2.292818,48.857672,0 2.292897,48.857565,0 2.292919,48.857544,0 2.292980,48.857486,0 2.293081,48.857411,0 2.293211,48.857334,0 2.293281,48.857298,0 2.293390,48.857259,0 2.293571,48.857220,0 2.293785,48.857177,0 2.293923,48.857112,0 2.293961,48.857089,0 2.293996,48.857069,0 2.294060,48.857032,0 2.294117,48.857000,0 2.294159,48.856976,0 2.294232,48.857026,0 2.294379,48.857128,0 2.294594,48.857181,0 2.294706,48.857207,0 2.294733,48.857209,0 2.294842,48.857216,0 2.294927,48.857211,0 2.295033,48.857187,0 2.295186,48.857143,0 2.295323,48.857115,0 2.295408,48.857118,0 2.295450,48.857121,0 2.295505,48.857136,0 2.295655,48.857235,0 2.295838,48.857118,0 2.296336,48.856801,0 2.296527,48.856687,0 2.296706,48.856575,0 2.296888,48.856457,0 2.297266,48.856223,0 2.297360,48.856151,0 2.297327,48.856095,0 2.297296,48.856022,0 2.297393,48.855977,0 2.297419,48.856031,0 2.297461,48.856095,0 2.297522,48.856162,0 2.297622,48.856235,0 2.297660,48.856258,0</coordinates></LineString></Placemark>
<Placemark><name>A pie: Champ de Mars a Trocadéro</name><LineString><tessellate>1</tessellate><coordinates>2.297660,48.856258,0 2.297622,48.856235,0 2.297522,48.856162,0 2.297461,48.856095,0 2.297419,48.856031,0 2.297393,48.855977,0 2.297296,48.856022,0 2.297327,48.856095,0 2.297360,48.856151,0 2.297266,48.856223,0 2.296888,48.856457,0 2.296706,48.856575,0 2.296527,48.856687,0 2.296336,48.856801,0 2.295838,48.857118,0 2.295655,48.857235,0 2.295505,48.857136,0 2.295450,48.857121,0 2.295408,48.857118,0 2.295323,48.857115,0 2.295186,48.857143,0 2.295033,48.857187,0 2.294927,48.857211,0 2.294842,48.857216,0 2.294733,48.857209,0 2.294706,48.857207,0 2.294594,48.857181,0 2.294379,48.857128,0 2.294232,48.857026,0 2.294159,48.856976,0 2.294117,48.857000,0 2.294060,48.857032,0 2.293996,48.857069,0 2.293961,48.857089,0 2.293923,48.857112,0 2.293785,48.857177,0 2.293571,48.857220,0 2.293390,48.857259,0 2.293281,48.857298,0 2.293211,48.857334,0 2.293081,48.857411,0 2.292980,48.857486,0 2.292919,48.857544,0 2.292897,48.857565,0 2.292818,48.857672,0 2.292781,48.857741,0 2.292734,48.857829,0 2.292654,48.857924,0 2.292409,48.858081,0 2.292372,48.858109,0 2.292238,48.858185,0 2.293124,48.858793,0 2.293150,48.858812,0 2.293173,48.858827,0 2.293121,48.858860,0 2.293072,48.858879,0 2.293022,48.858886,0 2.292948,48.858895,0 2.292922,48.858901,0 2.292904,48.858973,0 2.292765,48.859060,0 2.292787,48.859116,0 2.292760,48.859179,0 2.292693,48.859225,0 2.292486,48.859367,0 2.291212,48.860195,0 2.291186,48.860213,0 2.291166,48.860227,0 2.291188,48.860245,0 2.291216,48.860265,0 2.291296,48.860322,0 2.291364,48.860372,0 2.291391,48.860392,0 2.291425,48.860409,0 2.291738,48.860656,0 2.291697,48.860684,0 2.291659,48.860706,0 2.291630,48.860724,0 2.291618,48.860772,0 2.291648,48.860799,0 2.291671,48.860818,0 2.291695,48.860839,0 2.291619,48.860884,0 2.291614,48.860909,0 2.291627,48.860937,0 2.291605,48.860951,0 2.291564,48.860975,0 2.291559,48.860983,0 2.291559,48.860995,0 2.291577,48.861029,0 2.291602,48.861063,0 2.291498,48.861089,0 2.291413,48.861112,0 2.291336,48.861133,0 2.291316,48.861137,0 2.291324,48.861204,0 2.291292,48.861224,0 2.291255,48.861248,0 2.291239,48.861258,0 2.291212,48.861276,0 2.291192,48.861288,0 2.291147,48.861317,0 2.290953,48.861443,0 2.290711,48.861598,0 2.290657,48.861633,0 2.290369,48.861817,0 2.290307,48.861857,0 2.290075,48.862007,0 2.289970,48.862074,0 2.289786,48.862193,0 2.289529,48.862358,0 2.289439,48.862296,0 2.289421,48.862284,0 2.289368,48.862248,0 2.289305,48.862205,0 2.289247,48.862242,0 2.289103,48.862332,0 2.289080,48.862411,0 2.289039,48.862412,0 2.288962,48.862364,0 2.288893,48.862293,0 2.288862,48.862200,0 2.288714,48.862142,0 2.288540,48.862113,0 2.288507,48.862104,0 2.288057,48.862392,0 2.287873,48.862517,0 2.287707,48.862630,0 2.288235,48.862991,0 2.288222,48.863009,0 2.288159,48.863112,0 2.288134,48.863154,0 2.288101,48.863191,0 2.288047,48.863179,0 2.288007,48.863170,0 2.287863,48.863138,0 2.287727,48.863108,0 2.287688,48.863103,0 2.287694,48.863078,0 2.287682,48.863042,0 2.287432,48.862873,0 2.287316,48.862794,0 2.287239,48.862845,0 2.287223,48.862855,0 2.287206,48.862871,0</coordinates></LineString></Placemark>
<Placemark><name>A pie: Champ de Mars a Rue Saint-Dominique</name><LineString><tessellate>1</tessellate><coordinates>2.297660,48.856258,0 2.297769,48.856325,0 2.297864,48.856365,0 2.297961,48.856396,0 2.298056,48.856418,0 2.298006,48.856468,0 2.297984,48.856486,0 2.298064,48.856505,0 2.298130,48.856527,0 2.298186,48.856553,0 2.298231,48.856582,0 2.298592,48.856827,0 2.298642,48.856861,0 2.298834,48.856990,0 2.299265,48.857287,0 2.299368,48.857357,0 2.299613,48.857537,0 2.299602,48.857562,0 2.299588,48.857593,0 2.299937,48.857643,0 2.300131,48.857658,0 2.300393,48.857739,0 2.300430,48.857754,0 2.301348,48.858092,0 2.301363,48.858098,0 2.301447,48.858129,0 2.301938,48.858304,0</coordinates></LineString></Placemark>
<Placemark><name>A pie: Rue Saint-Dominique a RER Champ de Mars-Tour Eiffel</name><LineString><tessellate>1</tessellate><coordinates>2.301938,48.858304,0 2.301447,48.858129,0 2.301363,48.858098,0 2.301348,48.858092,0 2.301323,48.858117,0 2.301314,48.858127,0 2.300631,48.857880,0 2.300394,48.857794,0 2.300343,48.857816,0 2.300310,48.857812,0 2.300196,48.857831,0 2.300130,48.857842,0 2.300106,48.857846,0 2.299989,48.857829,0 2.299963,48.857813,0 2.299926,48.857789,0 2.299920,48.857786,0 2.299910,48.857780,0 2.299861,48.857749,0 2.299821,48.857725,0 2.298564,48.858525,0 2.298552,48.858542,0 2.298542,48.858555,0 2.298487,48.858589,0 2.298444,48.858616,0 2.298426,48.858628,0 2.298407,48.858640,0 2.297767,48.859041,0 2.297485,48.859224,0 2.297467,48.859235,0 2.297376,48.859294,0 2.297314,48.859334,0 2.297288,48.859351,0 2.296768,48.858995,0 2.296730,48.859020,0 2.295976,48.859509,0 2.295947,48.859490,0 2.295862,48.859527,0 2.295745,48.859574,0 2.295634,48.859614,0 2.295435,48.859658,0 2.295179,48.859705,0 2.294762,48.859757,0 2.294681,48.859698,0 2.293727,48.859047,0 2.293686,48.859078,0 2.293607,48.859127,0 2.293554,48.859159,0 2.293518,48.859186,0 2.293483,48.859207,0 2.293392,48.859261,0 2.293356,48.859287,0 2.293325,48.859264,0 2.293274,48.859229,0 2.293169,48.859154,0 2.293144,48.859137,0 2.293115,48.859116,0 2.293002,48.859040,0 2.292956,48.859004,0 2.292904,48.858973,0 2.292765,48.859060,0 2.292691,48.859106,0 2.292433,48.858916,0 2.292373,48.858873,0 2.292132,48.858748,0 2.291280,48.858148,0 2.290787,48.857801,0 2.290543,48.857632,0 2.290314,48.857474,0 2.290034,48.857210,0 2.289824,48.856918,0 2.289708,48.856720,0</coordinates></LineString></Placemark>
</Folder>
<Folder><name>2026-09-02 · Versalles por la mañana, Montmartre por la tarde</name>
<Placemark><name>08:00 Versailles Château Rive Gauche</name><description>Cincuenta minutos sin transbordo. Comprobad en el panel que el tren lleva destino Versailles Château: esa rama lleva códigos que empiezan por VICK.</description><Point><coordinates>2.128916,48.800297,0</coordinates></Point></Placemark>
<Placemark><name>09:00 Palacio de Versalles</name><description>Abre a las 9:00 y cierra los lunes. Ir a la apertura es la única manera de ver los Grandes Apartamentos sin ir en fila india. Capilla real, salones de los planetas, Galería de los Espejos, aposentos del rey y de la reina.</description><Point><coordinates>2.120285,48.804425,0</coordinates></Point></Placemark>
<Placemark><name>11:45 Jardines de Versalles</name><description>Miércoles de Jardines Musicales, de 9:00 a 19:00, con los bosquetes abiertos. La Sala de Baile, los Baños de Apolo y la Columnata solo se pueden ver estos días. Hasta el Gran Canal y vuelta son cinco kilómetros y no hay sombra en el eje central.</description><Point><coordinates>2.119216,48.805094,0</coordinates></Point></Placemark>
<Placemark><name>14:30 Place Blanche</name><description>El Trianon queda pagado con vuestra entrada pero no entra en el plan: añade tres horas y llegaríais al tour con trece kilómetros en las piernas.</description><Point><coordinates>2.332696,48.883723,0</coordinates></Point></Placemark>
<Placemark><name>15:45 Bouillon Pigalle</name><description>A esa hora casi todas las cocinas de París han cerrado. Bouillon Pigalle sirve de 12:00 a 00:00 sin parar: cocina francesa clásica a precio de bouillon. No reservan, pero a media tarde no hay cola.</description><Point><coordinates>2.337414,48.882619,0</coordinates></Point></Placemark>
<Placemark><name>19:45 Sacré-Cœur</name><description>Abierto hasta las 22:30 y gratis. A esta hora no hay cola, cuando entre las 10:30 y las 17:00 hay diez o quince minutos. El sol se pone hacia las 20:30 por la derecha del encuadre. Prohibido fotografiar dentro. La cúpula ya está cerrada.</description><Point><coordinates>2.343015,48.886806,0</coordinates></Point></Placemark>
<Placemark><name>21:00 Le Relais Gascon</name><description>Le Relais Gascon, ensaladas enormes con patatas al ajo, de 11:00 a 00:00 sin cortes. Chez Marie cierra a las 23:00, así que si vais allí sentaos antes de las 21:30. Cuidado: Au Virage Lepic y La Belle Maison libran los miércoles.</description><Point><coordinates>2.339171,48.884004,0</coordinates></Point></Placemark>
<Placemark><name>22:30 Hôtel Sanso</name><description>Si queréis ver el Moulin Rouge encendido, está diez minutos cuesta abajo por la rue Lepic.</description><Point><coordinates>2.374812,48.82935,0</coordinates></Point></Placemark>
<Placemark><name>A pie: Versailles Château Rive Gauche a Palacio de Versalles</name><LineString><tessellate>1</tessellate><coordinates>2.128946,48.800308,0 2.128836,48.800339,0 2.128885,48.800415,0 2.128911,48.800455,0 2.128916,48.800462,0 2.128940,48.800500,0 2.128944,48.800507,0 2.128918,48.800514,0 2.128816,48.800523,0 2.128764,48.800538,0 2.128591,48.800583,0 2.128722,48.800755,0 2.128775,48.800824,0 2.128800,48.800857,0 2.128972,48.801156,0 2.129415,48.801858,0 2.129455,48.801955,0 2.129046,48.802058,0 2.128694,48.802153,0 2.128637,48.802168,0 2.128206,48.802285,0 2.127936,48.802359,0 2.127680,48.802422,0 2.127646,48.802428,0 2.126335,48.802802,0 2.126294,48.802813,0 2.126193,48.802843,0 2.126237,48.802908,0 2.126262,48.802946,0 2.126299,48.802999,0 2.126213,48.803023,0 2.124540,48.803665,0 2.124334,48.803745,0 2.124223,48.803773,0 2.123195,48.804037,0 2.122770,48.803985,0 2.122095,48.803884,0 2.121938,48.803838,0 2.121809,48.803871,0 2.121780,48.803878,0 2.121198,48.804028,0 2.121020,48.804072,0 2.120743,48.803967,0 2.119698,48.804252,0 2.119827,48.804454,0 2.119840,48.804478,0 2.119875,48.804534,0</coordinates></LineString></Placemark>
<Placemark><name>A pie: Palacio de Versalles a Jardines de Versalles</name><LineString><tessellate>1</tessellate><coordinates>2.119875,48.804534,0 2.119950,48.804657,0 2.119823,48.804691,0 2.119787,48.804701,0 2.119721,48.804717,0 2.119858,48.804941,0 2.119219,48.805099,0</coordinates></LineString></Placemark>
<Placemark><name>A pie: Jardines de Versalles a Gran Canal de Versalles</name><LineString><tessellate>1</tessellate><coordinates>2.119219,48.805099,0 2.118520,48.805271,0 2.118442,48.805148,0 2.118398,48.805079,0 2.118270,48.805054,0 2.118170,48.805037,0 2.116989,48.804776,0 2.116008,48.805042,0 2.115814,48.805041,0 2.115794,48.805046,0 2.115623,48.805091,0 2.115126,48.805216,0 2.115098,48.805224,0 2.114647,48.805106,0 2.114194,48.804970,0 2.113505,48.805153,0 2.112920,48.804994,0 2.112861,48.804986,0 2.112838,48.805013,0 2.112805,48.805035,0 2.112765,48.805051,0 2.112709,48.805060,0 2.112651,48.805059,0 2.112597,48.805045,0 2.112555,48.805087,0 2.112408,48.805244,0 2.112023,48.805712,0 2.111608,48.806222,0 2.111225,48.806730,0 2.111190,48.806714,0 2.111135,48.806688,0 2.111045,48.806655,0 2.110975,48.806633,0 2.110912,48.806618,0 2.110859,48.806611,0 2.110804,48.806603,0 2.110779,48.806600,0 2.110754,48.806596,0 2.110717,48.806591,0 2.110636,48.806585,0 2.110583,48.806582,0 2.110504,48.806587,0 2.110426,48.806598,0 2.110407,48.806602,0 2.110352,48.806615,0 2.110018,48.806736,0 2.110035,48.806765,0 2.108586,48.807110,0 2.108493,48.807132,0 2.108416,48.807187,0 2.108322,48.807215,0 2.108119,48.807212,0 2.107884,48.807192,0 2.107657,48.807235,0 2.107529,48.807296,0 2.107297,48.807419,0 2.107078,48.807571,0 2.106888,48.807734,0 2.106743,48.807804,0 2.105740,48.808068,0 2.101378,48.809223,0</coordinates></LineString></Placemark>
<Placemark><name>A pie: Jardines de Versalles a Versailles Château Rive Gauche</name><LineString><tessellate>1</tessellate><coordinates>2.119219,48.805099,0 2.119858,48.804941,0 2.119721,48.804717,0 2.119600,48.804519,0 2.119540,48.804420,0 2.119476,48.804314,0 2.119698,48.804252,0 2.120743,48.803967,0 2.121020,48.804072,0 2.121198,48.804028,0 2.121780,48.803878,0 2.121809,48.803871,0 2.121938,48.803838,0 2.122095,48.803884,0 2.122770,48.803985,0 2.123195,48.804037,0 2.124223,48.803773,0 2.124334,48.803745,0 2.124540,48.803665,0 2.126213,48.803023,0 2.126299,48.802999,0 2.126399,48.802971,0 2.126403,48.802951,0 2.127297,48.802703,0 2.127249,48.802627,0 2.127730,48.802492,0 2.129091,48.802124,0 2.129424,48.802045,0 2.129506,48.802035,0 2.129600,48.802009,0 2.129573,48.801968,0 2.129553,48.801938,0 2.129411,48.801705,0 2.128889,48.800855,0 2.128876,48.800755,0 2.128848,48.800705,0 2.128817,48.800645,0 2.128764,48.800538,0 2.128816,48.800523,0 2.128918,48.800514,0 2.128944,48.800507,0 2.128940,48.800500,0 2.128916,48.800462,0 2.128911,48.800455,0 2.128885,48.800415,0 2.128836,48.800339,0 2.128946,48.800308,0</coordinates></LineString></Placemark>
<Placemark><name>A pie: Place de Clichy a Bouillon Pigalle</name><LineString><tessellate>1</tessellate><coordinates>2.327339,48.883456,0 2.327378,48.883468,0 2.327405,48.883460,0 2.327434,48.883457,0 2.327462,48.883461,0 2.327488,48.883470,0 2.327508,48.883484,0 2.327521,48.883501,0 2.327525,48.883520,0 2.327520,48.883539,0 2.327559,48.883543,0 2.327637,48.883558,0 2.327726,48.883576,0 2.327748,48.883581,0 2.327800,48.883590,0 2.327790,48.883629,0 2.328072,48.883693,0 2.328382,48.883893,0 2.328436,48.883858,0 2.328442,48.883853,0 2.328497,48.883821,0 2.328577,48.883868,0 2.329360,48.884355,0 2.329450,48.884409,0 2.329555,48.884473,0 2.329607,48.884566,0 2.329653,48.884642,0 2.329827,48.884598,0 2.330467,48.884438,0 2.330544,48.884420,0 2.330897,48.884337,0 2.331396,48.884221,0 2.331826,48.884121,0 2.332234,48.884026,0 2.332344,48.883996,0 2.332790,48.883876,0 2.332959,48.883838,0 2.333293,48.883738,0 2.333445,48.883676,0 2.334187,48.883456,0 2.334198,48.883472,0 2.334213,48.883493,0 2.334246,48.883498,0 2.334263,48.883487,0 2.334313,48.883472,0 2.334365,48.883456,0 2.334405,48.883448,0 2.334654,48.883359,0 2.334795,48.883318,0 2.335086,48.883233,0 2.335447,48.883128,0 2.335829,48.883016,0 2.335865,48.882996,0 2.336135,48.882913,0 2.336168,48.882920,0 2.336173,48.882913,0 2.336204,48.882906,0 2.336249,48.882895,0 2.336258,48.882896,0 2.336886,48.882709,0 2.336900,48.882700,0 2.336926,48.882693,0 2.336957,48.882686,0 2.336966,48.882687,0 2.337039,48.882660,0 2.337085,48.882637,0 2.337182,48.882610,0 2.337224,48.882615,0 2.337227,48.882603,0 2.337256,48.882597,0 2.337291,48.882590,0 2.337307,48.882594,0 2.337322,48.882581,0 2.337395,48.882569,0</coordinates></LineString></Placemark>
<Placemark><name>A pie: Bouillon Pigalle a Place Blanche</name><LineString><tessellate>1</tessellate><coordinates>2.337395,48.882569,0 2.337322,48.882581,0 2.337307,48.882573,0 2.337288,48.882551,0 2.337226,48.882561,0 2.337012,48.882621,0 2.336905,48.882651,0 2.336177,48.882859,0 2.335423,48.883092,0 2.335061,48.883196,0 2.334286,48.883426,0 2.334187,48.883456,0 2.333445,48.883676,0 2.333293,48.883738,0 2.332959,48.883838,0 2.332790,48.883876,0 2.332766,48.883837,0 2.332748,48.883808,0 2.332735,48.883786,0 2.332715,48.883753,0 2.332676,48.883689,0</coordinates></LineString></Placemark>
<Placemark><name>A pie: Place Blanche a Sacré-Cœur</name><LineString><tessellate>1</tessellate><coordinates>2.332676,48.883689,0 2.332715,48.883753,0 2.332735,48.883786,0 2.332748,48.883808,0 2.332766,48.883837,0 2.332790,48.883876,0 2.332835,48.883922,0 2.332864,48.883911,0 2.332944,48.883953,0 2.333566,48.884570,0 2.333587,48.884568,0 2.333590,48.884585,0 2.333635,48.884625,0 2.333655,48.884643,0 2.333664,48.884649,0 2.333660,48.884656,0 2.333665,48.884675,0 2.333743,48.884751,0 2.333776,48.884784,0 2.334075,48.885075,0 2.334105,48.885073,0 2.334113,48.885079,0 2.334128,48.885094,0 2.334149,48.885116,0 2.334154,48.885122,0 2.334143,48.885139,0 2.334347,48.885337,0 2.334375,48.885339,0 2.334378,48.885343,0 2.334399,48.885365,0 2.334423,48.885394,0 2.334426,48.885398,0 2.334453,48.885438,0 2.334790,48.885761,0 2.334837,48.885762,0 2.334846,48.885784,0 2.334861,48.885806,0 2.334888,48.885843,0 2.334896,48.885854,0 2.334949,48.885830,0 2.334985,48.885832,0 2.334998,48.885826,0 2.335024,48.885816,0 2.335057,48.885803,0 2.335068,48.885800,0 2.335105,48.885779,0 2.335368,48.885708,0 2.335774,48.885591,0 2.335811,48.885594,0 2.335825,48.885588,0 2.335872,48.885575,0 2.335916,48.885563,0 2.335932,48.885563,0 2.335936,48.885582,0 2.336340,48.886152,0 2.336355,48.886172,0 2.336377,48.886175,0 2.336699,48.886031,0 2.336785,48.885933,0 2.336821,48.885941,0 2.336841,48.885943,0 2.336878,48.885945,0 2.336897,48.885943,0 2.336912,48.885948,0 2.337823,48.885701,0 2.337828,48.885709,0 2.337838,48.885726,0 2.337846,48.885739,0 2.337851,48.885748,0 2.337949,48.885725,0 2.338080,48.885694,0 2.338078,48.885710,0 2.338076,48.885730,0 2.338056,48.885838,0 2.338035,48.885947,0 2.338012,48.886027,0 2.338020,48.886048,0 2.338068,48.886065,0 2.338084,48.886065,0 2.338098,48.886087,0 2.338112,48.886113,0 2.338088,48.886122,0 2.338046,48.886145,0 2.338038,48.886177,0 2.338061,48.886198,0 2.338133,48.886243,0 2.338198,48.886282,0 2.338236,48.886295,0 2.338287,48.886301,0 2.338709,48.886254,0 2.338865,48.886236,0 2.338901,48.886229,0 2.338905,48.886237,0 2.338922,48.886262,0 2.338944,48.886292,0 2.338950,48.886300,0 2.339766,48.886060,0 2.339956,48.886003,0 2.339972,48.885994,0 2.340336,48.885888,0 2.340366,48.885880,0 2.340621,48.885806,0 2.340635,48.885802,0 2.340680,48.885795,0 2.340794,48.885762,0 2.341825,48.885459,0 2.341977,48.885416,0 2.342073,48.885707,0 2.342155,48.885696,0 2.342209,48.885700,0 2.342266,48.885697,0 2.342361,48.885697,0 2.342358,48.885745,0 2.342356,48.885782,0 2.342356,48.885792,0 2.342345,48.885869,0 2.342335,48.885946,0 2.342333,48.885960,0 2.342326,48.886004,0 2.342534,48.886055,0 2.342633,48.886107,0 2.342698,48.886168,0 2.342735,48.886170,0 2.342774,48.886233,0 2.342794,48.886264,0 2.342822,48.886297,0 2.342846,48.886298,0 2.343079,48.886311,0 2.343292,48.886322,0 2.343298,48.886373,0 2.343362,48.886375,0 2.343358,48.886417,0 2.343355,48.886435,0 2.343353,48.886441,0 2.343378,48.886442,0 2.343402,48.886446,0 2.343420,48.886461,0 2.343428,48.886473,0 2.343425,48.886493,0 2.343419,48.886527,0 2.343412,48.886558,0 2.343391,48.886700,0</coordinates></LineString></Placemark>
<Placemark><name>A pie: Sacré-Cœur a Rue Saint-Vincent</name><LineString><tessellate>1</tessellate><coordinates>2.343391,48.886700,0 2.343412,48.886558,0 2.343419,48.886527,0 2.343425,48.886493,0 2.343428,48.886473,0 2.343420,48.886461,0 2.343402,48.886446,0 2.343378,48.886442,0 2.343353,48.886441,0 2.343355,48.886435,0 2.343358,48.886417,0 2.343362,48.886375,0 2.343298,48.886373,0 2.343292,48.886322,0 2.343079,48.886311,0 2.342846,48.886298,0 2.342822,48.886297,0 2.342794,48.886264,0 2.342774,48.886233,0 2.342735,48.886170,0 2.342698,48.886168,0 2.342633,48.886107,0 2.342534,48.886055,0 2.342513,48.886092,0 2.342505,48.886105,0 2.342569,48.886131,0 2.342568,48.886157,0 2.342551,48.886302,0 2.342537,48.886429,0 2.342511,48.886650,0 2.342491,48.886778,0 2.342478,48.886900,0 2.342467,48.886970,0 2.342414,48.886983,0 2.342388,48.886984,0 2.342261,48.886990,0 2.342128,48.887013,0 2.342005,48.887045,0 2.341822,48.887072,0 2.341698,48.887087,0 2.341490,48.887112,0 2.341435,48.887117,0 2.341459,48.887141,0 2.341488,48.887173,0 2.341475,48.887199,0 2.341614,48.887518,0 2.341556,48.887522,0 2.341497,48.887526,0 2.341505,48.887542,0 2.341491,48.887562,0 2.341464,48.887578,0 2.341285,48.887585,0 2.341004,48.887593,0 2.340864,48.887599,0 2.340747,48.887610,0 2.340608,48.887631,0 2.340567,48.887653,0 2.340294,48.887693,0 2.339818,48.887750,0 2.339816,48.887756,0 2.339816,48.887769,0 2.339817,48.887790,0 2.339820,48.887804,0 2.339795,48.887820,0 2.339802,48.887919,0 2.339780,48.887922,0 2.339753,48.887924,0 2.339709,48.887928,0 2.339698,48.887933,0 2.339698,48.888248,0 2.339703,48.888490,0 2.339686,48.888516,0 2.339705,48.888541,0 2.339719,48.888564,0 2.339272,48.888633,0 2.339099,48.888665,0 2.338924,48.888719,0</coordinates></LineString></Placemark>
<Placemark><name>A pie: Rue Saint-Vincent a Viña de Montmartre</name><LineString><tessellate>1</tessellate><coordinates>2.338924,48.888719,0 2.338580,48.888824,0 2.338309,48.888874,0 2.338232,48.888901,0 2.338210,48.888886,0 2.338199,48.888878,0 2.338410,48.888805,0 2.338521,48.888786,0 2.338558,48.888806,0 2.338996,48.888667,0 2.339136,48.888633,0 2.339256,48.888612,0 2.339590,48.888552,0 2.339686,48.888516,0 2.339703,48.888490,0 2.339731,48.888487,0 2.339767,48.888481,0 2.339812,48.888474,0 2.339841,48.888468,0 2.339836,48.888428,0 2.339826,48.888327,0 2.339810,48.888194,0 2.339835,48.888199,0</coordinates></LineString></Placemark>
<Placemark><name>A pie: Viña de Montmartre a Le Relais Gascon</name><LineString><tessellate>1</tessellate><coordinates>2.339835,48.888199,0 2.339810,48.888194,0 2.339764,48.888186,0 2.339753,48.887924,0 2.339750,48.887852,0 2.339748,48.887779,0 2.339699,48.887117,0 2.339689,48.887025,0 2.339599,48.887031,0 2.339493,48.887030,0 2.339406,48.887027,0 2.339377,48.886999,0 2.339189,48.886842,0 2.339131,48.886819,0 2.338955,48.886766,0 2.338780,48.886751,0 2.338568,48.886754,0 2.338596,48.886708,0 2.338755,48.886445,0 2.338820,48.886339,0 2.338752,48.886348,0 2.338733,48.886353,0 2.338710,48.886340,0 2.338709,48.886330,0 2.338710,48.886293,0 2.338711,48.886265,0 2.338709,48.886254,0 2.338287,48.886301,0 2.338236,48.886295,0 2.338198,48.886282,0 2.338133,48.886243,0 2.338061,48.886198,0 2.338038,48.886177,0 2.338046,48.886145,0 2.338088,48.886122,0 2.338112,48.886113,0 2.338098,48.886087,0 2.338084,48.886065,0 2.338068,48.886065,0 2.338020,48.886048,0 2.338012,48.886027,0 2.338035,48.885947,0 2.338056,48.885838,0 2.338076,48.885730,0 2.338078,48.885710,0 2.338080,48.885694,0 2.338071,48.885681,0 2.338065,48.885669,0 2.338056,48.885652,0 2.338053,48.885646,0 2.338031,48.885636,0 2.337632,48.885029,0 2.337624,48.885007,0 2.337684,48.884945,0 2.337794,48.884833,0 2.337883,48.884751,0 2.337854,48.884736,0 2.337814,48.884715,0 2.337864,48.884677,0 2.338081,48.884524,0 2.338218,48.884423,0 2.338370,48.884312,0 2.338656,48.884132,0 2.338754,48.884094,0 2.339000,48.883991,0 2.339021,48.884016,0 2.339034,48.884028,0 2.339151,48.883982,0</coordinates></LineString></Placemark>
<Placemark><name>A pie: Le Relais Gascon a Abbesses</name><LineString><tessellate>1</tessellate><coordinates>2.339151,48.883982,0 2.339034,48.884028,0 2.338839,48.884106,0 2.338790,48.884129,0 2.338780,48.884140,0 2.338774,48.884168,0 2.338777,48.884202,0 2.338791,48.884254,0 2.338780,48.884268,0 2.338796,48.884302,0 2.338806,48.884321,0 2.338812,48.884334,0 2.338798,48.884363,0 2.338788,48.884364,0 2.338753,48.884371,0 2.338714,48.884378,0 2.338687,48.884383,0 2.338670,48.884386,0 2.338711,48.884491,0 2.338684,48.884514,0 2.338653,48.884543,0 2.338644,48.884559,0 2.338642,48.884565,0 2.338634,48.884595,0 2.338625,48.884623,0 2.338612,48.884658,0 2.338587,48.884668,0 2.338580,48.884675,0 2.338646,48.884781,0</coordinates></LineString></Placemark>
</Folder>
<Folder><name>2026-09-03 · La Cité, la Conciergerie, el Sena, el Panteón, Mouffetard y Orsay</name>
<Placemark><name>08:00 Notre-Dame de París</name><description>Abre a las 7:50 entre semana y la primera hora está prácticamente vacía. Gratis. La franja reservable se libera dos o tres días antes; sin reserva se entra por la cola de la izquierda. Volveréis a pasar por delante en el free tour.</description><Point><coordinates>2.35005,48.852937,0</coordinates></Point></Placemark>
<Placemark><name>09:00 Marché aux Fleurs</name><description>Funciona desde 1808 y es el último mercado de flores del centro de París. Gratis. A esta hora la luz entra de lado por los pabellones de cristal.</description><Point><coordinates>2.34766,48.855464,0</coordinates></Point></Placemark>
<Placemark><name>09:30 La Conciergerie</name><description>Entre 13 y 15 €, gratis para los dos chicos, con reserva de franja. La sala de los Hombres de Armas es la mayor sala gótica civil de Europa. Cocinas medievales, calabozos, capilla de los Girondinos y celda de María Antonieta. Entre 1792 y 1794 pasaron por aquí unas 2.700 personas camino de la guillotina.</description><Point><coordinates>2.346026,48.855949,0</coordinates></Point></Placemark>
<Placemark><name>10:30 Hôtel de Ville</name><description>Dos horas y tres cuartos por el centro histórico. Termina junto al Louvre hacia las 13:15.</description><Point><coordinates>2.352528,48.856426,0</coordinates></Point></Placemark>
<Placemark><name>13:20 Rue Sainte-Anne</name><description>La rue Sainte-Anne es la calle japonesa de París y sirve rápido y bien. La rue de Rivoli, al lado, es cara y mediocre. Cuarenta y cinco minutos, que a las 14:30 hay barco.</description><Point><coordinates>2.33557,48.866378,0</coordinates></Point></Placemark>
<Placemark><name>14:10 Square du Vert-Galant</name><description>Diez minutos andando. Si vais sobrados, la Galerie Vivienne y la Colbert quedan cinco minutos al norte; si el tour se ha retrasado, se dejan para el viernes por la mañana.</description><Point><coordinates>2.340328,48.857407,0</coordinates></Point></Placemark>
<Placemark><name>16:00 El Panteón</name><description>13 €, gratis para menores de 26 de la UE. Última entrada a las 17:45 y la cripta cierra a las 17:30. La nave es fría y vacía, neoclásico de manual; lo que engancha son la cripta, con Voltaire y Rousseau enfrentados, Victor Hugo, Zola, Jean Moulin y Marie Curie, y el péndulo de Foucault, en el sitio exacto donde en 1851 se demostró que la Tierra gira.</description><Point><coordinates>2.346051,48.846195,0</coordinates></Point></Placemark>
<Placemark><name>17:10 Saint-Étienne-du-Mont</name><description>Gratis, pegada al Panteón. Conserva el único jubé que queda en París y las tumbas de Pascal y Racine.</description><Point><coordinates>2.348017,48.84655,0</coordinates></Point></Placemark>
<Placemark><name>17:25 Rue Mouffetard</name><description>Calle de mercado desde época romana, sobre el trazado de la vía que salía de Lutecia hacia el sur. Au P&#x27;tit Grec, en el 68, hace crepes del tamaño de un antebrazo; uno entre dos aguanta hasta las diez. Suelen pedir efectivo.</description><Point><coordinates>2.349338,48.844078,0</coordinates></Point></Placemark>
<Placemark><name>18:05 Museo de Orsay</name><description>A Orsay</description><Point><coordinates>2.326585,48.859918,0</coordinates></Point></Placemark>
<Placemark><name>21:45 Saint-Germain-des-Prés</name><description>Saint-Germain está a tres minutos cruzando la rue de Lille y las cervecerías sirven pasadas las 22:00; vuelta en RER C desde Musée d&#x27;Orsay. La otra opción es volver a la Mouffetard, veinticinco minutos: Le Vieux Bistrot cierra a las 23:00 y La Crète a las 22:30, así que hay que ir directos.</description><Point><coordinates>2.334518,48.853968,0</coordinates></Point></Placemark>
<Placemark><name>A pie: Notre-Dame de París a Marché aux Fleurs</name><LineString><tessellate>1</tessellate><coordinates>2.349805,48.852739,0 2.349805,48.852739,0 2.348907,48.853021,0 2.348782,48.853060,0 2.348886,48.853204,0 2.349069,48.853457,0 2.348980,48.853485,0 2.347849,48.853842,0 2.347823,48.853849,0 2.347780,48.853830,0 2.347764,48.853835,0 2.347713,48.853851,0 2.347667,48.853866,0 2.347591,48.853892,0 2.347558,48.853907,0 2.347471,48.853978,0 2.347481,48.854009,0 2.347489,48.854038,0 2.347497,48.854062,0 2.347515,48.854109,0 2.347548,48.854174,0 2.347564,48.854205,0 2.347597,48.854260,0 2.347647,48.854342,0 2.347731,48.854440,0 2.347755,48.854481,0 2.348132,48.855134,0 2.348387,48.855574,0 2.348362,48.855580,0 2.348296,48.855596,0 2.348207,48.855620,0 2.348175,48.855629,0 2.348176,48.855644,0 2.348106,48.855664,0 2.347983,48.855695,0 2.347964,48.855700,0 2.347944,48.855705,0 2.347833,48.855735,0 2.347825,48.855722,0 2.347649,48.855427,0</coordinates></LineString></Placemark>
<Placemark><name>A pie: Marché aux Fleurs a La Conciergerie</name><LineString><tessellate>1</tessellate><coordinates>2.347649,48.855427,0 2.347825,48.855722,0 2.347833,48.855735,0 2.347761,48.855758,0 2.347729,48.855772,0 2.347713,48.855777,0 2.347692,48.855782,0 2.347663,48.855795,0 2.347563,48.855822,0 2.347478,48.855850,0 2.347432,48.855862,0 2.347386,48.855875,0 2.347027,48.855979,0 2.346628,48.856075,0 2.346597,48.856082,0 2.346530,48.856094,0 2.346462,48.856111,0 2.346379,48.856133,0 2.346344,48.856141,0 2.346284,48.856158,0 2.346141,48.855919,0</coordinates></LineString></Placemark>
<Placemark><name>A pie: La Conciergerie a Hôtel de Ville</name><LineString><tessellate>1</tessellate><coordinates>2.346141,48.855919,0 2.346284,48.856158,0 2.346344,48.856141,0 2.346379,48.856133,0 2.346462,48.856111,0 2.346530,48.856094,0 2.346597,48.856082,0 2.346628,48.856075,0 2.347027,48.855979,0 2.347386,48.855875,0 2.347432,48.855862,0 2.347478,48.855850,0 2.347563,48.855822,0 2.347663,48.855795,0 2.347692,48.855782,0 2.347713,48.855777,0 2.347729,48.855772,0 2.347761,48.855758,0 2.347833,48.855735,0 2.347944,48.855705,0 2.347964,48.855700,0 2.347983,48.855695,0 2.348106,48.855664,0 2.348176,48.855644,0 2.348175,48.855629,0 2.348207,48.855620,0 2.348296,48.855596,0 2.348362,48.855580,0 2.348387,48.855574,0 2.348415,48.855573,0 2.348908,48.855442,0 2.349639,48.855227,0 2.350135,48.855059,0 2.350142,48.855068,0 2.350169,48.855103,0 2.350200,48.855141,0 2.350212,48.855155,0 2.350223,48.855160,0 2.350261,48.855145,0 2.350309,48.855128,0 2.350352,48.855112,0 2.350396,48.855097,0 2.350409,48.855113,0 2.350892,48.855779,0 2.350995,48.855818,0 2.351063,48.855809,0 2.352212,48.855363,0 2.352345,48.855328,0 2.352350,48.855341,0 2.352379,48.855374,0 2.352431,48.855427,0 2.352441,48.855438,0 2.352461,48.855459,0 2.352484,48.855484,0 2.352498,48.855499,0 2.352832,48.855508,0 2.352910,48.855616,0 2.352919,48.855632,0 2.353061,48.855903,0 2.353089,48.855955,0 2.353098,48.855971,0 2.353006,48.855993,0 2.352940,48.856009,0 2.352480,48.856121,0 2.352372,48.856147,0</coordinates></LineString></Placemark>
<Placemark><name>A pie: Explanada del Louvre a Rue Sainte-Anne</name><LineString><tessellate>1</tessellate><coordinates>2.335989,48.860785,0 2.336343,48.860892,0 2.336477,48.860932,0 2.336511,48.860912,0 2.336586,48.860869,0 2.336637,48.860818,0 2.337126,48.860696,0 2.337254,48.860670,0 2.337288,48.860662,0 2.337378,48.860641,0 2.337512,48.860769,0 2.337581,48.860879,0 2.337608,48.861073,0 2.336231,48.861421,0 2.336188,48.861432,0 2.336110,48.861452,0 2.336145,48.861514,0 2.336154,48.861528,0 2.336202,48.861612,0 2.336212,48.861630,0 2.336236,48.861672,0 2.336258,48.861711,0 2.336287,48.861761,0 2.336357,48.861883,0 2.336539,48.862190,0 2.336552,48.862208,0 2.335892,48.862419,0 2.335567,48.862524,0 2.335341,48.862596,0 2.335321,48.862602,0 2.335272,48.862617,0 2.335238,48.862628,0 2.335209,48.862637,0 2.335180,48.862645,0 2.335151,48.862654,0 2.335129,48.862661,0 2.335096,48.862671,0 2.335064,48.862681,0 2.335029,48.862691,0 2.334986,48.862704,0 2.334920,48.862725,0 2.334936,48.862747,0 2.334948,48.862764,0 2.334986,48.862816,0 2.335020,48.862864,0 2.335034,48.862883,0 2.335036,48.862886,0 2.335185,48.862838,0 2.335204,48.862855,0 2.335212,48.862865,0 2.335356,48.863114,0 2.335307,48.863227,0 2.335257,48.863253,0 2.335269,48.863264,0 2.335251,48.863349,0 2.335229,48.863451,0 2.335226,48.863480,0 2.335271,48.863487,0 2.335378,48.863509,0 2.335478,48.863530,0 2.335520,48.863570,0 2.335472,48.863669,0 2.335482,48.863705,0 2.335455,48.863725,0 2.335438,48.863750,0 2.335435,48.863786,0 2.335454,48.863819,0 2.335417,48.863845,0 2.335346,48.863980,0 2.335318,48.864036,0 2.335313,48.864049,0 2.335305,48.864070,0 2.335235,48.864264,0 2.335184,48.864374,0 2.335152,48.864421,0 2.335146,48.864436,0 2.335124,48.864483,0 2.335108,48.864520,0 2.335104,48.864534,0 2.335096,48.864551,0 2.335005,48.864761,0 2.334947,48.864914,0 2.335090,48.865252,0 2.335100,48.865264,0 2.335225,48.865559,0 2.335345,48.865826,0 2.335501,48.866140,0 2.335528,48.866164,0 2.335522,48.866171,0 2.335465,48.866188,0 2.335500,48.866247,0 2.335528,48.866291,0 2.335571,48.866378,0</coordinates></LineString></Placemark>
<Placemark><name>A pie: Rue Sainte-Anne a Galerie Vivienne</name><LineString><tessellate>1</tessellate><coordinates>2.335571,48.866378,0 2.335672,48.866585,0 2.335852,48.866931,0 2.335888,48.866923,0 2.335896,48.866922,0 2.335912,48.866938,0 2.335949,48.866931,0 2.335949,48.866942,0 2.335952,48.866971,0 2.335953,48.866994,0 2.335955,48.867001,0 2.336504,48.866872,0 2.336531,48.866864,0 2.336546,48.866862,0 2.336576,48.866856,0 2.336616,48.866848,0 2.336631,48.866847,0 2.336857,48.866790,0 2.337305,48.866683,0 2.337327,48.866684,0 2.337338,48.866704,0 2.337355,48.866704,0 2.337392,48.866699,0 2.337452,48.866693,0 2.337469,48.866695,0 2.337499,48.866662,0 2.338622,48.866393,0 2.338643,48.866393,0 2.338653,48.866391,0 2.338692,48.866381,0 2.338735,48.866370,0 2.338748,48.866367,0 2.338740,48.866350,0 2.338758,48.866345,0 2.339084,48.866268,0 2.339462,48.866180,0 2.339475,48.866207,0 2.339695,48.866634,0 2.339745,48.866731,0</coordinates></LineString></Placemark>
<Placemark><name>A pie: Galerie Vivienne a Galerie Colbert</name><LineString><tessellate>1</tessellate><coordinates>2.339745,48.866731,0 2.339901,48.867033,0 2.339206,48.867188,0 2.339197,48.867190,0 2.339016,48.866858,0</coordinates></LineString></Placemark>
<Placemark><name>A pie: Galerie Colbert a Square du Vert-Galant</name><LineString><tessellate>1</tessellate><coordinates>2.339016,48.866858,0 2.338748,48.866367,0 2.338740,48.866350,0 2.338758,48.866345,0 2.338750,48.866330,0 2.338744,48.866319,0 2.338727,48.866285,0 2.338724,48.866279,0 2.339194,48.866169,0 2.339556,48.866085,0 2.339591,48.866073,0 2.339600,48.866071,0 2.339630,48.866063,0 2.339658,48.866056,0 2.339669,48.866052,0 2.339815,48.866012,0 2.339789,48.865963,0 2.340241,48.865444,0 2.340306,48.865366,0 2.340541,48.865091,0 2.340377,48.864838,0 2.340401,48.864827,0 2.340475,48.864789,0 2.340543,48.864754,0 2.340561,48.864744,0 2.340566,48.864723,0 2.340558,48.864710,0 2.340550,48.864697,0 2.340539,48.864680,0 2.340526,48.864657,0 2.340536,48.864653,0 2.340890,48.864498,0 2.341577,48.864190,0 2.341583,48.864168,0 2.341663,48.864133,0 2.341708,48.864097,0 2.341724,48.864085,0 2.341748,48.864078,0 2.341790,48.864065,0 2.341790,48.864059,0 2.341858,48.864043,0 2.342061,48.863957,0 2.342094,48.863943,0 2.342201,48.863898,0 2.342221,48.863862,0 2.342185,48.863793,0 2.342026,48.863497,0 2.341903,48.863270,0 2.341842,48.863183,0 2.341769,48.863168,0 2.341771,48.863108,0 2.341758,48.863085,0 2.341730,48.863034,0 2.341684,48.862980,0 2.341747,48.862926,0 2.341603,48.862657,0 2.341481,48.862420,0 2.341438,48.862337,0 2.341158,48.861784,0 2.341122,48.861758,0 2.341111,48.861737,0 2.341097,48.861711,0 2.341083,48.861685,0 2.341078,48.861675,0 2.341091,48.861657,0 2.340772,48.861053,0 2.340755,48.861038,0 2.340744,48.861041,0 2.340612,48.861082,0 2.340607,48.861078,0 2.340591,48.861054,0 2.340571,48.861024,0 2.340556,48.860997,0 2.340529,48.860962,0 2.340519,48.860947,0 2.340509,48.860930,0 2.340548,48.860913,0 2.340565,48.860900,0 2.340584,48.860885,0 2.340601,48.860858,0 2.340606,48.860852,0 2.340612,48.860840,0 2.340618,48.860809,0 2.340619,48.860791,0 2.340615,48.860768,0 2.340215,48.860016,0 2.340205,48.859994,0 2.340225,48.859952,0 2.340336,48.859927,0 2.340443,48.859903,0 2.340466,48.859896,0 2.340494,48.859887,0 2.340507,48.859884,0 2.340345,48.859594,0 2.340304,48.859516,0 2.340294,48.859497,0 2.340280,48.859468,0 2.340268,48.859444,0 2.340263,48.859436,0 2.340224,48.859362,0 2.340111,48.859148,0 2.340081,48.859086,0 2.340122,48.859043,0 2.341585,48.858771,0 2.341598,48.858770,0 2.341617,48.858767,0 2.341646,48.858763,0 2.341695,48.858760,0 2.341919,48.858772,0 2.342173,48.858718,0 2.342269,48.858614,0 2.342242,48.858537,0 2.342221,48.858479,0 2.342193,48.858452,0 2.342249,48.858410,0 2.342235,48.858374,0 2.341417,48.857353,0 2.341306,48.857216,0 2.341280,48.857187,0 2.341251,48.857197,0 2.340945,48.857310,0 2.340930,48.857293,0 2.340853,48.857201,0 2.340838,48.857182,0 2.340780,48.857203,0 2.340745,48.857216,0 2.340726,48.857222,0 2.340675,48.857241,0 2.340665,48.857229,0 2.340659,48.857231,0 2.340649,48.857232,0 2.340638,48.857232,0 2.340631,48.857232,0 2.340620,48.857231,0 2.340613,48.857231,0 2.340612,48.857235,0 2.340613,48.857243,0 2.340614,48.857249,0 2.340617,48.857254,0 2.340621,48.857260,0 2.340628,48.857269,0 2.340634,48.857281,0 2.340637,48.857290,0 2.340636,48.857307,0 2.340632,48.857322,0 2.340627,48.857334,0 2.340620,48.857344,0 2.340610,48.857356,0 2.340598,48.857365,0 2.340578,48.857377,0 2.340557,48.857386,0 2.340422,48.857425,0 2.340379,48.857415,0 2.340349,48.857410,0</coordinates></LineString></Placemark>
<Placemark><name>A pie: Explanada del Louvre a Square du Vert-Galant</name><LineString><tessellate>1</tessellate><coordinates>2.335989,48.860785,0 2.336343,48.860892,0 2.336477,48.860932,0 2.336511,48.860912,0 2.336586,48.860869,0 2.336637,48.860818,0 2.337126,48.860696,0 2.337254,48.860670,0 2.337288,48.860662,0 2.337378,48.860641,0 2.337475,48.860619,0 2.337684,48.860568,0 2.337790,48.860544,0 2.337798,48.860542,0 2.338329,48.860421,0 2.338470,48.860228,0 2.338294,48.859868,0 2.338291,48.859861,0 2.338160,48.859609,0 2.338016,48.859325,0 2.338007,48.859309,0 2.338095,48.859300,0 2.339467,48.859152,0 2.339475,48.859169,0 2.339638,48.859151,0 2.339652,48.859150,0 2.339662,48.859150,0 2.339675,48.859151,0 2.339687,48.859152,0 2.339699,48.859154,0 2.339707,48.859156,0 2.339716,48.859159,0 2.339724,48.859162,0 2.339732,48.859165,0 2.339739,48.859168,0 2.339746,48.859172,0 2.339764,48.859158,0 2.339785,48.859172,0 2.339795,48.859183,0 2.339815,48.859213,0 2.339840,48.859208,0 2.339950,48.859184,0 2.340056,48.859161,0 2.340111,48.859148,0 2.340081,48.859086,0 2.340122,48.859043,0 2.341585,48.858771,0 2.341598,48.858770,0 2.341617,48.858767,0 2.341646,48.858763,0 2.341695,48.858760,0 2.341919,48.858772,0 2.342173,48.858718,0 2.342269,48.858614,0 2.342242,48.858537,0 2.342221,48.858479,0 2.342193,48.858452,0 2.342249,48.858410,0 2.342235,48.858374,0 2.341417,48.857353,0 2.341306,48.857216,0 2.341280,48.857187,0 2.341251,48.857197,0 2.340945,48.857310,0 2.340930,48.857293,0 2.340853,48.857201,0 2.340838,48.857182,0 2.340780,48.857203,0 2.340745,48.857216,0 2.340726,48.857222,0 2.340675,48.857241,0 2.340665,48.857229,0 2.340659,48.857231,0 2.340649,48.857232,0 2.340638,48.857232,0 2.340631,48.857232,0 2.340620,48.857231,0 2.340613,48.857231,0 2.340612,48.857235,0 2.340613,48.857243,0 2.340614,48.857249,0 2.340617,48.857254,0 2.340621,48.857260,0 2.340628,48.857269,0 2.340634,48.857281,0 2.340637,48.857290,0 2.340636,48.857307,0 2.340632,48.857322,0 2.340627,48.857334,0 2.340620,48.857344,0 2.340610,48.857356,0 2.340598,48.857365,0 2.340578,48.857377,0 2.340557,48.857386,0 2.340422,48.857425,0 2.340379,48.857415,0 2.340349,48.857410,0</coordinates></LineString></Placemark>
<Placemark><name>A pie: Square du Vert-Galant a El Panteón</name><LineString><tessellate>1</tessellate><coordinates>2.340349,48.857410,0 2.340379,48.857415,0 2.340422,48.857425,0 2.340557,48.857386,0 2.340578,48.857377,0 2.340598,48.857365,0 2.340610,48.857356,0 2.340620,48.857344,0 2.340627,48.857334,0 2.340632,48.857322,0 2.340636,48.857307,0 2.340637,48.857290,0 2.340634,48.857281,0 2.340628,48.857269,0 2.340621,48.857260,0 2.340617,48.857254,0 2.340614,48.857249,0 2.340613,48.857243,0 2.340612,48.857235,0 2.340613,48.857231,0 2.340620,48.857231,0 2.340631,48.857232,0 2.340638,48.857232,0 2.340649,48.857232,0 2.340659,48.857231,0 2.340665,48.857229,0 2.340675,48.857241,0 2.340726,48.857222,0 2.340745,48.857216,0 2.340780,48.857203,0 2.340838,48.857182,0 2.340822,48.857164,0 2.340744,48.857070,0 2.340737,48.857062,0 2.341028,48.856956,0 2.341060,48.856944,0 2.340955,48.856831,0 2.340901,48.856773,0 2.340939,48.856759,0 2.340996,48.856739,0 2.341026,48.856729,0 2.341073,48.856713,0 2.341106,48.856702,0 2.340683,48.856195,0 2.340670,48.856171,0 2.340660,48.856144,0 2.340657,48.856121,0 2.340661,48.856101,0 2.340617,48.856070,0 2.340599,48.856057,0 2.340579,48.856038,0 2.340552,48.856012,0 2.340491,48.855953,0 2.340474,48.855937,0 2.340404,48.855935,0 2.340378,48.855904,0 2.340271,48.855769,0 2.340082,48.855544,0 2.339950,48.855397,0 2.339958,48.855365,0 2.339944,48.855357,0 2.339916,48.855334,0 2.339893,48.855315,0 2.339885,48.855309,0 2.339816,48.855251,0 2.339807,48.855211,0 2.339676,48.855052,0 2.339602,48.854971,0 2.339383,48.854704,0 2.339390,48.854693,0 2.339387,48.854689,0 2.339374,48.854679,0 2.339360,48.854663,0 2.339356,48.854659,0 2.339328,48.854651,0 2.339295,48.854599,0 2.339216,48.854505,0 2.338977,48.854217,0 2.338980,48.854198,0 2.338972,48.854191,0 2.338944,48.854165,0 2.338928,48.854147,0 2.338921,48.854138,0 2.338889,48.854118,0 2.338569,48.853731,0 2.338531,48.853695,0 2.338518,48.853669,0 2.338547,48.853660,0 2.338543,48.853650,0 2.338534,48.853631,0 2.338522,48.853606,0 2.338517,48.853599,0 2.338499,48.853595,0 2.338496,48.853584,0 2.338518,48.853475,0 2.338628,48.853209,0 2.338858,48.852687,0 2.338905,48.852565,0 2.339000,48.852531,0 2.338982,48.852494,0 2.338951,48.852427,0 2.338928,48.852374,0 2.338917,48.852351,0 2.338907,48.852335,0 2.338888,48.852304,0 2.338880,48.852292,0 2.338860,48.852265,0 2.338844,48.852243,0 2.338834,48.852229,0 2.338812,48.852233,0 2.338788,48.852227,0 2.338779,48.852222,0 2.338771,48.852210,0 2.338750,48.852113,0 2.338739,48.852003,0 2.338765,48.851967,0 2.338775,48.851869,0 2.338757,48.851841,0 2.338764,48.851812,0 2.338771,48.851785,0 2.338770,48.851765,0 2.338831,48.851753,0 2.338904,48.851698,0 2.339094,48.851462,0 2.339274,48.851246,0 2.339459,48.850977,0 2.339450,48.850946,0 2.339461,48.850942,0 2.339482,48.850889,0 2.339524,48.850783,0 2.339524,48.850773,0 2.339539,48.850763,0 2.339707,48.850396,0 2.339748,48.850351,0 2.339813,48.850211,0 2.339916,48.849994,0 2.339920,48.849982,0 2.339908,48.849968,0 2.339914,48.849963,0 2.339926,48.849935,0 2.339936,48.849904,0 2.339939,48.849897,0 2.339957,48.849882,0 2.340052,48.849700,0 2.340246,48.849277,0 2.340396,48.848939,0 2.340383,48.848921,0 2.340388,48.848914,0 2.340392,48.848882,0 2.340398,48.848856,0 2.340395,48.848841,0 2.340401,48.848839,0 2.340428,48.848817,0 2.340520,48.848616,0 2.340748,48.848118,0 2.340893,48.847889,0 2.340933,48.847787,0 2.340913,48.847753,0 2.340828,48.847609,0 2.340857,48.847601,0 2.340893,48.847590,0 2.340918,48.847583,0 2.340944,48.847576,0 2.340982,48.847566,0 2.341046,48.847548,0 2.341072,48.847540,0 2.341091,48.847535,0 2.341074,48.847468,0 2.341087,48.847422,0 2.341116,48.847386,0 2.341201,48.847363,0 2.341455,48.847312,0 2.341839,48.847232,0 2.341933,48.847212,0 2.341972,48.847203,0 2.341992,48.847197,0 2.342018,48.847190,0 2.342058,48.847180,0 2.342071,48.847177,0 2.342081,48.847168,0 2.342071,48.847149,0 2.342030,48.847081,0 2.342504,48.846979,0 2.342669,48.846941,0 2.342828,48.846906,0 2.343229,48.846821,0 2.343348,48.846797,0 2.343467,48.846771,0 2.343537,48.846756,0 2.343739,48.846711,0 2.344178,48.846613,0 2.344386,48.846567,0 2.344494,48.846546,0 2.344873,48.846064,0 2.344933,48.846079,0 2.344959,48.846074,0 2.345073,48.846295,0 2.345102,48.846289,0 2.345164,48.846275,0 2.345222,48.846262,0 2.345298,48.846246,0 2.345396,48.846225,0 2.345467,48.846209,0 2.345562,48.846188,0 2.345581,48.846225,0 2.345620,48.846303,0 2.345726,48.846281,0 2.345839,48.846257,0 2.345959,48.846231,0 2.346039,48.846214,0 2.346054,48.846236,0 2.346078,48.846253,0 2.346109,48.846264,0 2.346143,48.846268,0 2.346177,48.846266,0 2.346196,48.846312,0 2.346276,48.846295,0 2.346291,48.846292,0 2.346319,48.846285,0 2.346375,48.846273,0 2.346434,48.846261,0 2.346494,48.846248,0 2.346553,48.846235,0 2.346611,48.846223,0 2.346704,48.846203,0 2.346764,48.846190,0 2.346815,48.846180,0 2.346838,48.846174,0 2.346831,48.846159,0 2.346798,48.846094,0 2.346779,48.846057,0 2.346747,48.846063,0 2.346668,48.846080,0 2.346562,48.846103,0 2.346501,48.846116,0 2.346444,48.846128,0 2.346324,48.846154,0 2.346216,48.846177,0 2.346200,48.846180,0 2.346199,48.846195,0 2.346194,48.846207,0 2.346184,48.846213,0 2.346166,48.846218,0 2.346186,48.846256,0 2.346158,48.846259,0 2.346124,48.846257,0 2.346087,48.846245,0 2.346053,48.846214,0</coordinates></LineString></Placemark>
<Placemark><name>A pie: El Panteón a Saint-Étienne-du-Mont</name><LineString><tessellate>1</tessellate><coordinates>2.346053,48.846214,0 2.346045,48.846189,0 2.346051,48.846166,0 2.346081,48.846141,0 2.346119,48.846127,0 2.346136,48.846160,0 2.346156,48.846158,0 2.346174,48.846161,0 2.346188,48.846168,0 2.346200,48.846180,0 2.346216,48.846177,0 2.346324,48.846154,0 2.346444,48.846128,0 2.346501,48.846116,0 2.346562,48.846103,0 2.346668,48.846080,0 2.346747,48.846063,0 2.346779,48.846057,0 2.346760,48.846018,0 2.346727,48.845953,0 2.346718,48.845936,0 2.346700,48.845940,0 2.346647,48.845951,0 2.346584,48.845965,0 2.346497,48.845984,0 2.346439,48.845997,0 2.346375,48.846011,0 2.346318,48.846023,0 2.346257,48.846037,0 2.346207,48.846048,0 2.346176,48.846054,0 2.346160,48.846058,0 2.346078,48.846076,0 2.346109,48.846123,0 2.346079,48.846134,0 2.346055,48.846150,0 2.346039,48.846171,0 2.346034,48.846193,0 2.346039,48.846214,0 2.345959,48.846231,0 2.345839,48.846257,0 2.345726,48.846281,0 2.345620,48.846303,0 2.345661,48.846383,0 2.345680,48.846421,0 2.345584,48.846442,0 2.345555,48.846448,0 2.345512,48.846457,0 2.345415,48.846479,0 2.345338,48.846496,0 2.345280,48.846508,0 2.345218,48.846522,0 2.345189,48.846528,0 2.345295,48.846740,0 2.345277,48.846757,0 2.345267,48.846767,0 2.345237,48.846801,0 2.345326,48.846946,0 2.346302,48.846724,0 2.346402,48.846701,0 2.346502,48.846679,0 2.346935,48.846581,0 2.347737,48.846795,0 2.347846,48.846827,0 2.347855,48.846812,0 2.347863,48.846798,0 2.347889,48.846770,0 2.347926,48.846745,0 2.347991,48.846726,0 2.348063,48.846718,0</coordinates></LineString></Placemark>
<Placemark><name>A pie: Saint-Étienne-du-Mont a Place de la Contrescarpe</name><LineString><tessellate>1</tessellate><coordinates>2.348063,48.846718,0 2.348908,48.846618,0 2.348902,48.846602,0 2.348901,48.846598,0 2.348948,48.846459,0 2.348986,48.846399,0 2.349001,48.846295,0 2.349007,48.846252,0 2.348961,48.846225,0 2.348977,48.846215,0 2.348972,48.846181,0 2.348965,48.846143,0 2.348963,48.846131,0 2.349010,48.846123,0 2.349035,48.846099,0 2.349044,48.845961,0 2.349046,48.845933,0 2.349060,48.845728,0 2.349112,48.845711,0 2.349093,48.845488,0 2.349075,48.845274,0 2.349107,48.845036,0 2.349087,48.845020,0 2.349091,48.845011,0 2.349095,48.844980,0 2.349099,48.844946,0 2.349096,48.844933,0 2.349122,48.844923,0 2.349147,48.844935,0 2.349184,48.844945,0 2.349235,48.844613,0 2.349254,48.844507,0 2.349271,48.844405,0 2.349321,48.844381,0 2.349357,48.844368,0 2.349395,48.844361,0 2.349435,48.844360,0 2.349474,48.844365,0 2.349495,48.844372,0</coordinates></LineString></Placemark>
<Placemark><name>A pie: Place de la Contrescarpe a Au P&#x27;tit Grec</name><LineString><tessellate>1</tessellate><coordinates>2.349495,48.844372,0 2.349510,48.844376,0 2.349541,48.844392,0 2.349566,48.844411,0 2.349685,48.844386,0 2.349671,48.844360,0 2.349659,48.844339,0 2.349334,48.844321,0 2.349321,48.844310,0 2.349306,48.844308,0 2.349288,48.844305,0 2.349267,48.844302,0 2.349257,48.844301,0 2.349322,48.844041,0 2.349348,48.843880,0 2.349366,48.843805,0 2.349406,48.843645,0 2.349458,48.843451,0 2.349524,48.843211,0 2.349548,48.843133,0 2.349559,48.843115,0 2.349635,48.842778,0</coordinates></LineString></Placemark>
<Placemark><name>A pie: Museo de Orsay a Saint-Germain-des-Prés</name><LineString><tessellate>1</tessellate><coordinates>2.326366,48.859595,0 2.326498,48.859556,0 2.326568,48.859536,0 2.326592,48.859509,0 2.326639,48.859496,0 2.326654,48.859492,0 2.326617,48.859429,0 2.327190,48.859260,0 2.327378,48.859206,0 2.328661,48.858826,0 2.328749,48.858801,0 2.328719,48.858758,0 2.328371,48.858275,0 2.328335,48.858221,0 2.328316,48.858194,0 2.328013,48.857765,0 2.327973,48.857709,0 2.328071,48.857672,0 2.328833,48.857381,0 2.328900,48.857355,0 2.328976,48.857327,0 2.330347,48.856815,0 2.330483,48.856763,0 2.331592,48.856346,0 2.331672,48.856315,0 2.331757,48.856285,0 2.331803,48.856268,0 2.332084,48.856168,0 2.332098,48.856163,0 2.332475,48.856028,0 2.333437,48.855684,0 2.333508,48.855659,0 2.333591,48.855629,0 2.333890,48.855523,0 2.333869,48.855497,0 2.333857,48.855488,0 2.333868,48.855467,0 2.333874,48.855458,0 2.333592,48.854554,0 2.333574,48.854548,0 2.333574,48.854535,0 2.333562,48.854514,0 2.333549,48.854488,0 2.333538,48.854482,0 2.333548,48.854463,0 2.333560,48.854461,0 2.333621,48.854446,0 2.333697,48.854428,0 2.333741,48.854415,0 2.333663,48.854211,0 2.333515,48.853888,0 2.333579,48.853846,0 2.333614,48.853841,0 2.333633,48.853838,0 2.333767,48.853806,0 2.334295,48.853680,0 2.334307,48.853702,0 2.334329,48.853740,0 2.334539,48.853697,0 2.334562,48.853724,0 2.334614,48.853733,0</coordinates></LineString></Placemark>
</Folder>
<Folder><name>2026-09-04 · El Marais entero y los grandes bulevares</name>
<Placemark><name>09:00 Hôtel Sanso</name><description>Con el tour a las 11:00 podéis dormir, desayunar sin prisa y llegar andando si os apetece. O recuperar lo que quedara pendiente del jueves: los pasajes de la rue Vivienne están a un cuarto de hora en metro.</description><Point><coordinates>2.374812,48.82935,0</coordinates></Point></Placemark>
<Placemark><name>11:00 Saint-Paul (punto de encuentro)</name><description>Punto de encuentro junto a Saint-Paul, en la Place Marie-Claude-Vaillant-Couturier-et-Pierre-Villon. Dos horas: Memorial de la Shoah, barrio judío, jardín del Hôtel de Sens donde vivió la reina Margot, Village Saint-Paul, patio del Hôtel de Sully, Place des Vosges y Bastilla, donde termina hacia las 13:00.</description><Point><coordinates>2.361427,48.85461,0</coordinates></Point></Placemark>
<Placemark><name>13:20 L&#x27;As du Fallafel</name><description>L&#x27;As du Fallafel abre los viernes de 11:00 a 15:30 y cierra los sábados por el Shabbat: este es el único mediodía del viaje en que os cuadra. Suele haber cola y va a metálico. Si la cola es imposible, la misma calle tiene tres o cuatro sitios equivalentes.</description><Point><coordinates>2.359049,48.85741,0</coordinates></Point></Placemark>
<Placemark><name>14:25 Place des Vosges</name><description>El rato de estar tirados. El césped central está abierto, hay fuentes en las cuatro esquinas y los soportales quedan en sombra. Plaza planificada más antigua de París, inaugurada en 1612 con el torneo de las bodas de Luis XIII, sobre el solar del Hôtel des Tournelles que Catalina de Médicis mandó demoler. Por los soportales del sur se sale al patio del Hôtel de Sully.</description><Point><coordinates>2.365535,48.855631,0</coordinates></Point></Placemark>
<Placemark><name>15:20 Museo Carnavalet</name><description>Gratis y sin reserva, última entrada a las 17:15. Dos palacios unidos: el Carnavalet renacentista, donde Madame de Sévigné escribió treinta años de cartas, y el Le Peletier de Saint-Fargeau. La sección revolucionaria con la maqueta de la Bastilla tallada con una piedra de la propia Bastilla, las tiendas del XIX reconstruidas y la habitación de Proust con su cama de latón.</description><Point><coordinates>2.362473,48.857323,0</coordinates></Point></Placemark>
<Placemark><name>17:05 La Madeleine</name><description>Metro 8 a Madeleine</description><Point><coordinates>2.324543,48.870134,0</coordinates></Point></Placemark>
<Placemark><name>18:00 Place Vendôme</name><description>De Jules Hardouin-Mansart, el mismo de Versalles. La columna está fundida con el bronce de los cañones de Austerlitz; los comuneros la derribaron en 1871 con Courbet metido en el ajo y luego le pasaron a él la factura, lo que le arruinó la vida. En el 15, el Ritz.</description><Point><coordinates>2.329428,48.867463,0</coordinates></Point></Placemark>
<Placemark><name>18:20 Ópera Garnier</name><description>No entramos. Las cuatro esculturas del pórtico, con La Danza de Carpeaux a la derecha, que escandalizó tanto en 1869 que alguien le tiró un frasco de tinta. Diecisiete tipos de mármol en la fachada.</description><Point><coordinates>2.332334,48.872095,0</coordinates></Point></Placemark>
<Placemark><name>18:35 Galeries Lafayette Haussmann</name><description>Hasta las 20:30, entrada libre. La cúpula de vidriera neobizantina de 1912, a 43 metros, se mira desde la barandilla de la primera planta y nunca desde abajo. La terraza de la azotea son 800 metros de mirador gratuito con la Ópera a los pies. A esta hora la terraza pilla la Ópera con luz lateral.</description><Point><coordinates>2.332127,48.873646,0</coordinates></Point></Placemark>
<Placemark><name>19:40 L&#x27;Alchimiste</name><description>Solo con la versión corta de Carnavalet. Junto a la Torre Saint-Jacques, happy hour desde las 18:00. Nicolas Flamel fue escribano en el siglo XIV; la leyenda alquímica se la colgaron después.</description><Point><coordinates>2.349576,48.859029,0</coordinates></Point></Placemark>
<Placemark><name>21:00 Comme au Vietnam</name><description>Cenas de 19:00 a 22:30, conviene reservar para las 21:00 y no para las 20:30. Desde el hotel, quince minutos andando por la rue de Tolbiac o el autobús 62. Estáis en el barrio asiático del distrito 13, el mayor de Europa.</description><Point><coordinates>2.357058,48.829558,0</coordinates></Point></Placemark>
<Placemark><name>A pie: Plaza de la Bastilla a Hôtel de Sens</name><LineString><tessellate>1</tessellate><coordinates>2.368713,48.852494,0 2.368711,48.852494,0 2.368473,48.852541,0 2.368300,48.852586,0 2.368268,48.852567,0 2.368246,48.852595,0 2.368218,48.852609,0 2.368151,48.852640,0 2.368110,48.852660,0 2.368071,48.852695,0 2.367913,48.852570,0 2.367811,48.852629,0 2.367784,48.852644,0 2.367387,48.852527,0 2.367368,48.852523,0 2.367313,48.852507,0 2.367236,48.852486,0 2.367196,48.852470,0 2.367119,48.852441,0 2.366751,48.852326,0 2.366729,48.852320,0 2.366679,48.852306,0 2.366593,48.852281,0 2.366566,48.852273,0 2.366342,48.852210,0 2.365923,48.852090,0 2.365851,48.852070,0 2.365782,48.852047,0 2.365747,48.852035,0 2.365695,48.852019,0 2.365606,48.851993,0 2.363881,48.851454,0 2.363829,48.851436,0 2.363624,48.851373,0 2.363598,48.851418,0 2.363590,48.851430,0 2.363564,48.851473,0 2.363533,48.851521,0 2.363525,48.851534,0 2.363505,48.851565,0 2.362702,48.851329,0 2.362536,48.851284,0 2.362432,48.851355,0 2.362414,48.851395,0 2.362403,48.851403,0 2.362377,48.851419,0 2.362361,48.851429,0 2.362352,48.851438,0 2.362337,48.851450,0 2.362087,48.851608,0 2.361376,48.852055,0 2.361171,48.852184,0 2.361010,48.852286,0 2.360782,48.852416,0 2.360704,48.852439,0 2.360640,48.852451,0 2.360589,48.852460,0 2.360571,48.852470,0 2.360548,48.852483,0 2.360511,48.852535,0 2.360495,48.852557,0 2.360555,48.852601,0 2.360297,48.852779,0 2.360157,48.852849,0 2.360122,48.852842,0 2.360117,48.852865,0 2.360085,48.852881,0 2.360051,48.852898,0 2.360037,48.852896,0 2.360013,48.852916,0 2.359675,48.853115,0 2.359620,48.853148,0 2.359399,48.853292,0 2.359342,48.853261,0 2.359295,48.853261,0 2.359242,48.853259,0 2.359186,48.853257,0 2.359152,48.853256,0 2.359162,48.853279,0 2.359164,48.853286,0 2.359176,48.853309,0 2.359186,48.853331,0 2.359197,48.853335,0 2.358962,48.853329,0 2.358933,48.853332,0</coordinates></LineString></Placemark>
<Placemark><name>A pie: Hôtel de Sens a L&#x27;As du Fallafel</name><LineString><tessellate>1</tessellate><coordinates>2.358933,48.853332,0 2.358962,48.853329,0 2.359197,48.853335,0 2.359200,48.853338,0 2.359209,48.853408,0 2.359213,48.853446,0 2.359199,48.853477,0 2.359038,48.853733,0 2.359031,48.853760,0 2.358989,48.853909,0 2.358989,48.853976,0 2.358996,48.854096,0 2.359022,48.854324,0 2.359052,48.854367,0 2.359059,48.854390,0 2.359038,48.854417,0 2.358902,48.854474,0 2.358875,48.854471,0 2.358863,48.854466,0 2.358843,48.854474,0 2.358787,48.854491,0 2.358726,48.854508,0 2.358688,48.854516,0 2.358698,48.854538,0 2.358521,48.854667,0 2.358261,48.854849,0 2.358031,48.855002,0 2.357868,48.855188,0 2.357690,48.855421,0 2.357667,48.855452,0 2.357618,48.855478,0 2.357440,48.855529,0 2.357450,48.855545,0 2.357466,48.855569,0 2.357484,48.855593,0 2.357495,48.855609,0 2.357258,48.855671,0 2.356935,48.855767,0 2.356920,48.855770,0 2.356907,48.855773,0 2.356894,48.855776,0 2.356907,48.855788,0 2.356909,48.855791,0 2.356962,48.855921,0 2.356952,48.855935,0 2.356972,48.855972,0 2.356989,48.856005,0 2.357029,48.856078,0 2.357006,48.856109,0 2.356716,48.856175,0 2.356729,48.856197,0 2.356741,48.856220,0 2.356752,48.856241,0 2.356774,48.856283,0 2.356782,48.856299,0 2.356792,48.856317,0 2.356713,48.856347,0 2.356702,48.856353,0 2.356825,48.856568,0 2.356874,48.856590,0 2.356880,48.856600,0 2.356904,48.856631,0 2.356931,48.856667,0 2.356934,48.856672,0 2.356931,48.856700,0 2.357006,48.856817,0 2.357069,48.856894,0 2.357329,48.857201,0 2.357367,48.857217,0 2.357379,48.857232,0 2.357396,48.857253,0 2.357421,48.857284,0 2.357429,48.857294,0 2.357426,48.857315,0 2.357435,48.857330,0 2.357470,48.857377,0 2.357598,48.857529,0 2.357718,48.857673,0 2.357876,48.857863,0 2.357896,48.857886,0 2.357910,48.857902,0 2.357945,48.857938,0 2.358131,48.858129,0 2.358157,48.858136,0 2.358172,48.858140,0 2.358609,48.857857,0 2.358611,48.857848,0 2.358431,48.857730,0 2.358466,48.857707,0 2.358422,48.857677,0 2.358827,48.857503,0 2.359013,48.857386,0</coordinates></LineString></Placemark>
<Placemark><name>A pie: Plaza de la Bastilla a L&#x27;As du Fallafel</name><LineString><tessellate>1</tessellate><coordinates>2.368713,48.852494,0 2.368711,48.852494,0 2.368473,48.852541,0 2.368300,48.852586,0 2.368268,48.852567,0 2.368246,48.852595,0 2.368218,48.852609,0 2.368151,48.852640,0 2.368110,48.852660,0 2.368071,48.852695,0 2.368029,48.852754,0 2.368033,48.852767,0 2.368051,48.852827,0 2.368073,48.852903,0 2.368077,48.852916,0 2.368084,48.852944,0 2.368161,48.852962,0 2.368251,48.853167,0 2.368203,48.853202,0 2.367793,48.853253,0 2.367695,48.853255,0 2.367673,48.853255,0 2.367663,48.853270,0 2.367606,48.853279,0 2.367561,48.853287,0 2.367528,48.853284,0 2.367296,48.853329,0 2.367139,48.853348,0 2.367129,48.853355,0 2.367101,48.853358,0 2.367054,48.853364,0 2.367037,48.853354,0 2.366718,48.853402,0 2.366733,48.853421,0 2.366740,48.853444,0 2.366744,48.853458,0 2.366749,48.853475,0 2.366760,48.853510,0 2.366769,48.853541,0 2.366772,48.853556,0 2.366672,48.853566,0 2.366406,48.853623,0 2.365802,48.853770,0 2.365745,48.853789,0 2.365724,48.853789,0 2.365691,48.853799,0 2.365654,48.853811,0 2.365639,48.853819,0 2.365596,48.853822,0 2.365331,48.853906,0 2.365267,48.853924,0 2.365043,48.853967,0 2.364957,48.854000,0 2.364937,48.853997,0 2.364887,48.854011,0 2.364845,48.854025,0 2.364834,48.854032,0 2.364666,48.854073,0 2.363900,48.854314,0 2.363685,48.854383,0 2.363636,48.854398,0 2.363569,48.854420,0 2.363141,48.854584,0 2.363080,48.854617,0 2.363061,48.854647,0 2.363044,48.854645,0 2.363002,48.854658,0 2.362968,48.854677,0 2.362956,48.854685,0 2.362893,48.854673,0 2.362718,48.854740,0 2.362513,48.854838,0 2.362504,48.854841,0 2.362472,48.854855,0 2.362441,48.854870,0 2.362427,48.854880,0 2.362416,48.854878,0 2.362337,48.854901,0 2.362229,48.854962,0 2.362125,48.855005,0 2.361948,48.855056,0 2.361802,48.855138,0 2.361779,48.855144,0 2.361726,48.855161,0 2.361674,48.855178,0 2.361673,48.855180,0 2.361651,48.855191,0 2.361602,48.855174,0 2.361343,48.855234,0 2.361229,48.855257,0 2.361213,48.855272,0 2.361209,48.855308,0 2.361379,48.856157,0 2.361398,48.856286,0 2.361457,48.856643,0 2.361472,48.856759,0 2.361459,48.856809,0 2.361451,48.856810,0 2.361429,48.856817,0 2.361407,48.856824,0 2.361386,48.856832,0 2.361680,48.857214,0 2.361673,48.857236,0 2.361668,48.857253,0 2.361633,48.857268,0 2.361207,48.857442,0 2.360775,48.857630,0 2.360685,48.857650,0 2.360572,48.857701,0 2.360551,48.857731,0 2.360415,48.857798,0 2.360196,48.857901,0 2.360150,48.857896,0 2.359420,48.858270,0 2.359388,48.858272,0 2.359184,48.858131,0 2.359134,48.858096,0 2.359115,48.858084,0 2.359080,48.858075,0 2.359048,48.858072,0 2.359030,48.858073,0 2.359002,48.858074,0 2.358993,48.858068,0 2.358702,48.857867,0 2.358689,48.857858,0 2.358655,48.857854,0 2.358654,48.857839,0 2.358643,48.857824,0 2.358466,48.857707,0 2.358422,48.857677,0 2.358827,48.857503,0 2.359013,48.857386,0</coordinates></LineString></Placemark>
<Placemark><name>A pie: L&#x27;As du Fallafel a Place des Vosges</name><LineString><tessellate>1</tessellate><coordinates>2.359013,48.857386,0 2.359057,48.857358,0 2.359000,48.857292,0 2.359033,48.857277,0 2.359036,48.857276,0 2.359113,48.857285,0 2.359297,48.857172,0 2.359759,48.856981,0 2.359774,48.857011,0 2.359828,48.857007,0 2.359996,48.856922,0 2.360086,48.856877,0 2.360133,48.856852,0 2.360758,48.856532,0 2.360774,48.856515,0 2.360831,48.856514,0 2.360841,48.856514,0 2.361205,48.856699,0 2.361274,48.856736,0 2.361357,48.856795,0 2.361386,48.856832,0 2.361680,48.857214,0 2.361673,48.857236,0 2.361693,48.857229,0 2.361732,48.857217,0 2.361758,48.857208,0 2.361769,48.857204,0 2.361784,48.857206,0 2.362713,48.856905,0 2.362757,48.856890,0 2.362761,48.856883,0 2.362744,48.856851,0 2.362757,48.856848,0 2.362790,48.856839,0 2.362822,48.856830,0 2.362843,48.856825,0 2.362898,48.856843,0 2.363051,48.856812,0 2.364200,48.856465,0 2.364194,48.856428,0 2.364207,48.856425,0 2.364251,48.856411,0 2.364283,48.856403,0 2.364334,48.856373,0 2.364380,48.856389,0 2.364470,48.856370,0 2.364742,48.856327,0 2.364795,48.856318,0 2.364829,48.856305,0 2.364826,48.856298,0 2.364834,48.856298,0 2.364905,48.856267,0 2.364991,48.856229,0 2.365019,48.856220,0 2.365074,48.856229,0 2.365659,48.856134,0 2.365737,48.856122,0 2.365728,48.856099,0 2.365681,48.855969,0 2.365607,48.855762,0 2.365546,48.855767,0 2.365484,48.855762,0 2.365428,48.855745,0 2.365407,48.855734,0</coordinates></LineString></Placemark>
<Placemark><name>A pie: Place des Vosges a Hôtel de Sully</name><LineString><tessellate>1</tessellate><coordinates>2.365407,48.855734,0 2.365387,48.855723,0 2.365355,48.855695,0 2.365026,48.855744,0 2.365012,48.855709,0 2.364820,48.855740,0 2.364787,48.855747,0 2.364770,48.855751,0 2.364700,48.855762,0 2.364628,48.855774,0 2.364622,48.855775,0 2.364586,48.855780,0 2.364348,48.855177,0 2.364339,48.855151,0 2.364330,48.855129,0 2.364327,48.855120,0 2.364325,48.855113,0 2.364320,48.855099,0 2.364312,48.855087,0 2.364112,48.855127,0 2.364045,48.854997,0 2.363989,48.854868,0 2.363991,48.854855,0 2.363985,48.854845,0 2.363942,48.854769,0 2.363931,48.854751,0 2.363887,48.854673,0 2.363872,48.854659,0 2.363845,48.854666,0 2.363806,48.854677,0</coordinates></LineString></Placemark>
<Placemark><name>A pie: Place des Vosges a Museo Carnavalet</name><LineString><tessellate>1</tessellate><coordinates>2.365407,48.855734,0 2.365428,48.855745,0 2.365484,48.855762,0 2.365546,48.855767,0 2.365607,48.855762,0 2.365681,48.855969,0 2.365728,48.856099,0 2.365737,48.856122,0 2.365659,48.856134,0 2.365074,48.856229,0 2.365019,48.856220,0 2.364991,48.856229,0 2.364905,48.856267,0 2.364834,48.856298,0 2.364826,48.856298,0 2.364829,48.856305,0 2.364795,48.856318,0 2.364742,48.856327,0 2.364470,48.856370,0 2.364380,48.856389,0 2.364334,48.856373,0 2.364283,48.856403,0 2.364251,48.856411,0 2.364207,48.856425,0 2.364194,48.856428,0 2.364200,48.856465,0 2.364204,48.856476,0 2.364212,48.856487,0 2.364224,48.856504,0 2.364229,48.856512,0 2.363368,48.856770,0 2.363347,48.856787,0 2.363242,48.856824,0 2.362945,48.856905,0 2.362925,48.856929,0 2.362913,48.856932,0 2.362873,48.856943,0 2.362846,48.856950,0 2.362825,48.856955,0 2.362901,48.857059,0 2.362871,48.857067,0 2.362787,48.857091,0 2.362692,48.857121,0 2.362676,48.857181,0 2.362591,48.857205,0 2.362601,48.857220,0 2.362611,48.857234,0</coordinates></LineString></Placemark>
<Placemark><name>A pie: Museo Carnavalet a Chemin Vert</name><LineString><tessellate>1</tessellate><coordinates>2.362611,48.857234,0 2.362601,48.857220,0 2.362591,48.857205,0 2.362676,48.857181,0 2.362692,48.857121,0 2.362787,48.857091,0 2.362871,48.857067,0 2.362901,48.857059,0 2.363261,48.857578,0 2.363523,48.857950,0 2.363557,48.858020,0 2.363732,48.858283,0 2.363752,48.858278,0 2.363792,48.858269,0 2.363823,48.858262,0 2.363834,48.858260,0 2.363863,48.858278,0 2.363865,48.858281,0 2.363889,48.858310,0 2.363910,48.858337,0 2.363917,48.858345,0 2.364353,48.858190,0 2.364393,48.858187,0 2.364402,48.858224,0 2.364422,48.858224,0 2.364484,48.858223,0 2.364528,48.858223,0 2.364565,48.858221,0 2.364564,48.858198,0 2.365365,48.858063,0 2.365424,48.858071,0 2.365432,48.858069,0 2.365474,48.858061,0 2.365519,48.858053,0 2.365528,48.858051,0 2.365574,48.858028,0 2.366321,48.857904,0 2.366493,48.857876,0 2.366490,48.857869,0 2.366481,48.857843,0 2.366473,48.857822,0 2.366471,48.857816,0 2.366976,48.857732,0 2.367279,48.857681,0 2.367301,48.857667,0 2.367311,48.857665,0 2.367360,48.857656,0 2.367409,48.857647,0 2.367419,48.857644,0 2.367440,48.857659,0 2.367911,48.857578,0 2.367882,48.857484,0 2.367937,48.857490,0 2.367939,48.857485,0 2.367950,48.857440,0 2.367954,48.857411,0 2.368122,48.857428,0</coordinates></LineString></Placemark>
<Placemark><name>A pie: La Madeleine a Place Vendôme</name><LineString><tessellate>1</tessellate><coordinates>2.324930,48.870010,0 2.325271,48.870471,0 2.325375,48.870615,0 2.325427,48.870599,0 2.325474,48.870560,0 2.325506,48.870567,0 2.325614,48.870591,0 2.325696,48.870609,0 2.325729,48.870621,0 2.325795,48.870597,0 2.325832,48.870608,0 2.325997,48.870556,0 2.326019,48.870546,0 2.326017,48.870532,0 2.326035,48.870530,0 2.326078,48.870516,0 2.326126,48.870501,0 2.326149,48.870487,0 2.326175,48.870493,0 2.326624,48.870356,0 2.326635,48.870337,0 2.326651,48.870332,0 2.326687,48.870320,0 2.326709,48.870313,0 2.326732,48.870305,0 2.326766,48.870314,0 2.327434,48.870101,0 2.327505,48.870069,0 2.327504,48.870056,0 2.327608,48.870006,0 2.327626,48.869963,0 2.327658,48.869874,0 2.327693,48.869787,0 2.327710,48.869742,0 2.327945,48.869782,0 2.328045,48.869719,0 2.328056,48.869715,0 2.328079,48.869706,0 2.328103,48.869699,0 2.328139,48.869685,0 2.328220,48.869697,0 2.329291,48.868936,0 2.329426,48.868840,0 2.330121,48.868338,0 2.330133,48.868333,0 2.330121,48.868296,0 2.330142,48.868286,0 2.330207,48.868250,0 2.329936,48.867981,0 2.329826,48.867872,0 2.329788,48.867751,0 2.329764,48.867674,0 2.329691,48.867557,0 2.329653,48.867497,0 2.329572,48.867406,0 2.329562,48.867397,0</coordinates></LineString></Placemark>
<Placemark><name>A pie: Place Vendôme a Ópera Garnier</name><LineString><tessellate>1</tessellate><coordinates>2.329562,48.867397,0 2.329572,48.867406,0 2.329653,48.867497,0 2.329691,48.867557,0 2.329764,48.867674,0 2.329788,48.867751,0 2.329826,48.867872,0 2.329936,48.867981,0 2.330207,48.868250,0 2.330271,48.868317,0 2.330359,48.868415,0 2.331453,48.869507,0 2.331518,48.869572,0 2.331578,48.869628,0 2.332118,48.870142,0 2.332229,48.870208,0 2.332172,48.870361,0 2.332066,48.870625,0 2.332012,48.870749,0 2.332124,48.870771,0 2.332149,48.870775,0 2.332237,48.870815,0 2.332320,48.870853,0 2.332232,48.871061,0 2.332233,48.871069,0 2.332253,48.871140,0 2.332289,48.871269,0 2.332276,48.871317,0 2.332313,48.871331,0 2.332336,48.871359,0 2.332490,48.871716,0 2.332503,48.871747,0 2.332529,48.871806,0 2.332542,48.871837,0 2.332568,48.871896,0 2.332581,48.871927,0 2.332611,48.871996,0 2.332605,48.872009,0 2.332590,48.872045,0 2.332576,48.872078,0 2.332553,48.872130,0 2.332519,48.872127,0 2.332520,48.872124,0</coordinates></LineString></Placemark>
<Placemark><name>A pie: Ópera Garnier a Galeries Lafayette Haussmann</name><LineString><tessellate>1</tessellate><coordinates>2.332520,48.872124,0 2.332519,48.872127,0 2.332553,48.872130,0 2.332539,48.872162,0 2.332513,48.872221,0 2.332498,48.872255,0 2.332478,48.872299,0 2.332458,48.872327,0 2.332399,48.872360,0 2.332364,48.872379,0 2.332298,48.872416,0 2.332260,48.872437,0 2.332194,48.872474,0 2.332156,48.872495,0 2.331964,48.872607,0 2.331757,48.872725,0 2.331551,48.872832,0 2.331570,48.872847,0 2.331638,48.872901,0 2.331682,48.872935,0 2.331741,48.872981,0 2.331755,48.873030,0 2.331751,48.873078,0 2.331755,48.873091,0 2.331769,48.873147,0 2.331784,48.873205,0 2.331792,48.873238,0 2.331999,48.873212,0</coordinates></LineString></Placemark>
<Placemark><name>A pie: L&#x27;Alchimiste a Torre Saint-Jacques</name><LineString><tessellate>1</tessellate><coordinates>2.349644,48.859008,0 2.349536,48.858860,0 2.349408,48.858686,0 2.349398,48.858671,0 2.349367,48.858630,0 2.349365,48.858627,0 2.349343,48.858597,0 2.349319,48.858560,0 2.349150,48.858311,0 2.349129,48.858280,0 2.349113,48.858259,0 2.349090,48.858228,0 2.349083,48.858218,0 2.349073,48.858204,0 2.349065,48.858194,0 2.349056,48.858181,0 2.349041,48.858160,0 2.349027,48.858141,0 2.348998,48.858098,0 2.349065,48.858075,0 2.349174,48.858016,0 2.349132,48.857948,0 2.349103,48.857957,0 2.349050,48.857973,0 2.349021,48.857982,0 2.349050,48.858036,0 2.348955,48.858060,0</coordinates></LineString></Placemark>
<Placemark><name>A pie: Hôtel Sanso a Comme au Vietnam</name><LineString><tessellate>1</tessellate><coordinates>2.374764,48.829391,0 2.374642,48.829328,0 2.374356,48.829168,0 2.374337,48.829159,0 2.374262,48.829124,0 2.374191,48.829087,0 2.374187,48.829072,0 2.374154,48.829055,0 2.373103,48.828485,0 2.373056,48.828452,0 2.373030,48.828435,0 2.372987,48.828416,0 2.372937,48.828394,0 2.372922,48.828386,0 2.372911,48.828398,0 2.372865,48.828441,0 2.372822,48.828480,0 2.372808,48.828499,0 2.372199,48.828185,0 2.371444,48.827789,0 2.371385,48.827778,0 2.371318,48.827782,0 2.371273,48.827815,0 2.371234,48.827803,0 2.371191,48.827789,0 2.371126,48.827769,0 2.371068,48.827763,0 2.371048,48.827739,0 2.370928,48.827723,0 2.370900,48.827708,0 2.370853,48.827700,0 2.370818,48.827695,0 2.370774,48.827688,0 2.370709,48.827733,0 2.370128,48.827820,0 2.369764,48.827878,0 2.369546,48.827913,0 2.369467,48.827931,0 2.369413,48.827922,0 2.369398,48.827930,0 2.369361,48.827935,0 2.369335,48.827938,0 2.369307,48.827933,0 2.369293,48.827954,0 2.369286,48.827957,0 2.368685,48.828050,0 2.367564,48.828235,0 2.367516,48.828214,0 2.367457,48.828198,0 2.367429,48.828185,0 2.367406,48.828170,0 2.367365,48.828148,0 2.367229,48.828227,0 2.367222,48.828231,0 2.367187,48.828251,0 2.367170,48.828262,0 2.367149,48.828276,0 2.367131,48.828283,0 2.367133,48.828290,0 2.367115,48.828319,0 2.366766,48.828510,0 2.366550,48.828577,0 2.365984,48.828753,0 2.365543,48.828888,0 2.365483,48.828898,0 2.365423,48.828883,0 2.365392,48.828874,0 2.365339,48.828861,0 2.365311,48.828905,0 2.365280,48.828949,0 2.365171,48.829137,0 2.365069,48.829116,0 2.365009,48.829108,0 2.364864,48.829160,0 2.364066,48.829479,0 2.363968,48.829518,0 2.363577,48.829674,0 2.362997,48.829910,0 2.362290,48.830205,0 2.362196,48.830249,0 2.362137,48.830210,0 2.362124,48.830201,0 2.360784,48.829307,0 2.360762,48.829321,0 2.360742,48.829342,0 2.360611,48.829353,0 2.360577,48.829333,0 2.360559,48.829320,0 2.360536,48.829307,0 2.360520,48.829295,0 2.360482,48.829282,0 2.360460,48.829285,0 2.360411,48.829311,0 2.360384,48.829315,0 2.360343,48.829291,0 2.360320,48.829280,0 2.360300,48.829271,0 2.360269,48.829257,0 2.360178,48.829321,0 2.360088,48.829353,0 2.360041,48.829369,0 2.360027,48.829378,0 2.360007,48.829390,0 2.359950,48.829417,0 2.359706,48.829532,0 2.359313,48.829675,0 2.359260,48.829686,0 2.359156,48.829639,0 2.358675,48.829438,0 2.358607,48.829412,0 2.358261,48.829246,0 2.358051,48.829146,0 2.357838,48.829044,0 2.357832,48.829013,0 2.357795,48.829003,0 2.357777,48.828996,0 2.357712,48.828972,0 2.357653,48.828950,0 2.357631,48.828942,0 2.357605,48.828927,0 2.357451,48.829125,0 2.357267,48.829349,0 2.357097,48.829571,0</coordinates></LineString></Placemark>
</Folder>
<Folder><name>2026-09-05 · Los Inválidos, el Petit Palais y vuelta</name>
<Placemark><name>08:45 Gare Montparnasse</name><description>Salida del hotel con las maletas</description><Point><coordinates>2.319109,48.840062,0</coordinates></Point></Placemark>
<Placemark><name>09:45 Hôtel national des Invalides</name><description>El día entero se resuelve con la 13, que une Montparnasse, Invalides y Champs-Élysées-Clemenceau sin transbordo.</description><Point><coordinates>2.313343,48.855954,0</coordinates></Point></Placemark>
<Placemark><name>09:55 Invalides, entrada de rue de Grenelle</name><description>Acceso libre, sin billete y sin cola, por el 129 de la rue de Grenelle. La explanada con los cañones de bronce en los fosos, el patio de doscientos metros de Libéral Bruant y el Domo asomando por encima. Dentro, la iglesia de los soldados con las banderas capturadas colgando de la bóveda. El conjunto es de 1671 y sigue siendo hospital militar.</description><Point><coordinates>2.313237,48.856459,0</coordinates></Point></Placemark>
<Placemark><name>10:00 Domo de los Inválidos y tumba de Napoleón</name><description>Esto sí se paga: billete del Musée de l&#x27;Armée, unos 17 €, gratis para los dos chicos. Napoleón está en la cripta abierta bajo el Domo de Hardouin-Mansart, en un sarcófago de cuarcita roja donde lo pusieron en 1861, cuarenta años después de morir en Santa Elena. La decisión se puede tomar allí mismo: con cuarenta y cinco minutos se ve y el plan no se toca.</description><Point><coordinates>2.312483,48.854442,0</coordinates></Point></Placemark>
<Placemark><name>10:45 Pont Alexandre III</name><description>De 1900, hecho para la Exposición Universal y con el nombre del zar por la alianza franco-rusa. El puente más cargado de dorados de París.</description><Point><coordinates>2.313518,48.86347,0</coordinates></Point></Placemark>
<Placemark><name>11:00 Petit Palais</name><description>Colecciones permanentes gratis. De Charles Girault para la Exposición de 1900, gemelo del Grand Palais de enfrente. Lo que interesa está en el centro: el jardín semicircular con peristilo de columnas pareadas, estanques, palmeras y mosaicos, y el Café 1902, abierto los sábados de 10:00 a 19:15. Desde la calle no se ve, y por eso casi nadie sabe que está ahí.</description><Point><coordinates>2.31535,48.866042,0</coordinates></Point></Placemark>
<Placemark><name>12:40 Rue du Départ</name><description>Por la rue du Départ, o compra para el tren en la estación.</description><Point><coordinates>2.323589,48.842653,0</coordinates></Point></Placemark>
<Placemark><name>A pie: Invalides, entrada de rue de Grenelle a Domo de los Inválidos y tumba de Napoleón</name><LineString><tessellate>1</tessellate><coordinates>2.313198,48.856462,0 2.313250,48.856954,0 2.312769,48.856977,0 2.312780,48.857114,0 2.312783,48.857148,0 2.312852,48.857145,0 2.312982,48.857210,0 2.313054,48.857145,0 2.313500,48.857115,0 2.313517,48.857128,0 2.313581,48.857106,0 2.313623,48.857125,0 2.313023,48.857973,0 2.313000,48.858000,0 2.312989,48.858015,0 2.312896,48.858131,0 2.312908,48.858227,0 2.312918,48.858330,0 2.313011,48.858326,0 2.313435,48.858306,0 2.313663,48.858296,0 2.313710,48.858286,0 2.314384,48.858098,0 2.314583,48.857984,0 2.314664,48.857958,0 2.314785,48.857939,0 2.314949,48.857855,0 2.314937,48.857744,0 2.314901,48.857450,0 2.314862,48.857138,0 2.314854,48.857069,0 2.314763,48.856281,0 2.314588,48.854759,0 2.314506,48.853975,0 2.314460,48.853920,0 2.314420,48.853887,0 2.314372,48.853847,0 2.313459,48.853890,0 2.312871,48.853911,0 2.312426,48.853933,0</coordinates></LineString></Placemark>
<Placemark><name>A pie: Domo de los Inválidos y tumba de Napoleón a Pont Alexandre III</name><LineString><tessellate>1</tessellate><coordinates>2.312426,48.853933,0 2.312871,48.853911,0 2.313459,48.853890,0 2.314372,48.853847,0 2.314420,48.853887,0 2.314460,48.853920,0 2.314506,48.853975,0 2.314588,48.854759,0 2.314763,48.856281,0 2.314854,48.857069,0 2.314862,48.857138,0 2.314901,48.857450,0 2.314937,48.857744,0 2.314949,48.857855,0 2.314785,48.857939,0 2.314664,48.857958,0 2.314672,48.857975,0 2.314697,48.858033,0 2.314700,48.858040,0 2.314727,48.858101,0 2.314732,48.858111,0 2.314724,48.858134,0 2.314753,48.858341,0 2.314729,48.858349,0 2.314708,48.858354,0 2.314636,48.858375,0 2.314690,48.858826,0 2.314697,48.858882,0 2.314743,48.859267,0 2.314765,48.859455,0 2.314783,48.859603,0 2.314818,48.859894,0 2.314827,48.859966,0 2.314932,48.860848,0 2.314937,48.860888,0 2.314873,48.860891,0 2.314833,48.860889,0 2.314835,48.860910,0 2.314836,48.860921,0 2.314842,48.860979,0 2.314848,48.861052,0 2.314849,48.861060,0 2.314856,48.861098,0 2.314859,48.861385,0 2.314856,48.861396,0 2.314856,48.861423,0 2.314857,48.861457,0 2.314924,48.861824,0 2.314942,48.861957,0 2.314962,48.862112,0 2.314999,48.862525,0 2.315002,48.862560,0 2.315003,48.862573,0 2.315003,48.862591,0 2.315003,48.862610,0 2.315005,48.862623,0 2.315006,48.862638,0 2.315011,48.862696,0 2.315014,48.862749,0 2.314895,48.862790,0 2.314239,48.862775,0 2.313966,48.862745,0 2.313950,48.862745,0 2.313690,48.862739,0 2.313689,48.862754,0 2.313688,48.862820,0 2.313688,48.862834,0 2.313688,48.862837,0 2.313449,48.862834,0 2.313458,48.862914,0 2.313463,48.862973,0 2.313467,48.863005,0 2.313523,48.863470,0</coordinates></LineString></Placemark>
<Placemark><name>A pie: Pont Alexandre III a Petit Palais</name><LineString><tessellate>1</tessellate><coordinates>2.313523,48.863470,0 2.313624,48.864311,0 2.313645,48.864488,0 2.313648,48.864515,0 2.313651,48.864541,0 2.313498,48.864544,0 2.313403,48.864547,0 2.313334,48.864549,0 2.313328,48.864563,0 2.313322,48.864579,0 2.313318,48.864591,0 2.313302,48.864633,0 2.313299,48.864667,0 2.313297,48.864711,0 2.313299,48.864939,0 2.313298,48.864976,0 2.313298,48.865028,0 2.313298,48.865052,0 2.313397,48.865055,0 2.313446,48.865064,0 2.313486,48.865077,0 2.313518,48.865095,0 2.313552,48.865094,0 2.313717,48.865091,0 2.313900,48.865087,0 2.313941,48.865086,0 2.313986,48.865070,0 2.314151,48.865073,0 2.314184,48.865368,0 2.314192,48.865438,0 2.314595,48.865417,0 2.315522,48.865607,0 2.315525,48.865628,0 2.315544,48.865698,0 2.315536,48.865753,0 2.315567,48.866031,0</coordinates></LineString></Placemark>
<Placemark><name>A pie: Petit Palais a Champs-Élysées-Clemenceau</name><LineString><tessellate>1</tessellate><coordinates>2.315567,48.866031,0 2.315590,48.866233,0 2.315616,48.866305,0 2.315606,48.866400,0 2.315625,48.866523,0 2.315645,48.866625,0 2.315673,48.866696,0 2.315708,48.866755,0 2.315771,48.866838,0 2.315841,48.866929,0 2.314788,48.867255,0 2.314769,48.867261,0 2.314694,48.867285,0 2.314574,48.867325,0 2.314484,48.867355,0 2.314408,48.867379,0 2.314343,48.867401,0 2.314198,48.867448,0 2.314120,48.867474,0</coordinates></LineString></Placemark>
<Placemark><name>A pie: Gare Montparnasse a City-Locker rue du Maine</name><LineString><tessellate>1</tessellate><coordinates>2.319130,48.840051,0 2.319330,48.840217,0 2.319715,48.840535,0 2.319777,48.840586,0 2.319884,48.840530,0 2.319959,48.840592,0 2.320100,48.840707,0 2.320197,48.840656,0 2.320259,48.840622,0 2.320150,48.840533,0 2.320167,48.840524,0 2.320327,48.840440,0 2.320481,48.840359,0 2.320682,48.840253,0 2.320713,48.840278,0 2.320735,48.840266,0 2.320812,48.840328,0 2.320836,48.840305,0 2.320852,48.840289,0 2.320869,48.840280,0 2.320947,48.840239,0 2.320996,48.840212,0 2.321076,48.840170,0 2.321158,48.840126,0 2.321202,48.840102,0 2.321221,48.840118,0 2.321231,48.840114,0 2.321305,48.840075,0 2.321306,48.840049,0 2.321337,48.840034,0 2.321559,48.840202,0 2.321597,48.840208,0 2.321669,48.840223,0 2.321737,48.840236,0 2.321813,48.840252,0 2.321902,48.840245,0 2.321968,48.840240,0 2.322012,48.840246,0 2.321896,48.840533,0 2.321896,48.840547,0 2.321932,48.840553,0 2.322427,48.840587,0 2.323031,48.840561,0</coordinates></LineString></Placemark>
</Folder>
</Document></kml>