<?xml version="1.0" encoding="UTF-8"?>
<gpx version="1.1" creator="Guia Paris 2026" xmlns="http://www.topografix.com/GPX/1/1">
<metadata><name>2026-09-05 Los Inválidos, el Petit Palais y vuelta</name></metadata>
<wpt lat="48.840062" lon="2.319109"><name>08:45 Gare Montparnasse</name><desc>08:45 · Salida del hotel con las maletas</desc><type>transporte</type></wpt>
<wpt lat="48.855954" lon="2.313343"><name>09:45 Hôtel national des Invalides</name><desc>09:45 · Línea 13 hasta Invalides. El día entero se resuelve con la 13, que une Montparnasse, Invalides y Champs-Élysées-Clemenceau sin transbordo.</desc><type>transporte</type></wpt>
<wpt lat="48.856459" lon="2.313237"><name>09:55 Invalides, entrada de rue de Grenelle</name><desc>09:55 · Inválidos: patio de honor y Saint-Louis. Acceso libre, sin billete y sin cola, por el 129 de la rue de Grenelle. La explanada con los cañones de bronce en los fosos, el patio de doscientos metros de Libéral Bruant y el Domo asomando por encima. Dentro, la iglesia de los soldados con las banderas capturadas colgando de la bóveda. El conjunto es de 1671 y sigue siendo hospital militar.</desc><type>visita</type></wpt>
<wpt lat="48.854442" lon="2.312483"><name>10:00 Domo de los Inválidos y tumba de Napoleón</name><desc>10:00 · Domo y tumba de Napoleón. Esto sí se paga: billete del Musée de l&#x27;Armée, unos 17 €, gratis para los dos chicos. Napoleón está en la cripta abierta bajo el Domo de Hardouin-Mansart, en un sarcófago de cuarcita roja donde lo pusieron en 1861, cuarenta años después de morir en Santa Elena. La decisión se puede tomar allí mismo: con cuarenta y cinco minutos se ve y el plan no se toca.</desc><type>opcional</type></wpt>
<wpt lat="48.86347" lon="2.313518"><name>10:45 Pont Alexandre III</name><desc>10:45 · Pont Alexandre III. De 1900, hecho para la Exposición Universal y con el nombre del zar por la alianza franco-rusa. El puente más cargado de dorados de París.</desc><type>visita</type></wpt>
<wpt lat="48.866042" lon="2.31535"><name>11:00 Petit Palais</name><desc>11:00 · Petit Palais y Café 1902. Colecciones permanentes gratis. De Charles Girault para la Exposición de 1900, gemelo del Grand Palais de enfrente. Lo que interesa está en el centro: el jardín semicircular con peristilo de columnas pareadas, estanques, palmeras y mosaicos, y el Café 1902, abierto los sábados de 10:00 a 19:15. Desde la calle no se ve, y por eso casi nadie sabe que está ahí.</desc><type>visita</type></wpt>
<wpt lat="48.842653" lon="2.323589"><name>12:40 Rue du Départ</name><desc>12:40 · Recogida de maletas y comida. Por la rue du Départ, o compra para el tren en la estación.</desc><type>comida</type></wpt>
<trk><name>Invalides, entrada de rue de Grenelle a Domo de los Inválidos y tumba de Napoleón (1079 m, 15.1 min)</name><trkseg>
<trkpt lat="48.856462" lon="2.313198"/>
<trkpt lat="48.856954" lon="2.313250"/>
<trkpt lat="48.856977" lon="2.312769"/>
<trkpt lat="48.857114" lon="2.312780"/>
<trkpt lat="48.857148" lon="2.312783"/>
<trkpt lat="48.857145" lon="2.312852"/>
<trkpt lat="48.857210" lon="2.312982"/>
<trkpt lat="48.857145" lon="2.313054"/>
<trkpt lat="48.857115" lon="2.313500"/>
<trkpt lat="48.857128" lon="2.313517"/>
<trkpt lat="48.857106" lon="2.313581"/>
<trkpt lat="48.857125" lon="2.313623"/>
<trkpt lat="48.857973" lon="2.313023"/>
<trkpt lat="48.858000" lon="2.313000"/>
<trkpt lat="48.858015" lon="2.312989"/>
<trkpt lat="48.858131" lon="2.312896"/>
<trkpt lat="48.858227" lon="2.312908"/>
<trkpt lat="48.858330" lon="2.312918"/>
<trkpt lat="48.858326" lon="2.313011"/>
<trkpt lat="48.858306" lon="2.313435"/>
<trkpt lat="48.858296" lon="2.313663"/>
<trkpt lat="48.858286" lon="2.313710"/>
<trkpt lat="48.858098" lon="2.314384"/>
<trkpt lat="48.857984" lon="2.314583"/>
<trkpt lat="48.857958" lon="2.314664"/>
<trkpt lat="48.857939" lon="2.314785"/>
<trkpt lat="48.857855" lon="2.314949"/>
<trkpt lat="48.857744" lon="2.314937"/>
<trkpt lat="48.857450" lon="2.314901"/>
<trkpt lat="48.857138" lon="2.314862"/>
<trkpt lat="48.857069" lon="2.314854"/>
<trkpt lat="48.856281" lon="2.314763"/>
<trkpt lat="48.854759" lon="2.314588"/>
<trkpt lat="48.853975" lon="2.314506"/>
<trkpt lat="48.853920" lon="2.314460"/>
<trkpt lat="48.853887" lon="2.314420"/>
<trkpt lat="48.853847" lon="2.314372"/>
<trkpt lat="48.853890" lon="2.313459"/>
<trkpt lat="48.853911" lon="2.312871"/>
<trkpt lat="48.853933" lon="2.312426"/>
</trkseg></trk>
<trk><name>Domo de los Inválidos y tumba de Napoleón a Pont Alexandre III (1365 m, 18.8 min)</name><trkseg>
<trkpt lat="48.853933" lon="2.312426"/>
<trkpt lat="48.853911" lon="2.312871"/>
<trkpt lat="48.853890" lon="2.313459"/>
<trkpt lat="48.853847" lon="2.314372"/>
<trkpt lat="48.853887" lon="2.314420"/>
<trkpt lat="48.853920" lon="2.314460"/>
<trkpt lat="48.853975" lon="2.314506"/>
<trkpt lat="48.854759" lon="2.314588"/>
<trkpt lat="48.856281" lon="2.314763"/>
<trkpt lat="48.857069" lon="2.314854"/>
<trkpt lat="48.857138" lon="2.314862"/>
<trkpt lat="48.857450" lon="2.314901"/>
<trkpt lat="48.857744" lon="2.314937"/>
<trkpt lat="48.857855" lon="2.314949"/>
<trkpt lat="48.857939" lon="2.314785"/>
<trkpt lat="48.857958" lon="2.314664"/>
<trkpt lat="48.857975" lon="2.314672"/>
<trkpt lat="48.858033" lon="2.314697"/>
<trkpt lat="48.858040" lon="2.314700"/>
<trkpt lat="48.858101" lon="2.314727"/>
<trkpt lat="48.858111" lon="2.314732"/>
<trkpt lat="48.858134" lon="2.314724"/>
<trkpt lat="48.858341" lon="2.314753"/>
<trkpt lat="48.858349" lon="2.314729"/>
<trkpt lat="48.858354" lon="2.314708"/>
<trkpt lat="48.858375" lon="2.314636"/>
<trkpt lat="48.858826" lon="2.314690"/>
<trkpt lat="48.858882" lon="2.314697"/>
<trkpt lat="48.859267" lon="2.314743"/>
<trkpt lat="48.859455" lon="2.314765"/>
<trkpt lat="48.859603" lon="2.314783"/>
<trkpt lat="48.859894" lon="2.314818"/>
<trkpt lat="48.859966" lon="2.314827"/>
<trkpt lat="48.860848" lon="2.314932"/>
<trkpt lat="48.860888" lon="2.314937"/>
<trkpt lat="48.860891" lon="2.314873"/>
<trkpt lat="48.860889" lon="2.314833"/>
<trkpt lat="48.860910" lon="2.314835"/>
<trkpt lat="48.860921" lon="2.314836"/>
<trkpt lat="48.860979" lon="2.314842"/>
<trkpt lat="48.861052" lon="2.314848"/>
<trkpt lat="48.861060" lon="2.314849"/>
<trkpt lat="48.861098" lon="2.314856"/>
<trkpt lat="48.861385" lon="2.314859"/>
<trkpt lat="48.861396" lon="2.314856"/>
<trkpt lat="48.861423" lon="2.314856"/>
<trkpt lat="48.861457" lon="2.314857"/>
<trkpt lat="48.861824" lon="2.314924"/>
<trkpt lat="48.861957" lon="2.314942"/>
<trkpt lat="48.862112" lon="2.314962"/>
<trkpt lat="48.862525" lon="2.314999"/>
<trkpt lat="48.862560" lon="2.315002"/>
<trkpt lat="48.862573" lon="2.315003"/>
<trkpt lat="48.862591" lon="2.315003"/>
<trkpt lat="48.862610" lon="2.315003"/>
<trkpt lat="48.862623" lon="2.315005"/>
<trkpt lat="48.862638" lon="2.315006"/>
<trkpt lat="48.862696" lon="2.315011"/>
<trkpt lat="48.862749" lon="2.315014"/>
<trkpt lat="48.862790" lon="2.314895"/>
<trkpt lat="48.862775" lon="2.314239"/>
<trkpt lat="48.862745" lon="2.313966"/>
<trkpt lat="48.862745" lon="2.313950"/>
<trkpt lat="48.862739" lon="2.313690"/>
<trkpt lat="48.862754" lon="2.313689"/>
<trkpt lat="48.862820" lon="2.313688"/>
<trkpt lat="48.862834" lon="2.313688"/>
<trkpt lat="48.862837" lon="2.313688"/>
<trkpt lat="48.862834" lon="2.313449"/>
<trkpt lat="48.862914" lon="2.313458"/>
<trkpt lat="48.862973" lon="2.313463"/>
<trkpt lat="48.863005" lon="2.313467"/>
<trkpt lat="48.863470" lon="2.313523"/>
</trkseg></trk>
<trk><name>Pont Alexandre III a Petit Palais (451 m, 6.5 min)</name><trkseg>
<trkpt lat="48.863470" lon="2.313523"/>
<trkpt lat="48.864311" lon="2.313624"/>
<trkpt lat="48.864488" lon="2.313645"/>
<trkpt lat="48.864515" lon="2.313648"/>
<trkpt lat="48.864541" lon="2.313651"/>
<trkpt lat="48.864544" lon="2.313498"/>
<trkpt lat="48.864547" lon="2.313403"/>
<trkpt lat="48.864549" lon="2.313334"/>
<trkpt lat="48.864563" lon="2.313328"/>
<trkpt lat="48.864579" lon="2.313322"/>
<trkpt lat="48.864591" lon="2.313318"/>
<trkpt lat="48.864633" lon="2.313302"/>
<trkpt lat="48.864667" lon="2.313299"/>
<trkpt lat="48.864711" lon="2.313297"/>
<trkpt lat="48.864939" lon="2.313299"/>
<trkpt lat="48.864976" lon="2.313298"/>
<trkpt lat="48.865028" lon="2.313298"/>
<trkpt lat="48.865052" lon="2.313298"/>
<trkpt lat="48.865055" lon="2.313397"/>
<trkpt lat="48.865064" lon="2.313446"/>
<trkpt lat="48.865077" lon="2.313486"/>
<trkpt lat="48.865095" lon="2.313518"/>
<trkpt lat="48.865094" lon="2.313552"/>
<trkpt lat="48.865091" lon="2.313717"/>
<trkpt lat="48.865087" lon="2.313900"/>
<trkpt lat="48.865086" lon="2.313941"/>
<trkpt lat="48.865070" lon="2.313986"/>
<trkpt lat="48.865073" lon="2.314151"/>
<trkpt lat="48.865368" lon="2.314184"/>
<trkpt lat="48.865438" lon="2.314192"/>
<trkpt lat="48.865417" lon="2.314595"/>
<trkpt lat="48.865607" lon="2.315522"/>
<trkpt lat="48.865628" lon="2.315525"/>
<trkpt lat="48.865698" lon="2.315544"/>
<trkpt lat="48.865753" lon="2.315536"/>
<trkpt lat="48.866031" lon="2.315567"/>
</trkseg></trk>
<trk><name>Petit Palais a Champs-Élysées-Clemenceau (242 m, 3.4 min)</name><trkseg>
<trkpt lat="48.866031" lon="2.315567"/>
<trkpt lat="48.866233" lon="2.315590"/>
<trkpt lat="48.866305" lon="2.315616"/>
<trkpt lat="48.866400" lon="2.315606"/>
<trkpt lat="48.866523" lon="2.315625"/>
<trkpt lat="48.866625" lon="2.315645"/>
<trkpt lat="48.866696" lon="2.315673"/>
<trkpt lat="48.866755" lon="2.315708"/>
<trkpt lat="48.866838" lon="2.315771"/>
<trkpt lat="48.866929" lon="2.315841"/>
<trkpt lat="48.867255" lon="2.314788"/>
<trkpt lat="48.867261" lon="2.314769"/>
<trkpt lat="48.867285" lon="2.314694"/>
<trkpt lat="48.867325" lon="2.314574"/>
<trkpt lat="48.867355" lon="2.314484"/>
<trkpt lat="48.867379" lon="2.314408"/>
<trkpt lat="48.867401" lon="2.314343"/>
<trkpt lat="48.867448" lon="2.314198"/>
<trkpt lat="48.867474" lon="2.314120"/>
</trkseg></trk>
<trk><name>Gare Montparnasse a City-Locker rue du Maine (435 m, 6.3 min)</name><trkseg>
<trkpt lat="48.840051" lon="2.319130"/>
<trkpt lat="48.840217" lon="2.319330"/>
<trkpt lat="48.840535" lon="2.319715"/>
<trkpt lat="48.840586" lon="2.319777"/>
<trkpt lat="48.840530" lon="2.319884"/>
<trkpt lat="48.840592" lon="2.319959"/>
<trkpt lat="48.840707" lon="2.320100"/>
<trkpt lat="48.840656" lon="2.320197"/>
<trkpt lat="48.840622" lon="2.320259"/>
<trkpt lat="48.840533" lon="2.320150"/>
<trkpt lat="48.840524" lon="2.320167"/>
<trkpt lat="48.840440" lon="2.320327"/>
<trkpt lat="48.840359" lon="2.320481"/>
<trkpt lat="48.840253" lon="2.320682"/>
<trkpt lat="48.840278" lon="2.320713"/>
<trkpt lat="48.840266" lon="2.320735"/>
<trkpt lat="48.840328" lon="2.320812"/>
<trkpt lat="48.840305" lon="2.320836"/>
<trkpt lat="48.840289" lon="2.320852"/>
<trkpt lat="48.840280" lon="2.320869"/>
<trkpt lat="48.840239" lon="2.320947"/>
<trkpt lat="48.840212" lon="2.320996"/>
<trkpt lat="48.840170" lon="2.321076"/>
<trkpt lat="48.840126" lon="2.321158"/>
<trkpt lat="48.840102" lon="2.321202"/>
<trkpt lat="48.840118" lon="2.321221"/>
<trkpt lat="48.840114" lon="2.321231"/>
<trkpt lat="48.840075" lon="2.321305"/>
<trkpt lat="48.840049" lon="2.321306"/>
<trkpt lat="48.840034" lon="2.321337"/>
<trkpt lat="48.840202" lon="2.321559"/>
<trkpt lat="48.840208" lon="2.321597"/>
<trkpt lat="48.840223" lon="2.321669"/>
<trkpt lat="48.840236" lon="2.321737"/>
<trkpt lat="48.840252" lon="2.321813"/>
<trkpt lat="48.840245" lon="2.321902"/>
<trkpt lat="48.840240" lon="2.321968"/>
<trkpt lat="48.840246" lon="2.322012"/>
<trkpt lat="48.840533" lon="2.321896"/>
<trkpt lat="48.840547" lon="2.321896"/>
<trkpt lat="48.840553" lon="2.321932"/>
<trkpt lat="48.840587" lon="2.322427"/>
<trkpt lat="48.840561" lon="2.323031"/>
</trkseg></trk>
</gpx>